[
    {
        "co": "GMB",
        "stop": 20000020,
        "name_tc": "金鐘道, 金鐘廊外",
        "name_sc": "金钟道, 金钟廊外",
        "name_en": "Queensway, outside Golden Bell Gallery",
        "lat": 22.278463856092646,
        "long": 114.16468720195424
    },
    {
        "co": "GMB",
        "stop": 20000066,
        "name_tc": "德立街, 近港鐵站入口",
        "name_sc": "德立街, 近港铁站入口",
        "name_en": "Drake Street, near MTR exit",
        "lat": 22.27913213277772,
        "long": 114.16481328570866
    },
    {
        "co": "GMB",
        "stop": 20000080,
        "name_tc": "觀龍樓",
        "name_sc": "观龙楼",
        "name_en": "Kwun Lung Lau",
        "lat": 22.279775626983707,
        "long": 114.12862017977727
    },
    {
        "co": "GMB",
        "stop": 20000090,
        "name_tc": "加惠民道, 近西環邨",
        "name_sc": "加惠民道, 近西环邨",
        "name_en": "Ka Wai Man Road, near Sai Wan Estate",
        "lat": 22.28114727031488,
        "long": 114.12532057950847
    },
    {
        "co": "GMB",
        "stop": 20000093,
        "name_tc": "蘭芳道,近利園宏利保險大廈",
        "name_sc": "",
        "name_en": "Near The Lee Gardens Manulife Plaza, Lan Fong Road",
        "lat": 22.27863571575401,
        "long": 114.18439429153928
    },
    {
        "co": "GMB",
        "stop": 20000099,
        "name_tc": "赤柱灘道",
        "name_sc": "赤柱滩道",
        "name_en": "Stanley Beach Road",
        "lat": 22.219697652629254,
        "long": 114.2132265305339
    },
    {
        "co": "GMB",
        "stop": 20000101,
        "name_tc": "舂磡角道, 海暉花園外",
        "name_sc": "舂磡角道, 海晖花园外",
        "name_en": "Chung Hom Kok Road, outside Pacific View",
        "lat": 22.216141164838984,
        "long": 114.20512707417402
    },
    {
        "co": "GMB",
        "stop": 20000102,
        "name_tc": "港鐵柴灣站巴士總站",
        "name_sc": "港铁柴湾站巴士总站",
        "name_en": "Chai Wan Station Bus Terminus",
        "lat": 22.265241242808457,
        "long": 114.2372319066943
    },
    {
        "co": "GMB",
        "stop": 20000103,
        "name_tc": "港鐵柴灣站巴士總站",
        "name_sc": "港铁柴湾站巴士总站",
        "name_en": "Chai Wan Station Bus Terminus",
        "lat": 22.264889079907206,
        "long": 114.2371444357347
    },
    {
        "co": "GMB",
        "stop": 20000104,
        "name_tc": "歌連臣角懲教所",
        "name_sc": "歌连臣角惩教所",
        "name_en": "Cape Collinson Correctional Institution",
        "lat": 22.251245862361657,
        "long": 114.25356282512651
    },
    {
        "co": "GMB",
        "stop": 20000120,
        "name_tc": "興民邨, 民富樓外",
        "name_sc": "兴民邨, 民富楼外",
        "name_en": "Hing Man Estate, outside Man Fu House",
        "lat": 22.26769922091485,
        "long": 114.23264372849955
    },
    {
        "co": "GMB",
        "stop": 20000126,
        "name_tc": "利牧徑, 薄扶林花園",
        "name_sc": "利牧径, 薄扶林花园",
        "name_en": "Chi Fu Road, outside block no. 14",
        "lat": 22.258330106017983,
        "long": 114.13699043541531
    },
    {
        "co": "GMB",
        "stop": 20000140,
        "name_tc": "畢拉山道111號M座對面",
        "name_sc": "毕拉山道111号M座对面",
        "name_en": "No.111 Mount Bulter Road, opposite Block M",
        "lat": 22.271663018636694,
        "long": 114.19670660759492
    },
    {
        "co": "GMB",
        "stop": 20000142,
        "name_tc": "上寶馬山巴士總站",
        "name_sc": "上宝马山巴士总站",
        "name_en": "Upper Braemar Hill Bus Terminus",
        "lat": 22.283131665902484,
        "long": 114.19877506621636
    },
    {
        "co": "GMB",
        "stop": 20000160,
        "name_tc": "深灣道公共交通總站",
        "name_sc": "深湾道公共交通总站",
        "name_en": "Shum Wan Road Public Transport Terminus",
        "lat": 22.243137411689396,
        "long": 114.16431734016444
    },
    {
        "co": "GMB",
        "stop": 20000165,
        "name_tc": "冬青道總站",
        "name_sc": "冬青道总站",
        "name_en": "Holly Road Terminus",
        "lat": 22.2658571221876,
        "long": 114.18829391761625
    },
    {
        "co": "GMB",
        "stop": 20000210,
        "name_tc": "馬寶道,華禮大廈外",
        "name_sc": "马宝道,华礼大厦外",
        "name_en": "Marble Road, outside Wah Lai Mansion",
        "lat": 22.292026411372348,
        "long": 114.20171679018387
    },
    {
        "co": "GMB",
        "stop": 20000218,
        "name_tc": "南寧街, 海湖閣外",
        "name_sc": "南宁街, 海湖阁外",
        "name_en": "Nam Ning Street, outside Hoi Wun Court",
        "lat": 22.248950576811072,
        "long": 114.15438717156482
    },
    {
        "co": "GMB",
        "stop": 20000238,
        "name_tc": "漁安苑道, 彩安閣",
        "name_sc": "渔安苑道, 彩安阁",
        "name_en": "Yue On Court Road, Choi On House",
        "lat": 22.243216381169965,
        "long": 114.15654164284477
    },
    {
        "co": "GMB",
        "stop": 20000243,
        "name_tc": "港鐵天后站巴士總站",
        "name_sc": "港铁天后站巴士总站",
        "name_en": "Tin Hau Station Bus Terminus",
        "lat": 22.28267192774019,
        "long": 114.19145860704772
    },
    {
        "co": "GMB",
        "stop": 20000253,
        "name_tc": "東頭灣道, 赤柱監獄",
        "name_sc": "东头湾道, 赤柱监狱",
        "name_en": "Tung Tau Wan Road, Stanley Prison",
        "lat": 22.215379930859378,
        "long": 114.21762866975725
    },
    {
        "co": "GMB",
        "stop": 20000254,
        "name_tc": "峰霞道, 曉峰樓外",
        "name_sc": "峰霞道, 晓峰楼外",
        "name_en": "Fung Ha Road, outside Hiu Fung House",
        "lat": 22.260592536221875,
        "long": 114.23135055674139
    },
    {
        "co": "GMB",
        "stop": 20000255,
        "name_tc": "柴灣站公共運輸交匯處",
        "name_sc": "柴湾站公共运输交汇处",
        "name_en": "Chai Wan Station Public Transport Interchange",
        "lat": 22.26497039175183,
        "long": 114.23704744850788
    },
    {
        "co": "GMB",
        "stop": 20000257,
        "name_tc": "小西灣第三期",
        "name_sc": "小西湾第三期",
        "name_en": "Siu Sai Wan Phase III",
        "lat": 22.262318953731086,
        "long": 114.25030898059762
    },
    {
        "co": "GMB",
        "stop": 20000263,
        "name_tc": "東區尤德夫人那打素醫院",
        "name_sc": "东区尤德夫人那打素医院",
        "name_en": "Pamela Youde Nethersole Eastern Hospital, outside Main Block",
        "lat": 22.269137269803817,
        "long": 114.23684638983106
    },
    {
        "co": "GMB",
        "stop": 20000264,
        "name_tc": "利眾街近華廈邨",
        "name_sc": "利众街近华厦村",
        "name_en": "Lee Chung Street, near Wah Ha Estate\t",
        "lat": 22.265106087611013,
        "long": 114.23640716025987
    },
    {
        "co": "GMB",
        "stop": 20000272,
        "name_tc": "華貴邨巴士總站",
        "name_sc": "华贵邨巴士总站",
        "name_en": "Wah Kwai Estate Bus Terminus",
        "lat": 22.249760657177948,
        "long": 114.13974798921996
    },
    {
        "co": "GMB",
        "stop": 20000275,
        "name_tc": "田灣邨道, 田澤樓外",
        "name_sc": "田湾邨道, 田泽楼外",
        "name_en": "Tin Wan Estate Road, outside Tin Chak House",
        "lat": 22.252634565700614,
        "long": 114.15086499090242
    },
    {
        "co": "GMB",
        "stop": 20000284,
        "name_tc": "中環(中環碼頭)",
        "name_sc": "中环(中环码头)",
        "name_en": "Central (Central Ferry Piers)",
        "lat": 22.286717452321312,
        "long": 114.16013544902626
    },
    {
        "co": "GMB",
        "stop": 20000302,
        "name_tc": "羅便臣道, 秀麗閣對面",
        "name_sc": "罗便臣道, 秀丽阁对面",
        "name_en": "Robinson Road, opposite Serene Court",
        "lat": 22.28272327689679,
        "long": 114.14314520919599
    },
    {
        "co": "GMB",
        "stop": 20000311,
        "name_tc": "邊寧頓街利園二期外",
        "name_sc": "边宁顿街利园二期外",
        "name_en": "Pennington Street outside Lee Gardens Two",
        "lat": 22.278536296215762,
        "long": 114.18599530536028
    },
    {
        "co": "GMB",
        "stop": 20000326,
        "name_tc": "湖南街, 安泰大廈外",
        "name_sc": "湖南街, 安泰大厦外",
        "name_en": "Wu Nam Street, outside On Tai Building",
        "lat": 22.24775868837668,
        "long": 114.15558058743373
    },
    {
        "co": "GMB",
        "stop": 20000341,
        "name_tc": "東勝道, 裕景中心外 ",
        "name_sc": "東勝道, 裕景中心外 ",
        "name_en": "Tung Sing Road, outside Goodview Centre ",
        "lat": 22.248047626470388,
        "long": 114.15525070834737
    },
    {
        "co": "GMB",
        "stop": 20000343,
        "name_tc": "深灣道, 南濤閣第3座外",
        "name_sc": "深湾道, 南涛阁第3座外",
        "name_en": "Shum Wan Road, outside Block 3, South Wave Court",
        "lat": 22.244707356068087,
        "long": 114.16566252708436
    },
    {
        "co": "GMB",
        "stop": 20000356,
        "name_tc": "海怡半島巴士總站",
        "name_sc": "海怡半岛巴士总站",
        "name_en": "South Horizons Bus Terminus",
        "lat": 22.24270958944825,
        "long": 114.14924680690409
    },
    {
        "co": "GMB",
        "stop": 20000366,
        "name_tc": "瑪麗醫院, K翼外",
        "name_sc": "玛丽医院, K翼外",
        "name_en": "Queen Mary Hospital, outside Block K",
        "lat": 22.27091727968321,
        "long": 114.13103250554346
    },
    {
        "co": "GMB",
        "stop": 20000409,
        "name_tc": "快富街近西洋菜南街",
        "name_sc": "快富街近西洋菜南街",
        "name_en": "Fife Street near Sai Yeung Choi Street South",
        "lat": 22.320438469164483,
        "long": 114.16993454218809
    },
    {
        "co": "GMB",
        "stop": 20000418,
        "name_tc": "黃埔花園公共運輸交匯處",
        "name_sc": "黄埔花园公共运输交汇处",
        "name_en": "Whampoa Garden Public Transport Interchange",
        "lat": 22.30515822836429,
        "long": 114.19088835396907
    },
    {
        "co": "GMB",
        "stop": 20000454,
        "name_tc": "中匯街, 中和樓外",
        "name_sc": "中汇街, 中和楼外",
        "name_en": "Chung Wui Street, outside Chung Wo Building",
        "lat": 22.322460742706138,
        "long": 114.16149006589558
    },
    {
        "co": "GMB",
        "stop": 20000465,
        "name_tc": "學餘里, 樂園外",
        "name_sc": "学余里, 乐园外",
        "name_en": "Hok Yu Lane, outside Happy Court",
        "lat": 22.319824533102043,
        "long": 114.1776993709354
    },
    {
        "co": "GMB",
        "stop": 20000489,
        "name_tc": "偉景街, 偉景閣A座外",
        "name_sc": "伟景街, 伟景阁A座外",
        "name_en": "Wai King Street, outside Block A, Wei Chien Court",
        "lat": 22.31724105581244,
        "long": 114.19220955519312
    },
    {
        "co": "GMB",
        "stop": 20000540,
        "name_tc": "白雲街, 白田邨巴士總站",
        "name_sc": "白云街, 白田邨巴士总站",
        "name_en": "Pak Wan Street, Pak Tin Estate Bus Terminus",
        "lat": 22.33706362826191,
        "long": 114.1670895180512
    },
    {
        "co": "GMB",
        "stop": 20000546,
        "name_tc": "通菜街, 旺角警署外",
        "name_sc": "通菜街, 旺角警署外",
        "name_en": "Tung Choi Street, outside Mong Kok Police Station",
        "lat": 22.324673792247307,
        "long": 114.16939077940425
    },
    {
        "co": "GMB",
        "stop": 20000547,
        "name_tc": "港鐵旺角東站",
        "name_sc": "港铁旺角东站",
        "name_en": "Mongkok East Station",
        "lat": 22.322073086789946,
        "long": 114.17219599568885
    },
    {
        "co": "GMB",
        "stop": 20000561,
        "name_tc": "橫頭磡南道宏順樓外",
        "name_sc": "横头磡南道宏顺楼外",
        "name_en": "Wang Tau Hom South Road outside Wang Shun House",
        "lat": 22.33859882357179,
        "long": 114.18661078600392
    },
    {
        "co": "GMB",
        "stop": 20000579,
        "name_tc": "沙田坳道, 港鐵黃大仙站",
        "name_sc": "沙田坳道, 港铁黄大仙站",
        "name_en": "Wong Tai Sin Station",
        "lat": 22.342598612364927,
        "long": 114.19527022093747
    },
    {
        "co": "GMB",
        "stop": 20000582,
        "name_tc": "慈雲山道, 沙田坳邨和田樓外",
        "name_sc": "慈云山道, 沙田坳邨和田楼外",
        "name_en": "Tsz Wan Shan Road, outside Wo Tin House, Shatin Pass Estate",
        "lat": 22.349362529389822,
        "long": 114.19505753371878
    },
    {
        "co": "GMB",
        "stop": 20000586,
        "name_tc": "彝倫街, 百樂大樓外",
        "name_sc": "彝伦街, 百乐大楼外",
        "name_en": "Yi Lun Street, outside Pak Lok House",
        "lat": 22.33514825572363,
        "long": 114.19641467415416
    },
    {
        "co": "GMB",
        "stop": 20000588,
        "name_tc": "鑽石山站公共運輸交匯處",
        "name_sc": "钻石山站公共运输交汇处",
        "name_en": "Diamond Hill Station Public Transport Interchange",
        "lat": 22.340529686467136,
        "long": 114.20226395130159
    },
    {
        "co": "GMB",
        "stop": 20000592,
        "name_tc": "惠華街, 慈雲山中心外",
        "name_sc": "惠华街, 慈云山中心外",
        "name_en": "Wai Wah Street, outside Tsz Wan Shan Shopping Centre",
        "lat": 22.348847102856908,
        "long": 114.20036774622655
    },
    {
        "co": "GMB",
        "stop": 20000615,
        "name_tc": "正德街, 黃大仙中心外",
        "name_sc": "正德街, 黄大仙中心外",
        "name_en": "Ching Tak Street, outside Wong Tai Sin Shopping Centre",
        "lat": 22.341208011245303,
        "long": 114.1943089977815
    },
    {
        "co": "GMB",
        "stop": 20000620,
        "name_tc": "櫻桃街, 奧海城第二期外小巴總站",
        "name_sc": "樱桃街, 奥海城第二期外小巴总站",
        "name_en": "Cherry Street, Public Light Bus Terminus Outside Olympian City Phase Ii",
        "lat": 22.317737796453667,
        "long": 114.16207293328208
    },
    {
        "co": "GMB",
        "stop": 20000678,
        "name_tc": "浙江街,近益豐大廈Ｂ座",
        "name_sc": "浙江街,近益丰大厦Ｂ座",
        "name_en": "Chi Kiang Street, near I-Feng Mansions Block B",
        "lat": 22.315191377133456,
        "long": 114.18907439672499
    },
    {
        "co": "GMB",
        "stop": 20000681,
        "name_tc": "海逸豪園巴士總站",
        "name_sc": "海逸豪园巴士总站",
        "name_en": "Laguna Verde Bus Terminus",
        "lat": 22.30754687150046,
        "long": 114.19217383034267
    },
    {
        "co": "GMB",
        "stop": 20000691,
        "name_tc": "九龍站",
        "name_sc": "九龙站",
        "name_en": "Kowloon Station",
        "lat": 22.305013751416574,
        "long": 114.16291860312879
    },
    {
        "co": "GMB",
        "stop": 20000704,
        "name_tc": "美善同道, 落山道以北",
        "name_sc": "美善同道, 落山道以北",
        "name_en": "Maidstaone Road, North Of Lok Shan Road",
        "lat": 22.318045187621763,
        "long": 114.18702670598933
    },
    {
        "co": "GMB",
        "stop": 20000720,
        "name_tc": "快富街, 友誠大廈外",
        "name_sc": "快富街, 友诚大厦外",
        "name_en": "Fife Street, outside Yau Shing Building",
        "lat": 22.32048363425284,
        "long": 114.17022572128204
    },
    {
        "co": "GMB",
        "stop": 20000745,
        "name_tc": "澤安道, 澤安邨富澤樓外",
        "name_sc": "泽安道, 泽安邨富泽楼外",
        "name_en": "Chak On Road, outside Fu Chak House, Chak On Estate",
        "lat": 22.33961004713539,
        "long": 114.16415771631151
    },
    {
        "co": "GMB",
        "stop": 20000753,
        "name_tc": "澤安道, 澤安邨麗澤樓外",
        "name_sc": "泽安道, 泽安邨丽泽楼外",
        "name_en": "Chak On Road, outside Lai Chak House, Chak On Estate",
        "lat": 22.34052217716964,
        "long": 114.16471095738625
    },
    {
        "co": "GMB",
        "stop": 20000758,
        "name_tc": "龍坪道, 畢架山花園外",
        "name_sc": "龙坪道, 毕架山花园外",
        "name_en": "Lung Ping Road, outside Beacon Heights",
        "lat": 22.342030471838026,
        "long": 114.16758425724501
    },
    {
        "co": "GMB",
        "stop": 20000796,
        "name_tc": "豐盛街, 海港花園外",
        "name_sc": "丰盛街, 海港花园外",
        "name_en": "Fung Shing Street, outside Hill Top Gardens",
        "lat": 22.34174703704513,
        "long": 114.21169522345724
    },
    {
        "co": "GMB",
        "stop": 20000797,
        "name_tc": "豐盛街, 海港花園外",
        "name_sc": "丰盛街, 海港花园外",
        "name_en": "Fung Shing Street, outside Hill Top Gardens",
        "lat": 22.341954839707668,
        "long": 114.2112293137651
    },
    {
        "co": "GMB",
        "stop": 20000800,
        "name_tc": "正德街, 黃大仙下邨龍興樓外",
        "name_sc": "正德街, 黄大仙下邨龙兴楼外",
        "name_en": "Ching Tak Street, outside Lung Hing House, Lower Wong Tai Sin Estate",
        "lat": 22.34072953385642,
        "long": 114.19293048102432
    },
    {
        "co": "GMB",
        "stop": 20000818,
        "name_tc": "港鐵黃大仙站",
        "name_sc": "港铁黄大仙站",
        "name_en": "Wong Tai Sin Station",
        "lat": 22.342345757552785,
        "long": 114.19526048012739
    },
    {
        "co": "GMB",
        "stop": 20000831,
        "name_tc": "港鐵樂富站小巴總站 ",
        "name_sc": "港铁乐富站小巴总站",
        "name_en": "Lok Fu MTR Station Minibus Terminus ",
        "lat": 22.33764148159308,
        "long": 114.18816387617886
    },
    {
        "co": "GMB",
        "stop": 20000872,
        "name_tc": "海泓道, 富榮花園第3座外",
        "name_sc": "海泓道, 富荣花园第3座外",
        "name_en": "Hoi Wang Road, outside Block 3 Charming Garden",
        "lat": 22.314387620359057,
        "long": 114.1641502885609
    },
    {
        "co": "GMB",
        "stop": 20000953,
        "name_tc": "順安道,近順天邨天榮樓",
        "name_sc": "顺安道,近顺天邨天荣楼",
        "name_en": "Shun On Road, near Tin Wing House, Shun Tin Estate",
        "lat": 22.326530029582177,
        "long": 114.22688249476779
    },
    {
        "co": "GMB",
        "stop": 20000960,
        "name_tc": "麗晶花園小巴總站",
        "name_sc": "丽晶花园小巴总站",
        "name_en": "Richland Gardens Minibus Terminus",
        "lat": 22.329547806580152,
        "long": 114.20626616261018
    },
    {
        "co": "GMB",
        "stop": 20000973,
        "name_tc": "橫頭磡東道,近橫頭磡邨宏德樓",
        "name_sc": "横头磡东道,近横头磡邨宏德楼",
        "name_en": "Wang Tau Hom East Road, near Wang Tak House, Wang Tau Hom Estate",
        "lat": 22.339122480530307,
        "long": 114.18837755719734
    },
    {
        "co": "GMB",
        "stop": 20000989,
        "name_tc": "崇仁街, 南華大樓外",
        "name_sc": "崇仁街, 南华大楼外",
        "name_en": "Shung Yan Street, outside Nam Wah Mansion",
        "lat": 22.31569052631208,
        "long": 114.22456822717497
    },
    {
        "co": "GMB",
        "stop": 20000995,
        "name_tc": "南京街，德惠行外 (佐敦站)",
        "name_sc": "南京街，德惠行外 (佐敦站)",
        "name_en": "Nanking Street, outside David House (Jordan Station)",
        "lat": 22.306206315332936,
        "long": 114.17196359794492
    },
    {
        "co": "GMB",
        "stop": 20001099,
        "name_tc": "斧山道, 宏景花園綜合大樓及停車場外",
        "name_sc": "斧山道, 宏景花园综合大楼及停车场外",
        "name_en": "Hammer Hill Road, outside Grand View Garden Commercial And Car Park Block",
        "lat": 22.34095320613071,
        "long": 114.20744315894477
    },
    {
        "co": "GMB",
        "stop": 20001112,
        "name_tc": "福民路小巴總站, 經華樓外",
        "name_sc": "福民路小巴总站, 经华楼外",
        "name_en": "Fuk Man Road Public Light Bus Terminus, outside King Wah Building",
        "lat": 22.38160987711899,
        "long": 114.2734236652468
    },
    {
        "co": "GMB",
        "stop": 20001115,
        "name_tc": "德福廣場2期地面",
        "name_sc": "德福广场2期地面 ",
        "name_en": "Telford Plaza Phase IL, Ground Floor",
        "lat": 22.32174396055862,
        "long": 114.21325293919243
    },
    {
        "co": "GMB",
        "stop": 20001118,
        "name_tc": "彩虹道巴士總站",
        "name_sc": "彩虹道巴士总站",
        "name_en": "Choi Hung Public Transport Terminus",
        "lat": 22.33795606698768,
        "long": 114.2015210809334
    },
    {
        "co": "GMB",
        "stop": 20001120,
        "name_tc": "宜春街, 西貢街市對面",
        "name_sc": "宜春街, 西贡街市对面",
        "name_en": "Yi Chun Street, opposite Sai Kung Market",
        "lat": 22.380283256003324,
        "long": 114.27197591347928
    },
    {
        "co": "GMB",
        "stop": 20001121,
        "name_tc": "蠔涌路, 蠔涌外",
        "name_sc": "蚝涌路, 蚝涌外",
        "name_en": "Ho Chung Road, outside Ho Chung",
        "lat": 22.355100853054797,
        "long": 114.2469207555958
    },
    {
        "co": "GMB",
        "stop": 20001128,
        "name_tc": "北潭涌巴士總站",
        "name_sc": "北潭涌巴士总站",
        "name_en": "Pak Tam Chung Bus Terminus",
        "lat": 22.397234821531562,
        "long": 114.31935940122594
    },
    {
        "co": "GMB",
        "stop": 20001129,
        "name_tc": "海下路, 海下村入口",
        "name_sc": "海下路, 海下村入口",
        "name_en": "Hoi Ha Road, Entrance Of Hai Ha Village",
        "lat": 22.45997959613031,
        "long": 114.32798300897511
    },
    {
        "co": "GMB",
        "stop": 20001130,
        "name_tc": "麥理浩夫人度假村",
        "name_sc": "麦理浩夫人度假村",
        "name_en": "Lady MacLehose Holiday Village",
        "lat": 22.407780604529446,
        "long": 114.32140968963142
    },
    {
        "co": "GMB",
        "stop": 20001149,
        "name_tc": "寶琳公共運輸交匯處",
        "name_sc": "宝琳公共运输交汇处",
        "name_en": "Po Lam Public Transport Interchange",
        "lat": 22.323398415872884,
        "long": 114.25793122710385
    },
    {
        "co": "GMB",
        "stop": 20001159,
        "name_tc": "靈實路, 靈實醫院外",
        "name_sc": "灵实路, 灵实医院外",
        "name_en": "Haven Of Hope Road, outside Haven Of Hope Hospital",
        "lat": 22.314178918597158,
        "long": 114.25647003290842
    },
    {
        "co": "GMB",
        "stop": 20001161,
        "name_tc": "坑口(北)公共運輸交匯處",
        "name_sc": "坑口(北)公共运输交汇处",
        "name_en": "Hang Hau (North) Public Transport Interchange",
        "lat": 22.317910949818987,
        "long": 114.26899270750854
    },
    {
        "co": "GMB",
        "stop": 20001162,
        "name_tc": "重華路, 東港城第6座對面",
        "name_sc": "重华路, 东港城第6座对面",
        "name_en": "Chung Wa Road, opposite Block 6, East Point City",
        "lat": 22.317100007193098,
        "long": 114.26575043737186
    },
    {
        "co": "GMB",
        "stop": 20001174,
        "name_tc": "貿業路, 近寶琳站",
        "name_sc": "贸业路, 近宝琳站",
        "name_en": "Mau Yip Road, near Po Lam Station",
        "lat": 22.322766541614236,
        "long": 114.25741640623775
    },
    {
        "co": "GMB",
        "stop": 20001193,
        "name_tc": "大埔墟站專線小巴總站",
        "name_sc": "大埔墟站专线小巴总站",
        "name_en": "Tai Po Market Station Minibus Terminus",
        "lat": 22.443813517615947,
        "long": 114.17042390057993
    },
    {
        "co": "GMB",
        "stop": 20001194,
        "name_tc": "懷義街",
        "name_sc": "怀义街",
        "name_en": "Wai Yi Street",
        "lat": 22.447768568935754,
        "long": 114.165265118616
    },
    {
        "co": "GMB",
        "stop": 20001198,
        "name_tc": "大埔那打素醫院",
        "name_sc": "大埔那打素医院",
        "name_en": "Tai Po Nethersole Hospital",
        "lat": 22.45986975997351,
        "long": 114.17429001880926
    },
    {
        "co": "GMB",
        "stop": 20001200,
        "name_tc": "南盛街小巴站",
        "name_sc": "南盛街小巴站",
        "name_en": "Nam Shing Street GMB Stop",
        "lat": 22.448066607927835,
        "long": 114.16575083880498
    },
    {
        "co": "GMB",
        "stop": 20001202,
        "name_tc": "三門仔路, 暉曜花園對面",
        "name_sc": "三门仔路, 晖曜花园对面",
        "name_en": "Sam Mun Tsai Road, opposite Springdale Garden",
        "lat": 22.456867471605854,
        "long": 114.21366704149308
    },
    {
        "co": "GMB",
        "stop": 20001207,
        "name_tc": "大窩西支路, 圍頭村外",
        "name_sc": "大窝西支路, 围头村外",
        "name_en": "Tai Wo Service Road West, outside Wai Tau Tsuen",
        "lat": 22.463842482465353,
        "long": 114.14870306354716
    },
    {
        "co": "GMB",
        "stop": 20001210,
        "name_tc": "錦山路, 近石古壟",
        "name_sc": "锦山路, 近石古垄",
        "name_en": "Kam Shan Road, near Shek Kwu Lung",
        "lat": 22.448652782967315,
        "long": 114.15727936528852
    },
    {
        "co": "GMB",
        "stop": 20001212,
        "name_tc": "碗窰路, 新屋家",
        "name_sc": "碗窰路, 新屋家",
        "name_en": "Wun Yiu Road, San Uk Ka",
        "lat": 22.430276395012026,
        "long": 114.1630907095674
    },
    {
        "co": "GMB",
        "stop": 20001230,
        "name_tc": "西沙路, 海柏花園外",
        "name_sc": "西沙路, 海柏花园外",
        "name_en": "Sai Sha Road, outside Bayshore Towers",
        "lat": 22.42502102567635,
        "long": 114.23150195409438
    },
    {
        "co": "GMB",
        "stop": 20001231,
        "name_tc": "海柏花園巴士總站",
        "name_sc": "海柏花園巴士總站",
        "name_en": "Bayshore Towers Bus Terminus",
        "lat": 22.42553581842206,
        "long": 114.23133702907299
    },
    {
        "co": "GMB",
        "stop": 20001264,
        "name_tc": "泰豐街,近翠華樓",
        "name_sc": "泰丰街,近翠华楼",
        "name_en": "Tai Fung Street, near Tsui Wah House",
        "lat": 22.44592323216435,
        "long": 114.03003608034561
    },
    {
        "co": "GMB",
        "stop": 20001269,
        "name_tc": "下白泥(稔灣路)小巴總站",
        "name_sc": "下白泥(稔湾路)小巴总站",
        "name_en": "Ha Pak Nai (Nim Wan Road) Minibus Terminus",
        "lat": 22.427064588213867,
        "long": 113.94309187540634
    },
    {
        "co": "GMB",
        "stop": 20001276,
        "name_tc": "流浮山小巴總站",
        "name_sc": "流浮山小巴总站",
        "name_en": "Lau Fau Shan Minibus Terminus",
        "lat": 22.467620012345918,
        "long": 113.98399716561751
    },
    {
        "co": "GMB",
        "stop": 20001282,
        "name_tc": "元朗站(北)公共運輸交匯處",
        "name_sc": "元朗站(北)公共运输交汇处",
        "name_en": "Yuen Long Station (North) Public Transport Interchange",
        "lat": 22.446450801758296,
        "long": 114.03428087667947
    },
    {
        "co": "GMB",
        "stop": 20001288,
        "name_tc": "青山公路, 又新街",
        "name_sc": "青山公路, 又新街",
        "name_en": "Castle Peak Road, Yau San Street",
        "lat": 22.44433495089039,
        "long": 114.03122293497171
    },
    {
        "co": "GMB",
        "stop": 20001296,
        "name_tc": "鳳翔路小巴總站",
        "name_sc": "凤翔路小巴总站 ",
        "name_en": "Fung Cheung Road Green Minibus Terminus",
        "lat": 22.442927416649475,
        "long": 114.03257472218608
    },
    {
        "co": "GMB",
        "stop": 20001311,
        "name_tc": "屯門站公共運輸交匯處",
        "name_sc": "屯门站公共运输交汇处",
        "name_en": "Tuen Mun Station Public Transport Interchange",
        "lat": 22.394547930582068,
        "long": 113.97367000579835
    },
    {
        "co": "GMB",
        "stop": 20001327,
        "name_tc": "青磚圍路, 青磚圍",
        "name_sc": "青砖围路, 青砖围",
        "name_en": "Tsing Chuen Wai Road, Tsing Chuen Wai",
        "lat": 22.42341252591784,
        "long": 113.9810083463008
    },
    {
        "co": "GMB",
        "stop": 20001344,
        "name_tc": "河傍街, 屯門新墟街市外",
        "name_sc": "河傍街, 屯门新墟街市外",
        "name_en": "Ho Pong Street, outside Tuen Mun San Hui Market",
        "lat": 22.397633277285337,
        "long": 113.97584890071293
    },
    {
        "co": "GMB",
        "stop": 20001360,
        "name_tc": "青榕街, 青榕臺第1座外",
        "name_sc": "青榕街, 青榕台第1座外",
        "name_en": "Tsing Yung Street, outside Block 1, Tsing Yung Terrace",
        "lat": 22.379978368101437,
        "long": 113.9829820764713
    },
    {
        "co": "GMB",
        "stop": 20001372,
        "name_tc": "三聖巴士總站",
        "name_sc": "三圣巴士总站",
        "name_en": "Sam Shing Bus Terminus",
        "lat": 22.38229267637107,
        "long": 113.97760908337052
    },
    {
        "co": "GMB",
        "stop": 20001373,
        "name_tc": "兆興里, 博愛醫院屯門護養院外",
        "name_sc": "兆兴里, 博爱医院屯门护养院外",
        "name_en": "Siu Hing Lane, outside Pok Oi Hospital Tuen Mun Nursing Home",
        "lat": 22.384882342928435,
        "long": 113.97592548598314
    },
    {
        "co": "GMB",
        "stop": 20001384,
        "name_tc": "上水站小巴總站",
        "name_sc": "上水站小巴总站",
        "name_en": "Sheung Shui Station Public Light Bus Terminus",
        "lat": 22.5020433782143,
        "long": 114.12778544281537
    },
    {
        "co": "GMB",
        "stop": 20001406,
        "name_tc": "過境穿梭巴士新田總站",
        "name_sc": "过境穿梭巴士新田总站",
        "name_en": " Cross Boundary Shuttle Bus San Tin Terminus",
        "lat": 22.50296206779009,
        "long": 114.08196134269663
    },
    {
        "co": "GMB",
        "stop": 20001453,
        "name_tc": "粉嶺車站路, 粉嶺站外",
        "name_sc": "粉岭车站路, 粉岭站外",
        "name_en": "Fanling Station Road, Outside Fanling Station",
        "lat": 22.491553222108536,
        "long": 114.13959642543061
    },
    {
        "co": "GMB",
        "stop": 20001455,
        "name_tc": "和滿街小巴總站",
        "name_sc": "和满街小巴总站",
        "name_en": "Wo Mun Street Public Light Bus Terminus",
        "lat": 22.50029000952079,
        "long": 114.14420001785403
    },
    {
        "co": "GMB",
        "stop": 20001457,
        "name_tc": "粉嶺站專綫小巴總站",
        "name_sc": "粉岭站专綫小巴总站",
        "name_en": "Public Light Bus (Scheduled) Service Terminus at Fanling Station",
        "lat": 22.492970739688495,
        "long": 114.13850762683123
    },
    {
        "co": "GMB",
        "stop": 20001477,
        "name_tc": "沙頭角小巴總站",
        "name_sc": "沙头角小巴总站",
        "name_en": "Sha Tau Kok Public Light Bus Terminus",
        "lat": 22.545552361078503,
        "long": 114.22359694474477
    },
    {
        "co": "GMB",
        "stop": 20001483,
        "name_tc": "鹿頸路, 近鹿頸黃屋",
        "name_sc": "鹿颈路, 近鹿颈黄屋",
        "name_en": "Luk Keng Road, near Luk Keng Wong Uk",
        "lat": 22.52421705015705,
        "long": 114.21630129218104
    },
    {
        "co": "GMB",
        "stop": 20001492,
        "name_tc": "沙田站",
        "name_sc": "沙田站",
        "name_en": "Shatin Station",
        "lat": 22.38315548731176,
        "long": 114.18758493530511
    },
    {
        "co": "GMB",
        "stop": 20001502,
        "name_tc": "火炭平房區",
        "name_sc": "火炭平房区",
        "name_en": "Fo Tan Cottage Area",
        "lat": 22.400259212651996,
        "long": 114.18856711887383
    },
    {
        "co": "GMB",
        "stop": 20001514,
        "name_tc": "龍柏街, 世界花園龍柏閣外",
        "name_sc": "龙柏街, 世界花园龙柏阁外",
        "name_en": "Lung Pak Street, outside Cypress Court, Worldwide Garden",
        "lat": 22.364038183579854,
        "long": 114.17936960286497
    },
    {
        "co": "GMB",
        "stop": 20001515,
        "name_tc": "德厚街, 禾輋邨德和樓外",
        "name_sc": "德厚街, 禾輋邨德和楼外",
        "name_en": "Tak Hau Street, outside Tak Wo House, Wo Che Estate",
        "lat": 22.387381121067413,
        "long": 114.19488769033606
    },
    {
        "co": "GMB",
        "stop": 20001522,
        "name_tc": "樂楓徑, 景峰閣外",
        "name_sc": "乐枫径, 景峰阁外",
        "name_en": "Lok Fung Path, outside Mountainbille Court",
        "lat": 22.40176650182445,
        "long": 114.19678332458977
    },
    {
        "co": "GMB",
        "stop": 20001544,
        "name_tc": "黃泥頭巴士總站",
        "name_sc": "黄泥头巴士总站",
        "name_en": "Wong Nai Tau Bus Terminus",
        "lat": 22.38215725771939,
        "long": 114.21796843593555
    },
    {
        "co": "GMB",
        "stop": 20001569,
        "name_tc": "担杆莆街沙田大會堂外",
        "name_sc": "担杆莆街沙田大会堂外",
        "name_en": "Tam Kon Po Street, outside Sha Tin Town Hall",
        "lat": 22.38190004979475,
        "long": 114.1901969090841
    },
    {
        "co": "GMB",
        "stop": 20001570,
        "name_tc": "白鶴汀街帝都酒店外",
        "name_sc": "白鹤汀街帝都酒店外",
        "name_en": "Royal Park Hotel",
        "lat": 22.379940587314817,
        "long": 114.18807019643069
    },
    {
        "co": "GMB",
        "stop": 20001573,
        "name_tc": "大圍站公共運輸交匯處",
        "name_sc": "大围站公共运输交汇处",
        "name_en": "Tai Wai Station Public Transport Interchange",
        "lat": 22.372788777920473,
        "long": 114.17930179370258
    },
    {
        "co": "GMB",
        "stop": 20001655,
        "name_tc": "和宜合道33號",
        "name_sc": "和宜合道33号",
        "name_en": "No. 33 Wo Yi Hop Road",
        "lat": 22.366311651868244,
        "long": 114.1372415244041
    },
    {
        "co": "GMB",
        "stop": 20001658,
        "name_tc": "梨木道近石蔭商場",
        "name_sc": "梨木道近石荫商场",
        "name_en": "Lei Muk Road near Shek Yam Shopping Centre",
        "lat": 22.37184511158082,
        "long": 114.13862826158574
    },
    {
        "co": "GMB",
        "stop": 20001661,
        "name_tc": "荃灣眾安街",
        "name_sc": "荃灣众安街",
        "name_en": "Tsuen Wan Chung On Street",
        "lat": 22.369065976397014,
        "long": 114.1164333195132
    },
    {
        "co": "GMB",
        "stop": 20001675,
        "name_tc": "梨貝街巴士總站",
        "name_sc": "梨贝街巴士总站",
        "name_en": "Lei Pui Street Bus Terminus",
        "lat": 22.362689271134023,
        "long": 114.13844709310912
    },
    {
        "co": "GMB",
        "stop": 20001888,
        "name_tc": "碧堤半島",
        "name_sc": "碧堤半岛",
        "name_en": "Bellagio",
        "lat": 22.367546048616706,
        "long": 114.06140169743128
    },
    {
        "co": "GMB",
        "stop": 20001963,
        "name_tc": "康強街,近康強大樓",
        "name_sc": "康强街,近康强大楼",
        "name_en": "HONG KEUNG STREET, near Hong Keung House",
        "lat": 22.334750797513305,
        "long": 114.19732707952606
    },
    {
        "co": "GMB",
        "stop": 20001974,
        "name_tc": "銀澳路,近煜明苑熹明閣",
        "name_sc": "银澳路,近煜明苑熹明阁",
        "name_en": "NGAN O ROAD, near Hei Ming House, YUK MING COURT",
        "lat": 22.314579938123607,
        "long": 114.26671940396027
    },
    {
        "co": "GMB",
        "stop": 20002027,
        "name_tc": "九龍灣公共運輸交匯處",
        "name_sc": "九龙湾公共运输交汇处",
        "name_en": "Kowloon Bay Public Transport Interchange",
        "lat": 22.322052113872346,
        "long": 114.2079049298307
    },
    {
        "co": "GMB",
        "stop": 20002066,
        "name_tc": "海盛路, 荃灣廣場外",
        "name_sc": "海盛路, 荃湾广场外",
        "name_en": "Hoi Shing Road, outside Tsuen Wan Plaza",
        "lat": 22.370391348293516,
        "long": 114.11100513976753
    },
    {
        "co": "GMB",
        "stop": 20002071,
        "name_tc": "豪景花園",
        "name_sc": "豪景花园",
        "name_en": "Hong Kong Garden",
        "lat": 22.362186702388215,
        "long": 114.04408541158074
    },
    {
        "co": "GMB",
        "stop": 20002102,
        "name_tc": "瑪嘉列醫院",
        "name_sc": "玛嘉列医院",
        "name_en": "Princess Magaret Hospital",
        "lat": 22.341826568711706,
        "long": 114.13463694865345
    },
    {
        "co": "GMB",
        "stop": 20002103,
        "name_tc": "青衣碼頭總站",
        "name_sc": "青衣码头总站",
        "name_en": "Tsing Yi Ferry Pier Minibus Terminus",
        "lat": 22.353765443453128,
        "long": 114.10936253483462
    },
    {
        "co": "GMB",
        "stop": 20002113,
        "name_tc": "寮肚路, 長亨邨巴士總站",
        "name_sc": "寮肚路, 长亨邨巴士总站",
        "name_en": "Liu To Road, Cheung Hang Estate Bus Terminus",
        "lat": 22.355484900714316,
        "long": 114.09749796794848
    },
    {
        "co": "GMB",
        "stop": 20002115,
        "name_tc": "眾安街, 近荃灣千色匯I",
        "name_sc": "众安街, 近荃湾千色汇I",
        "name_en": "Chung On Street, near KOLOUR I",
        "lat": 22.37091766273614,
        "long": 114.117587955063
    },
    {
        "co": "GMB",
        "stop": 20002125,
        "name_tc": "安蔭邨巴士總站",
        "name_sc": "安荫邨巴士总站",
        "name_en": "On Yam Estate Bus Terminus",
        "lat": 22.370373840087574,
        "long": 114.14174541167888
    },
    {
        "co": "GMB",
        "stop": 20002127,
        "name_tc": "興寧路, 新都會廣場外(葵芳站) ",
        "name_sc": "兴宁路, 新都会广场外(葵芳站) ",
        "name_en": "Hing Ning Road, outside Metroplaza (Kwai Fong Station) ",
        "lat": 22.357004849527165,
        "long": 114.12726357450468
    },
    {
        "co": "GMB",
        "stop": 20002176,
        "name_tc": "山尾街巴士總站",
        "name_sc": "山尾街巴士总站",
        "name_en": "Shan Mei Street Bus Terminus",
        "lat": 22.396438793277614,
        "long": 114.19427704714357
    },
    {
        "co": "GMB",
        "stop": 20002178,
        "name_tc": "荃灣街市街",
        "name_sc": "荃湾街市街",
        "name_en": "Tsuen Wan Market Street",
        "lat": 22.371666975382862,
        "long": 114.11698564373452
    },
    {
        "co": "GMB",
        "stop": 20002183,
        "name_tc": "偉明街, 花都廣場對面",
        "name_sc": "伟明街, 花都广场对面",
        "name_en": "Wai Ming Road, opposite Flora Plaza",
        "lat": 22.486180362176587,
        "long": 114.14060848880914
    },
    {
        "co": "GMB",
        "stop": 20002191,
        "name_tc": "裕民坊,近裕民大廈",
        "name_sc": "裕民坊,近裕民大厦",
        "name_en": "YUE MAN SQUARE, near Yue Man Building",
        "lat": 22.313803273729913,
        "long": 114.22408230647531
    },
    {
        "co": "GMB",
        "stop": 20002203,
        "name_tc": "阜財街, 光華廣場外",
        "name_sc": "阜财街, 光华广场外",
        "name_en": "Fau Tsoi Street, Outside Kwong Wah Plaza (Outside House No.34)",
        "lat": 22.443899868246895,
        "long": 114.02943590547137
    },
    {
        "co": "GMB",
        "stop": 20002217,
        "name_tc": "朗善邨",
        "name_sc": "朗善邨",
        "name_en": "Long Shin Estate",
        "lat": 22.44212510386072,
        "long": 114.04475748979507
    },
    {
        "co": "GMB",
        "stop": 20002221,
        "name_tc": "天瑞邨巴士總站, 天瑞商場外",
        "name_sc": "天瑞邨巴士总站, 天瑞商场外",
        "name_en": "Tin Shui Commercial Complex",
        "lat": 22.455120944391066,
        "long": 113.9988498025384
    },
    {
        "co": "GMB",
        "stop": 20002222,
        "name_tc": "海防道及樂道交界",
        "name_sc": "海防道及乐道交界",
        "name_en": "Haiphong Road, Junction With Lock Road",
        "lat": 22.298205176834855,
        "long": 114.1714883543269
    },
    {
        "co": "GMB",
        "stop": 20002241,
        "name_tc": "顯田街, 近梁文燕紀念中學",
        "name_sc": "显田街, 近梁文燕纪念中学",
        "name_en": "Hin Tin Street, near Helen Liang Memorial Secondary School (Shatin)",
        "lat": 22.361762486326782,
        "long": 114.17432093274944
    },
    {
        "co": "GMB",
        "stop": 20002248,
        "name_tc": "利安邨巴士總站",
        "name_sc": "利安邨巴士总站",
        "name_en": "Lee On Estate Bus Terminus",
        "lat": 22.42536070900685,
        "long": 114.24095314213687
    },
    {
        "co": "GMB",
        "stop": 20002255,
        "name_tc": "廣源邨巴士總站",
        "name_sc": "广源邨巴士总站",
        "name_en": "Kwong Yuen Estate Bus Terminus",
        "lat": 22.381290804890693,
        "long": 114.21604555082936
    },
    {
        "co": "GMB",
        "stop": 20002257,
        "name_tc": "威爾斯親王醫院",
        "name_sc": "威尔斯亲王医院",
        "name_en": "Prince of Wales Hospital",
        "lat": 22.381284647262554,
        "long": 114.2014898772971
    },
    {
        "co": "GMB",
        "stop": 20002259,
        "name_tc": "銀城街, 沙田第一城外",
        "name_sc": "银城街, 沙田第一城外",
        "name_en": "Ngan Shing Street, outside City One Shatin",
        "lat": 22.386890818628046,
        "long": 114.2033492571296
    },
    {
        "co": "GMB",
        "stop": 20002263,
        "name_tc": "錦英苑巴士總站",
        "name_sc": "锦英苑巴士总站",
        "name_en": "Kam Ying Court Bus Terminus",
        "lat": 22.423384519912176,
        "long": 114.23709610357055
    },
    {
        "co": "GMB",
        "stop": 20002264,
        "name_tc": "旺角道, 花園街市政大廈外",
        "name_sc": "旺角道, 花园街市政大厦外",
        "name_en": "Mong Kok Road, outside Fa Yuen Street Market Complex",
        "lat": 22.320962264234588,
        "long": 114.17043923245116
    },
    {
        "co": "GMB",
        "stop": 20002275,
        "name_tc": "港鐵大學站巴士總站",
        "name_sc": "港铁大学站巴士总站",
        "name_en": "University Station Bus Terminus",
        "lat": 22.412727186810685,
        "long": 114.21079993829835
    },
    {
        "co": "GMB",
        "stop": 20002284,
        "name_tc": "十四鄉, 井頭村外",
        "name_sc": "十四乡, 井头村外",
        "name_en": "Tseng Tau Tsuen",
        "lat": 22.426927675487182,
        "long": 114.26864682465266
    },
    {
        "co": "GMB",
        "stop": 20002381,
        "name_tc": "荃灣西站公共運輸交匯處",
        "name_sc": "荃湾西站公共运输交汇处",
        "name_en": "Tsuen Wan West Station Public Transport Interchange",
        "lat": 22.368801407990958,
        "long": 114.10962715464257
    },
    {
        "co": "GMB",
        "stop": 20002416,
        "name_tc": "科學園路, 近馬料水渡輪碼頭",
        "name_sc": "科学园路, 近马料水渡轮码头",
        "name_en": "Science Park Road, near Ma Liu Shui Ferry Pier",
        "lat": 22.416149058379947,
        "long": 114.21390882658613
    },
    {
        "co": "GMB",
        "stop": 20002474,
        "name_tc": "橫台山村公所, 橫台山遊樂場外",
        "name_sc": "横台山村公所, 横台山游乐场外",
        "name_en": "Wang Toi Shan Playground",
        "lat": 22.441445240167845,
        "long": 114.09550628852503
    },
    {
        "co": "GMB",
        "stop": 20002565,
        "name_tc": "馬窩路, 新峰花園",
        "name_sc": "马窝路, 新峰花园",
        "name_en": "Ma Wo Road, Classical Garden",
        "lat": 22.442439387481535,
        "long": 114.1604456305504
    },
    {
        "co": "GMB",
        "stop": 20002566,
        "name_tc": "洞梓路, 近香港童軍總會洞梓童軍中心",
        "name_sc": "洞梓路, 近香港童军总会洞梓童军中心",
        "name_en": "Tung Tsz Road, outside Tung Tsz Scout Centre",
        "lat": 22.4728901672207,
        "long": 114.19879511837931
    },
    {
        "co": "GMB",
        "stop": 20002567,
        "name_tc": "大美督公共運輸交匯處",
        "name_sc": "大美督公共运输交汇处",
        "name_en": "Tai Mei Tuk Public Transport Interchange",
        "lat": 22.47228787340744,
        "long": 114.23300090100386
    },
    {
        "co": "GMB",
        "stop": 20002568,
        "name_tc": "大埔頭徑, 太湖花園第二期",
        "name_sc": "大埔头径, 太湖花园第二期",
        "name_en": "Tai Po Tau Drive, Serenity Park Phase 2",
        "lat": 22.45399002319139,
        "long": 114.1594257003365
    },
    {
        "co": "GMB",
        "stop": 20002597,
        "name_tc": "坑口站公共運輸交匯處",
        "name_sc": "坑口站公共运输交汇处",
        "name_en": "Hang Hau Station Public Transport Interchange",
        "lat": 22.315845573505552,
        "long": 114.26424525693855
    },
    {
        "co": "GMB",
        "stop": 20002599,
        "name_tc": "惠民路公共小巴總站",
        "name_sc": "惠民路公共小巴总站",
        "name_en": "Wai Man Road PLB Terminus",
        "lat": 22.38285544196704,
        "long": 114.2745120650918
    },
    {
        "co": "GMB",
        "stop": 20002606,
        "name_tc": "碧堤半島",
        "name_sc": "碧堤半岛",
        "name_en": "Bellagio",
        "lat": 22.367239052390506,
        "long": 114.06146020610079
    },
    {
        "co": "GMB",
        "stop": 20002608,
        "name_tc": "港灣豪庭",
        "name_sc": "港湾豪庭",
        "name_en": "Metro Harbourview",
        "lat": 22.324167434288107,
        "long": 114.16056778099953
    },
    {
        "co": "GMB",
        "stop": 20002614,
        "name_tc": "海麗邨",
        "name_sc": "海丽邨",
        "name_en": "Hoi Lai Estate",
        "lat": 22.33209444429596,
        "long": 114.14747232639675
    },
    {
        "co": "GMB",
        "stop": 20002655,
        "name_tc": "銅鑼灣利園山道",
        "name_sc": "铜锣湾利园山道",
        "name_en": "Causeway Bay Lee Garden Road ",
        "lat": 22.27846894937949,
        "long": 114.1840222477913
    },
    {
        "co": "GMB",
        "stop": 20003008,
        "name_tc": "深水埗 (富昌邨)",
        "name_sc": "深水埗 (富昌邨)",
        "name_en": "Fu Cheong Estate",
        "lat": 22.32923293557267,
        "long": 114.15497616431128
    },
    {
        "co": "GMB",
        "stop": 20003010,
        "name_tc": "君頤峰支路",
        "name_sc": "君颐峰支路",
        "name_en": "Parc Palais access road",
        "lat": 22.31097454830804,
        "long": 114.17657349129041
    },
    {
        "co": "GMB",
        "stop": 20003154,
        "name_tc": "桂林街近門牌81號",
        "name_sc": "桂林街近门牌81号",
        "name_en": "桂林街近门牌81号",
        "lat": 22.329233552574895,
        "long": 114.16016922121264
    },
    {
        "co": "GMB",
        "stop": 20003178,
        "name_tc": "蓬萊路, 清水灣半島1期第五座外",
        "name_sc": "蓬莱路, 清水湾半岛1期第五座外",
        "name_en": "Pung Loi Road, near Oscar by the Sea Block 5",
        "lat": 22.307319044680803,
        "long": 114.26724853802247
    },
    {
        "co": "GMB",
        "stop": 20003326,
        "name_tc": "丹竹坑(獅頭嶺村)",
        "name_sc": "丹竹坑(狮头岭村)",
        "name_en": "Tan Chuk Hang (Sze Tau Leng Tsuen)",
        "lat": 22.507622566268502,
        "long": 114.17996507110888
    },
    {
        "co": "GMB",
        "stop": 20003328,
        "name_tc": "銅鑼灣山路",
        "name_sc": "铜锣湾山路",
        "name_en": "Tung Lo Wan Hill Road",
        "lat": 22.38100653614093,
        "long": 114.18058368980061
    },
    {
        "co": "GMB",
        "stop": 20003330,
        "name_tc": "打鐵屻通路",
        "name_sc": "打铁屻通路",
        "name_en": "Ta Tit Yan",
        "lat": 22.424361355917785,
        "long": 114.16219767312903
    },
    {
        "co": "GMB",
        "stop": 20003337,
        "name_tc": "數碼港公共運輸交匯處",
        "name_sc": "数码港公共运输交汇处",
        "name_en": "Cyberport Public Transport Interchange",
        "lat": 22.261913456129104,
        "long": 114.13014951276878
    },
    {
        "co": "GMB",
        "stop": 20003353,
        "name_tc": "西灣河（嘉亨灣）公共交通總站",
        "name_sc": "西湾河（嘉亨湾）公共交通总站",
        "name_en": "Sai Wan Ho (Grand Promenade) Public Transport Terminus",
        "lat": 22.28488714914261,
        "long": 114.22441220794155
    },
    {
        "co": "GMB",
        "stop": 20003363,
        "name_tc": "九龍塘(沙福道)公共運輸交匯處",
        "name_sc": "九龙塘（沙福道）公共运输交汇处",
        "name_en": "Kowloon Tong (Suffolk Road) Public Transport Interchange",
        "lat": 22.336440811399097,
        "long": 114.17677729478558
    },
    {
        "co": "GMB",
        "stop": 20003365,
        "name_tc": "慈雲山 (北) (巴士站)",
        "name_sc": "慈云山 (北) (巴士站)",
        "name_en": "Tsz Wan Shan (North) (Bus Stop)",
        "lat": 22.350879264848214,
        "long": 114.19830996029226
    },
    {
        "co": "GMB",
        "stop": 20003373,
        "name_tc": "旺角(柏景灣)總站",
        "name_sc": "旺角(柏景湾)总站",
        "name_en": "Mongkok (Park Avenue) Terminus",
        "lat": 22.315281585504774,
        "long": 114.16335434174377
    },
    {
        "co": "GMB",
        "stop": 20003387,
        "name_tc": "名成街, 東港城對面",
        "name_sc": "名成街, 东港城对面",
        "name_en": "Ming Shing Street, opposite East Point City",
        "lat": 22.31612530673519,
        "long": 114.26464336624414
    },
    {
        "co": "GMB",
        "stop": 20003393,
        "name_tc": "廈村(新錫路)小巴總站",
        "name_sc": "厦村(新锡路)小巴总站",
        "name_en": "Ha Tsuen (San Sik Road) Minibus Terminus",
        "lat": 22.45092109400286,
        "long": 113.99022818884538
    },
    {
        "co": "GMB",
        "stop": 20003397,
        "name_tc": "舂磡角道, 賽馬會慈氏護養院",
        "name_sc": "舂磡角道, 赛马会慈氏护养院",
        "name_en": "Chung Hom Kok Road, Cheshire Home",
        "lat": 22.211816609123183,
        "long": 114.19744495362639
    },
    {
        "co": "GMB",
        "stop": 20004115,
        "name_tc": "貝沙灣南灣, 數碼港道",
        "name_sc": "贝沙湾南湾, 数码港道",
        "name_en": "Bel-Air on The Peak, Cyberport Road",
        "lat": 22.254735047769753,
        "long": 114.13364443373167
    },
    {
        "co": "GMB",
        "stop": 20004158,
        "name_tc": "華明路, 昌濤閣外",
        "name_sc": "华明路, 昌涛阁外",
        "name_en": "Wah Ming Road, outside Cheong Tao House",
        "lat": 22.484075976914564,
        "long": 114.139297186449
    },
    {
        "co": "GMB",
        "stop": 20004165,
        "name_tc": "北區醫院",
        "name_sc": "北区医院",
        "name_en": "North District Hospital",
        "lat": 22.49675076785858,
        "long": 114.12522168016154
    },
    {
        "co": "GMB",
        "stop": 20004166,
        "name_tc": "清河邨公共運輸交匯處",
        "name_sc": "清河邨公共运输交汇处",
        "name_en": "Ching Ho Estate Public Transport Interchange",
        "lat": 22.494602338337202,
        "long": 114.12779778469708
    },
    {
        "co": "GMB",
        "stop": 20004190,
        "name_tc": "大角咀(維港灣)公共運輸交匯處",
        "name_sc": "大角咀(维港湾)公共运输交汇处",
        "name_en": "Tai Kok Tsui (Island Harbourview) Public Transport Interchange",
        "lat": 22.318541189856774,
        "long": 114.1588116633438
    },
    {
        "co": "GMB",
        "stop": 20005007,
        "name_tc": "安明街, 石門站對面",
        "name_sc": "安明街, 石门站对面",
        "name_en": "On Ming Street, opposite Shek Mun Station",
        "lat": 22.387369952398494,
        "long": 114.20873511493023
    },
    {
        "co": "GMB",
        "stop": 20005056,
        "name_tc": "駱克道, 博匯大廈外",
        "name_sc": "骆克道, 博汇大厦外",
        "name_en": "Lockhart Road, outside The Broadway",
        "lat": 22.27804204676758,
        "long": 114.17042881250383
    },
    {
        "co": "GMB",
        "stop": 20006002,
        "name_tc": "坪石公共運輸交匯處",
        "name_sc": "坪石公共运输交汇处",
        "name_en": "Ping Shek Public Transport Interchange",
        "lat": 22.333968469402226,
        "long": 114.21008910194361
    },
    {
        "co": "GMB",
        "stop": 20006105,
        "name_tc": "北京道誠信大廈外",
        "name_sc": "北京道诚信大厦外",
        "name_en": "Peking Road outside Mary Building",
        "lat": 22.296335839032167,
        "long": 114.17149812974158
    },
    {
        "co": "GMB",
        "stop": 20006554,
        "name_tc": "運頭街, 運頭坊",
        "name_sc": "运头街, 运头坊",
        "name_en": "Wan Tau Street, Wan Tau Square",
        "lat": 22.446792087301635,
        "long": 114.16811339033303
    },
    {
        "co": "GMB",
        "stop": 20006560,
        "name_tc": "鹿茵山莊",
        "name_sc": "鹿茵山庄",
        "name_en": "Deerhill Bay",
        "lat": 22.429743019985487,
        "long": 114.19621421596838
    },
    {
        "co": "GMB",
        "stop": 20006602,
        "name_tc": "快富街,工業貿易署大樓外",
        "name_sc": "快富街,工业贸易署大楼外",
        "name_en": "Fife Street, outside Trade And Industry Department Tower",
        "lat": 22.320348144944596,
        "long": 114.16951718714701
    },
    {
        "co": "GMB",
        "stop": 20006944,
        "name_tc": "駱克道, 近景隆街",
        "name_sc": "骆克道, 近景隆街",
        "name_en": "Lockhart Road, near Cannon Street",
        "lat": 22.280703771510595,
        "long": 114.1834919962774
    },
    {
        "co": "GMB",
        "stop": 20006957,
        "name_tc": "鳳園",
        "name_sc": "凤园",
        "name_en": "Fung Yuen",
        "lat": 22.465288004669965,
        "long": 114.18027503651145
    },
    {
        "co": "GMB",
        "stop": 20006977,
        "name_tc": "彩明公共運輸交匯處",
        "name_sc": "彩明公共运输交汇处",
        "name_en": "Choi Ming Public Transport Interchange",
        "lat": 22.30595428323382,
        "long": 114.2517681324497
    },
    {
        "co": "GMB",
        "stop": 20006979,
        "name_tc": "中環(交易廣場)",
        "name_sc": "中环(交易广场)",
        "name_en": "Central (Exchange Square)",
        "lat": 22.28371910234814,
        "long": 114.15846680234036
    },
    {
        "co": "GMB",
        "stop": 20007008,
        "name_tc": " 何文田邨公共運輸交匯處",
        "name_sc": "何文田邨公共运输交汇处",
        "name_en": "Ho Man Tin Estate Public Transport Interchange",
        "lat": 22.317819690711644,
        "long": 114.18096052735577
    },
    {
        "co": "GMB",
        "stop": 20007019,
        "name_tc": "常怡道, 近零碳天地",
        "name_sc": "常怡道, 近零碳天地 ",
        "name_en": "Sheung Yee Road, near Zero Carbon Building",
        "lat": 22.32074270601084,
        "long": 114.20775904900452
    },
    {
        "co": "GMB",
        "stop": 20007072,
        "name_tc": "欣翔道, 御金·國峯外",
        "name_sc": "欣翔道, 御金·国峯外",
        "name_en": "Yan Cheung Road, outside The Coronation",
        "lat": 22.309104829736366,
        "long": 114.16567449091978
    },
    {
        "co": "GMB",
        "stop": 20007080,
        "name_tc": "烏蛟騰",
        "name_sc": "乌蛟腾",
        "name_en": "Wu Kau Tang",
        "lat": 22.50756384978426,
        "long": 114.24302225615014
    },
    {
        "co": "GMB",
        "stop": 20007091,
        "name_tc": "白石角(科城路)公共運輸交匯處",
        "name_sc": "白石角(科城路)公共运输交汇处",
        "name_en": "Pak Shek Kok (Fo Shing Road) Public Transport Interchange",
        "lat": 22.431127611928282,
        "long": 114.20204719561299
    },
    {
        "co": "GMB",
        "stop": 20007152,
        "name_tc": "置富徑, 置富花園",
        "name_sc": "置富径, 置富花园",
        "name_en": "Chi Fu Close, Chi Fu Fa Yuen",
        "lat": 22.2565062787667,
        "long": 114.13851410668161
    },
    {
        "co": "GMB",
        "stop": 20007153,
        "name_tc": "荃威花園",
        "name_sc": "荃威花园",
        "name_en": "Allway Gardens",
        "lat": 22.377296693594907,
        "long": 114.10398158150238
    },
    {
        "co": "GMB",
        "stop": 20007225,
        "name_tc": "西洋菜南街152號",
        "name_sc": "西洋菜南街152号",
        "name_en": "152 Sai Yeung Choi Street South",
        "lat": 22.320257853977246,
        "long": 114.16985690283626
    },
    {
        "co": "GMB",
        "stop": 20007251,
        "name_tc": "輞井圍小巴總站",
        "name_sc": "辋井围小巴总站",
        "name_en": "Mong Tseng Wai Minibus Terminus",
        "lat": 22.476897933324718,
        "long": 114.00315571037429
    },
    {
        "co": "GMB",
        "stop": 20007260,
        "name_tc": "小坑村",
        "name_sc": "小坑村",
        "name_en": "Siu Hang Tsuen",
        "lat": 22.509127883886126,
        "long": 114.14688108802187
    },
    {
        "co": "GMB",
        "stop": 20007287,
        "name_tc": "屯門碼頭 (公共小巴總站 - 湖山路)",
        "name_sc": "屯门码头 (公共小巴总站 - 湖山路)",
        "name_en": "Tuen Mun Ferry Pier (Public Light Bus (Scheduled Services) Terminus on Wu Shan Road)",
        "lat": 22.374354507254296,
        "long": 113.97011476150375
    },
    {
        "co": "GMB",
        "stop": 20007295,
        "name_tc": "慈山寺",
        "name_sc": "慈山寺",
        "name_en": "Tsz Shan Monastery",
        "lat": 22.4726812255575,
        "long": 114.20654894322236
    },
    {
        "co": "GMB",
        "stop": 20007311,
        "name_tc": "葛量洪醫院",
        "name_sc": "葛量洪医院",
        "name_en": "Grantham Hospital",
        "lat": 22.251345209093387,
        "long": 114.1730326345835
    },
    {
        "co": "GMB",
        "stop": 20007312,
        "name_tc": "媽橫路, 近朗屏站",
        "name_sc": "妈横路, 近朗屏站",
        "name_en": "Ma Wang Road, near Long Ping Station",
        "lat": 22.4475391107531,
        "long": 114.0238378675531
    },
    {
        "co": "GMB",
        "stop": 20007313,
        "name_tc": "渣甸街",
        "name_sc": "渣甸街",
        "name_en": "Jardine's Bazaar",
        "lat": 22.279782591665448,
        "long": 114.18471455991612
    },
    {
        "co": "GMB",
        "stop": 20007365,
        "name_tc": "天水圍醫院",
        "name_sc": "天水围医院",
        "name_en": "Tin Shui Wai Hospital",
        "lat": 22.459034520397534,
        "long": 113.9956172029116
    },
    {
        "co": "GMB",
        "stop": 20007395,
        "name_tc": "牛頭角總站",
        "name_sc": "牛头角总站",
        "name_en": "Ngau Tau Kok Bus Terminus",
        "lat": 22.322962262685802,
        "long": 114.21676690479522
    },
    {
        "co": "GMB",
        "stop": 20007415,
        "name_tc": "元朗港鐵站",
        "name_sc": "元朗港铁站",
        "name_en": "Yuen Long Station",
        "lat": 22.446271218583263,
        "long": 114.03544683042537
    },
    {
        "co": "GMB",
        "stop": 20007482,
        "name_tc": "聯益漁村",
        "name_sc": "联益渔村",
        "name_en": "Luen Yick Fishermen Village",
        "lat": 22.455602937368692,
        "long": 114.21484227355981
    },
    {
        "co": "GMB",
        "stop": 20007525,
        "name_tc": "新豐路,近石湖墟郵政局",
        "name_sc": "新丰路,近石湖墟邮政局",
        "name_en": "SAN FUNG AVENUE, near Shek Wu Hui Post Office",
        "lat": 22.50382206549488,
        "long": 114.12681293691146
    },
    {
        "co": "GMB",
        "stop": 20007574,
        "name_tc": "港珠澳大橋香港口岸旅檢大樓一樓",
        "name_sc": "港珠澳大桥香港口岸旅检大楼一楼",
        "name_en": "First floor, Departure Deck, HZMB Hong Kong Port Passenger Clearance Building",
        "lat": 22.317282162906228,
        "long": 113.9502535457381
    },
    {
        "co": "GMB",
        "stop": 20007589,
        "name_tc": "萬宜水庫東壩",
        "name_sc": "万宜水库东坝",
        "name_en": "The East Dam, High Island Reservoir",
        "lat": 22.361934510801266,
        "long": 114.37145045309828
    },
    {
        "co": "GMB",
        "stop": 20007612,
        "name_tc": "南丁格爾路,近伊利沙伯醫院Ｍ座",
        "name_sc": "南丁格尔路,近伊利沙伯医院Ｍ座",
        "name_en": "Nightingale Road, near Queen Elizabeth Hospital M Block",
        "lat": 22.30893577592966,
        "long": 114.1739556311499
    },
    {
        "co": "GMB",
        "stop": 20007669,
        "name_tc": "安茵街, 近恆泰樓",
        "name_sc": "安茵街, 近恒泰楼",
        "name_en": "On Yan Street, near Hang Tai House",
        "lat": 22.326589189806697,
        "long": 114.2286680619808
    },
    {
        "co": "GMB",
        "stop": 20007679,
        "name_tc": "運頭塘總站",
        "name_sc": "运头塘总站",
        "name_en": "Wan Tau Tong Terminus",
        "lat": 22.442305233253364,
        "long": 114.16658674351842
    },
    {
        "co": "GMB",
        "stop": 20007691,
        "name_tc": "洪元路, 洪福邨外",
        "name_sc": "洪元路, 洪福邨外",
        "name_en": "Hung Yuen Road, outside Hung Fuk Estate",
        "lat": 22.43720216752327,
        "long": 113.9966675641332
    },
    {
        "co": "GMB",
        "stop": 20007708,
        "name_tc": "朗河路, 近港頭村涼亭",
        "name_sc": "朗河路, 近港头村凉亭",
        "name_en": "Long Ho Road, near Kong Tau Tsuen Gazebo",
        "lat": 22.43512817544711,
        "long": 114.03604096097949
    },
    {
        "co": "GMB",
        "stop": 20007715,
        "name_tc": "將軍澳工業邨 (駿昌街) 總站",
        "name_sc": "将军澳工业邨 (骏昌街) 总站",
        "name_en": "Tseung Kwan O Industrial Estate (Chun Cheong Street) Terminus",
        "lat": 22.287221707767394,
        "long": 114.27454252071134
    },
    {
        "co": "GMB",
        "stop": 20007726,
        "name_tc": "耀東邨巴士總站",
        "name_sc": "耀东邨巴士总站",
        "name_en": "Yiu Tung Estate Bus Terminus",
        "lat": 22.277770267972393,
        "long": 114.2233568429947
    },
    {
        "co": "GMB",
        "stop": 20007810,
        "name_tc": "粉嶺站專綫小巴總站",
        "name_sc": "粉岭站专綫小巴总站",
        "name_en": "Public Light Bus (Scheduled) Service Terminus at Fanling Station",
        "lat": 22.49303561482425,
        "long": 114.13857489824296
    },
    {
        "co": "GMB",
        "stop": 20007811,
        "name_tc": "粉嶺站專綫小巴總站",
        "name_sc": "粉岭站专綫小巴总站",
        "name_en": "Public Light Bus (Scheduled) Service Terminus at Fanling Station",
        "lat": 22.493046515196816,
        "long": 114.138391162705
    },
    {
        "co": "GMB",
        "stop": 20007864,
        "name_tc": "安茵街, 近恆泰樓",
        "name_sc": "安茵街, 近恒泰楼",
        "name_en": "On Yan Street, near Hang Tai House",
        "lat": 22.326556845918763,
        "long": 114.22920539975168
    },
    {
        "co": "GMB",
        "stop": 20007879,
        "name_tc": "安翠街小巴總站",
        "name_sc": "安翠街小巴总站",
        "name_en": "On Chui Street GMB Terminus",
        "lat": 22.321069217191607,
        "long": 114.23412457108499
    },
    {
        "co": "GMB",
        "stop": 20007949,
        "name_tc": "雍盛苑",
        "name_sc": "雍盛苑",
        "name_en": "Yung Shing Court",
        "lat": 22.48272830265143,
        "long": 114.13840323686601
    },
    {
        "co": "GMB",
        "stop": 20008023,
        "name_tc": "青衣站",
        "name_sc": "青衣站",
        "name_en": "Tsing Yi Station",
        "lat": 22.35955458520574,
        "long": 114.10627841949464
    },
    {
        "co": "GMB",
        "stop": 20008085,
        "name_tc": "烏溪沙站巴士總站",
        "name_sc": "乌溪沙站巴士总站",
        "name_en": "Wu Kai Sha Station Bus Terminus",
        "lat": 22.428503328593727,
        "long": 114.24418151378633
    },
    {
        "co": "GMB",
        "stop": 20008215,
        "name_tc": "達運道, 荔枝山",
        "name_sc": "達運道, 荔枝山",
        "name_en": "Tat Wan Road, Lai Chi Shan",
        "lat": 22.438380423439114,
        "long": 114.16488334536552
    },
    {
        "co": "GMB",
        "stop": 20008512,
        "name_tc": "協調道小巴總站",
        "name_sc": "协调道小巴总站",
        "name_en": "Concorde Road GMB Terminus",
        "lat": 22.332491386495622,
        "long": 114.1991150379181
    },
    {
        "co": "GMB",
        "stop": 20008529,
        "name_tc": "彩盛里, 近彩興苑彩薈閣",
        "name_sc": "彩盛里, 近彩兴苑彩荟阁",
        "name_en": "Choi Shing Lane, near Choi Wui House, Choi Hing Court",
        "lat": 22.332041807267032,
        "long": 114.21379559071802
    },
    {
        "co": "GMB",
        "stop": 20009073,
        "name_tc": "科技大道西11號",
        "name_sc": "科技大道西11号",
        "name_en": "11 Science Park West Avenue",
        "lat": 22.425934955613386,
        "long": 114.2101982411987
    },
    {
        "co": "GMB",
        "stop": 20009412,
        "name_tc": "港鐵旺角東站",
        "name_sc": "港铁旺角东站",
        "name_en": "Mongkok East Station",
        "lat": 22.322065716072302,
        "long": 114.17225003242494
    },
    {
        "co": "GMB",
        "stop": 20009418,
        "name_tc": "青衣碼頭總站",
        "name_sc": "青衣码头总站",
        "name_en": "Tsing Yi Ferry Pier Terminus",
        "lat": 22.353206433756913,
        "long": 114.10860121250154
    },
    {
        "co": "GMB",
        "stop": 20009634,
        "name_tc": "葵涌醫院",
        "name_sc": "葵涌医院",
        "name_en": "Kwai Chung Hospital ",
        "lat": 22.341879281523067,
        "long": 114.13450598716736
    },
    {
        "co": "GMB",
        "stop": 20009733,
        "name_tc": "堅尼地城站",
        "name_sc": "坚尼地城站",
        "name_en": "Kennedy Town Station",
        "lat": 22.281360435671434,
        "long": 114.12893235683443
    },
    {
        "co": "GMB",
        "stop": 20009903,
        "name_tc": "泰豐街, 近東昇樓",
        "name_sc": "泰丰街, 近东升楼 ",
        "name_en": "Tai fung Street, Near Tung Sing Building",
        "lat": 22.44616165805169,
        "long": 114.03043761849405
    },
    {
        "co": "GMB",
        "stop": 20010135,
        "name_tc": "利安里,近香港扶幼會盛德中心學校",
        "name_sc": "利安里,近香港扶幼会盛德中心学校",
        "name_en": "Lee On Lane, near Society of Boy's Centre Shing Tak Centre School",
        "lat": 22.331707379354583,
        "long": 114.22170460224153
    },
    {
        "co": "GMB",
        "stop": 20010164,
        "name_tc": "火炭(駿洋邨)",
        "name_sc": "火炭(骏洋邨)",
        "name_en": "Fo Tan (Chun Yeung Estate)",
        "lat": 22.39913819219852,
        "long": 114.19100135564807
    },
    {
        "co": "GMB",
        "stop": 20010195,
        "name_tc": "石蔭巴士總站",
        "name_sc": "石荫巴士总站",
        "name_en": "Shek Yam Bus Terminus",
        "lat": 22.370356658658707,
        "long": 114.13909792900087
    },
    {
        "co": "GMB",
        "stop": 20010393,
        "name_tc": "廣播道, 珍寶閣外",
        "name_sc": "广播道, 珍宝阁外",
        "name_en": "Broadcast Drive, outside Jumbo Court",
        "lat": 22.34269394619135,
        "long": 114.18166519637455
    },
    {
        "co": "GMB",
        "stop": 20010401,
        "name_tc": "紅磡(紅鸞道)小巴總站",
        "name_sc": "红磡(红鸾道)小巴总站",
        "name_en": "Hung Hom (Hung Luen Road) GMB Terminus",
        "lat": 22.301651278364705,
        "long": 114.1886866092682
    },
    {
        "co": "GMB",
        "stop": 20010493,
        "name_tc": "瑪麗醫院",
        "name_sc": "玛丽医院",
        "name_en": "Queen Mary Hospital",
        "lat": 22.270449829458784,
        "long": 114.13072630757598
    },
    {
        "co": "GMB",
        "stop": 20010663,
        "name_tc": "火炭駿洋邨公共運輸停車灣",
        "name_sc": "火炭骏洋邨公共运输停车湾",
        "name_en": "Fo Tan Chun Yeung Estate Public Transport Lay-bys",
        "lat": 22.399118705980108,
        "long": 114.1902301105438
    },
    {
        "co": "GMB",
        "stop": 20010665,
        "name_tc": "沙田馬場(彭福公園) ",
        "name_sc": "沙田马场（彭福公园）",
        "name_en": "Sha Tin Racecourse (Penfold Park)",
        "lat": 22.399018254650617,
        "long": 114.20352194186994
    },
    {
        "co": "GMB",
        "stop": 20010669,
        "name_tc": "樂信徑駿景園外的巴士停車灣",
        "name_sc": "乐信径骏景园外的巴士停车湾",
        "name_en": "Bus lay-by at Lok Shun Path outside Royal Ascot",
        "lat": 22.399214416500456,
        "long": 114.20044672643361
    },
    {
        "co": "GMB",
        "stop": 20010695,
        "name_tc": "沙田站",
        "name_sc": "沙田站",
        "name_en": "Sha Tin Station",
        "lat": 22.38331614507912,
        "long": 114.18764993548393
    },
    {
        "co": "GMB",
        "stop": 20010771,
        "name_tc": "河旺街, 大興花園第1期外",
        "name_sc": "河旺街, 大兴花园第1期外",
        "name_en": "Ho Wong Street, outside Tai Hing Gardens Phase I",
        "lat": 22.399901567873467,
        "long": 113.97238120436671
    },
    {
        "co": "GMB",
        "stop": 20010993,
        "name_tc": "林錦公路, 近白牛石",
        "name_sc": "林锦公路, 近白牛石",
        "name_en": "Lam Kam Road, near Pak Hgau Shek",
        "lat": 22.440626344203938,
        "long": 114.12582937628031
    },
    {
        "co": "GMB",
        "stop": 20011123,
        "name_tc": "大埔墟 (靖遠街) 總站",
        "name_sc": "大埔墟 (靖远街) 总站",
        "name_en": "Tai Po Market (Tsing Yuen Market) Terminus",
        "lat": 22.449101046957797,
        "long": 114.16507445275785
    },
    {
        "co": "GMB",
        "stop": 20011197,
        "name_tc": "大埔墟 (寶鄕街大埔社區中心外) 總站",
        "name_sc": "大埔墟 (宝乡街大埔社区中心外) 总站",
        "name_en": "Tai Po Market (Po Heung Street outside Tai Po Community Centre) Terminus",
        "lat": 22.44695301652867,
        "long": 114.16568197309972
    },
    {
        "co": "GMB",
        "stop": 20011235,
        "name_tc": "黃竹坑站",
        "name_sc": "黄竹坑站",
        "name_en": "Wong Chuk Hang Station",
        "lat": 22.248192864696236,
        "long": 114.16789412498476
    },
    {
        "co": "GMB",
        "stop": 20011237,
        "name_tc": "南寧街,海晶閣外",
        "name_sc": "南宁街,海晶阁外",
        "name_en": "Nam Ning Street, outside Hoi Tsing Court",
        "lat": 22.24893017271479,
        "long": 114.15387958288194
    },
    {
        "co": "GMB",
        "stop": 20011247,
        "name_tc": "謝斐道, 波斯富街",
        "name_sc": "谢斐道, 波斯富街",
        "name_en": "Jaffe Road,Percival Street",
        "lat": 22.280953397440168,
        "long": 114.18247997760773
    },
    {
        "co": "GMB",
        "stop": 20011277,
        "name_tc": "小西灣道, 藍灣半島第3座外",
        "name_sc": "小西湾道, 蓝湾半岛第3座外",
        "name_en": "Siu Sai Wan Road, outside Tower 3, Island Resort",
        "lat": 22.266050322054934,
        "long": 114.2503868043423
    },
    {
        "co": "GMB",
        "stop": 20011281,
        "name_tc": "薄扶林,碧瑤灣(下)第17座外(總站)",
        "name_sc": "薄扶林,碧瑶湾(下)第17座外(总站)",
        "name_en": "Near Baguio Villa Block 17",
        "lat": 22.261967719017814,
        "long": 114.13190424442293
    },
    {
        "co": "GMB",
        "stop": 20011318,
        "name_tc": "石排灣邨公共運輸交匯處",
        "name_sc": "石排湾邨公共运输交汇处",
        "name_en": "Shek Pai Wan Estate Public Transport Interchange",
        "lat": 22.249991478750136,
        "long": 114.15725180080364
    },
    {
        "co": "GMB",
        "stop": 20011350,
        "name_tc": "景隆街,近總統戲院",
        "name_sc": "景隆街,近总统戏院",
        "name_en": "Near President Theatre, Cannon Street",
        "lat": 22.281466302732174,
        "long": 114.18354976626293
    },
    {
        "co": "GMB",
        "stop": 20011485,
        "name_tc": "杏花邨公共運輸交匯處",
        "name_sc": "杏花邨公共运输交汇处",
        "name_en": "Heng Fa Chuen Public Transport Interchang",
        "lat": 22.27531182482968,
        "long": 114.2412042617798
    },
    {
        "co": "GMB",
        "stop": 20011536,
        "name_tc": "小西灣(藍灣半島)公共運輸交匯處",
        "name_sc": "小西湾(蓝湾半岛)公共运输交汇处",
        "name_en": "Siu Sai Wan (Island Resort) Public Transport Interchange",
        "lat": 22.26640320349684,
        "long": 114.25054489342699
    },
    {
        "co": "GMB",
        "stop": 20011574,
        "name_tc": "莊士敦道, 循道衛理大廈外",
        "name_sc": "庄士敦道, 循道卫理大厦外",
        "name_en": "Johnston Road, outside Methodist House",
        "lat": 22.277332770957788,
        "long": 114.17008613083303
    },
    {
        "co": "GMB",
        "stop": 20011684,
        "name_tc": "大埔墟 (懷仁街) 總站",
        "name_sc": "大埔墟 (怀仁街) 总站",
        "name_en": "Tai Po Market (Wai Yan Street) Terminus",
        "lat": 22.448837900004875,
        "long": 114.16524410247804
    },
    {
        "co": "GMB",
        "stop": 20011685,
        "name_tc": "黃竹洋村",
        "name_sc": "黄竹洋村",
        "name_en": "Wong Chuk Yeung Village",
        "lat": 22.39792885120613,
        "long": 114.1778254511155
    },
    {
        "co": "GMB",
        "stop": 20011698,
        "name_tc": "落馬洲管制站",
        "name_sc": "落马洲管制站",
        "name_en": "Lok Ma Chau Control Point",
        "lat": 22.507967968219024,
        "long": 114.07506823539735
    },
    {
        "co": "GMB",
        "stop": 20011727,
        "name_tc": "深灣道, 水上樂園",
        "name_sc": "深湾道, 水上乐园",
        "name_en": "Shum Wan Road, Water World",
        "lat": 22.23610368704093,
        "long": 114.16708141565326
    },
    {
        "co": "GMB",
        "stop": 20011845,
        "name_tc": "元朗大球場",
        "name_sc": "元朗大球场",
        "name_en": "Yuen Long Stadium",
        "lat": 22.443199463499532,
        "long": 114.02197408182957
    },
    {
        "co": "GMB",
        "stop": 20011951,
        "name_tc": "梨木樹邨公共運輸交匯處",
        "name_sc": "梨木树邨公共运输交汇处",
        "name_en": "Lei Muk Shue Estate Public Transport Interchange",
        "lat": 22.37755446041111,
        "long": 114.13678586483003
    },
    {
        "co": "GMB",
        "stop": 20011952,
        "name_tc": "曹公街公共小型巴士（專線）服務總站",
        "name_sc": "曹公街公共小型巴士（专线）服务总站",
        "name_en": "Tso Kung Street Public Light Bus (Scheduled) Service Terminus",
        "lat": 22.373099903360476,
        "long": 114.11196470260622
    },
    {
        "co": "GMB",
        "stop": 20011977,
        "name_tc": "石圍角邨",
        "name_sc": "石围角邨",
        "name_en": "Shek Tau Kok Estate",
        "lat": 22.375724041640467,
        "long": 114.12354111671449
    },
    {
        "co": "GMB",
        "stop": 20011978,
        "name_tc": "梨木樹邨公共運輸交匯處",
        "name_sc": "梨木树邨公共运输交汇处",
        "name_en": "Lei Muk Shue Estate Public Transport Interchange",
        "lat": 22.377668550756944,
        "long": 114.13634061813356
    },
    {
        "co": "GMB",
        "stop": 20011985,
        "name_tc": "葵盛圍小巴總站",
        "name_sc": "葵盛围小巴总站",
        "name_en": "Kwai Shing Circuit Public Light Bus Terminus",
        "lat": 22.362478830898574,
        "long": 114.12753224372865
    },
    {
        "co": "GMB",
        "stop": 20011991,
        "name_tc": "城門水塘",
        "name_sc": "城门水塘",
        "name_en": "Shing Mun Reservoir",
        "lat": 22.384603083964407,
        "long": 114.14382934570314
    },
    {
        "co": "GMB",
        "stop": 20012015,
        "name_tc": "白雲街",
        "name_sc": "白云街",
        "name_en": "Pak Wan Street ",
        "lat": 22.336518000993983,
        "long": 114.16773455919841
    },
    {
        "co": "GMB",
        "stop": 20012043,
        "name_tc": "廣田邨巴士總站",
        "name_sc": "广田邨巴士总站",
        "name_en": "Kwong Tin Estate Bus Terminus",
        "lat": 22.302678647263313,
        "long": 114.24136251211168
    },
    {
        "co": "GMB",
        "stop": 20012052,
        "name_tc": "海防道, 海防大廈對面",
        "name_sc": "海防道, 海防大厦对面",
        "name_en": "Haiphong Road, opposite Hoiphong Mansion",
        "lat": 22.29817085988095,
        "long": 114.17174845933916
    },
    {
        "co": "GMB",
        "stop": 20012075,
        "name_tc": "翠屏南邨翠松樓外",
        "name_sc": "翠屏南邨翠松楼外",
        "name_en": "Tsui Ping (South) Estate, outside Tsui Chung House",
        "lat": 22.31307350796715,
        "long": 114.23434853553773
    },
    {
        "co": "GMB",
        "stop": 20012119,
        "name_tc": "承啟道,近保良局何壽南小學",
        "name_sc": "承启道,近保良局何寿南小学",
        "name_en": "SHING KAI ROAD, near Po Leung Kuk Stanley Ho Sau Nan Primary School",
        "lat": 22.33210108404016,
        "long": 114.20465309110851
    },
    {
        "co": "GMB",
        "stop": 20012126,
        "name_tc": "龍琛路, 近上水匯",
        "name_sc": "龙琛路, 近上水汇",
        "name_en": "Lung Sum Avenue, near Spot",
        "lat": 22.50303853015019,
        "long": 114.12794223886407
    },
    {
        "co": "GMB",
        "stop": 20012134,
        "name_tc": "智昌路, 近上水中心第六座",
        "name_sc": "智昌路, 近上水中心第六座",
        "name_en": "Chi Cheong Road, near Sheung Shui Centre Block No. 6",
        "lat": 22.500910742492206,
        "long": 114.13057386875154
    },
    {
        "co": "GMB",
        "stop": 20012136,
        "name_tc": "伊利沙伯醫院路,　近　伊利沙伯醫院Ｋ座",
        "name_sc": "伊利沙伯医院路,　近　伊利沙伯医院Ｋ座",
        "name_en": "QUEEN ELIZABETH HOSPITAL ROAD, near Queen Elizabeth Hospital Block K",
        "lat": 22.30879448732913,
        "long": 114.17553336432299
    },
    {
        "co": "GMB",
        "stop": 20012140,
        "name_tc": "華山村通道",
        "name_sc": "华山村通道",
        "name_en": "Wa Shan Tsuen Access Road",
        "lat": 22.515807806477433,
        "long": 114.13459181785585
    },
    {
        "co": "GMB",
        "stop": 20012208,
        "name_tc": "海貴路公共運輸交匯處",
        "name_sc": "海贵路公共运输交汇处",
        "name_en": "Hoi Kwai Road Public Transport Interchange",
        "lat": 22.36833045955727,
        "long": 114.11067934064323
    },
    {
        "co": "GMB",
        "stop": 20012241,
        "name_tc": "利園山道, 鳳鳴大廈外",
        "name_sc": "利园山道, 凤鸣大厦外",
        "name_en": "Lee Garden Road, outside Phoenix Apartments",
        "lat": 22.278301731794514,
        "long": 114.1839296358972
    },
    {
        "co": "GMB",
        "stop": 20012284,
        "name_tc": "蕉徑路, 近彭氏宗祠",
        "name_sc": "蕉径路, 近彭氏宗祠",
        "name_en": "TSIU KENG ROAD, near Pang Ancestral Hall ",
        "lat": 22.476356928877173,
        "long": 114.10340643075102
    },
    {
        "co": "GMB",
        "stop": 20012289,
        "name_tc": "丙岡路,近丙崗",
        "name_sc": "丙冈路,近丙岗",
        "name_en": "Ping Kong Road, near Ping Kong",
        "lat": 22.490703195044087,
        "long": 114.12269160675842
    },
    {
        "co": "GMB",
        "stop": 20012307,
        "name_tc": "昂船路近政府船塢海康樓",
        "name_sc": "昂船路近政府船坞海康楼",
        "name_en": "NGONG SHUNG ROAD near Hoi Hong Lau, Government Dockyard",
        "lat": 22.322623948598004,
        "long": 114.1401569643644
    },
    {
        "co": "GMB",
        "stop": 20012312,
        "name_tc": "長沙灣 (長順街) 總站",
        "name_sc": "长沙湾 (长顺街) 总站",
        "name_en": "Cheung Sha Wan (Cheung Shun Street) Terminus",
        "lat": 22.33646779357989,
        "long": 114.14758091859164
    },
    {
        "co": "GMB",
        "stop": 20012318,
        "name_tc": "D2 Place 一期",
        "name_sc": "D2 Place 一期",
        "name_en": "D2 Place One",
        "lat": 22.33612594606793,
        "long": 114.14849469879634
    },
    {
        "co": "GMB",
        "stop": 20012340,
        "name_tc": "長沙灣廣場小巴總站",
        "name_sc": "长沙湾广场小巴总站",
        "name_en": "Cheung Sha Wan Plaza Minibus Terminus",
        "lat": 22.33709456849356,
        "long": 114.14873327855179
    },
    {
        "co": "GMB",
        "stop": 20012342,
        "name_tc": "荔盈街近海盈邨",
        "name_sc": "荔盈街近海盈村 ",
        "name_en": "LAI YING STREET near Hoi Ying Estate",
        "lat": 22.32817154714757,
        "long": 114.14798905658716
    },
    {
        "co": "GMB",
        "stop": 20012343,
        "name_tc": "長沙灣廣場小巴總站",
        "name_sc": "长沙湾广场小巴总站",
        "name_en": "Cheung Sha Wan Plaza Minibus Terminus",
        "lat": 22.337068514513362,
        "long": 114.14864868491793
    },
    {
        "co": "GMB",
        "stop": 20012349,
        "name_tc": "海麗邨",
        "name_sc": "海丽邨",
        "name_en": "Hoi Lai Estate",
        "lat": 22.332039038618518,
        "long": 114.14754341715478
    },
    {
        "co": "GMB",
        "stop": 20012353,
        "name_tc": "牛池灣街彩雲邨豐澤樓對面",
        "name_sc": "牛池湾街 彩云邨丰泽楼对面",
        "name_en": "Ngau Chi Wan Street opposite Fung Chak House, Choi Wan Estate",
        "lat": 22.33479669997438,
        "long": 114.21822780456394
    },
    {
        "co": "GMB",
        "stop": 20012355,
        "name_tc": "豐盛街, 曉暉花園1座外",
        "name_sc": "丰盛街, 晓晖花园1座外",
        "name_en": "Fung Shing Street, outside Block 1, Scenic View",
        "lat": 22.337424267352493,
        "long": 114.21464726837739
    },
    {
        "co": "GMB",
        "stop": 20012356,
        "name_tc": "豐盛街, 豐盛街紀律部隊宿舍1座外",
        "name_sc": "丰盛街, 丰盛街纪律部队宿舍1座外",
        "name_en": "Fung Shing Street, outside Fung Shing Street Disciplined Services Quarters",
        "lat": 22.338412922516124,
        "long": 114.21410498266486
    },
    {
        "co": "GMB",
        "stop": 20012359,
        "name_tc": "豐盛街, 峻弦外",
        "name_sc": "丰盛街, 峻弦外",
        "name_en": "Fung Shing Street, outside Aria",
        "lat": 22.339575984349597,
        "long": 114.21327768894466
    },
    {
        "co": "GMB",
        "stop": 20012360,
        "name_tc": "坪石公共運輸交匯處",
        "name_sc": "坪石公共运输交汇处",
        "name_en": "Ping Shek Public Transport Interchange",
        "lat": 22.33404366547606,
        "long": 114.21009489275816
    },
    {
        "co": "GMB",
        "stop": 20012361,
        "name_tc": "豐盛街, 近彩雲(一)邨觀日樓",
        "name_sc": "丰盛街, 近彩云(一)村观日楼",
        "name_en": "Fung Shing Street, near Koon Yat House, Choi Wan (I) Estate",
        "lat": 22.33357113969025,
        "long": 114.21644249385882
    },
    {
        "co": "GMB",
        "stop": 20012377,
        "name_tc": "沙田坳道, 近黃大仙站",
        "name_sc": "沙田坳道, 近黄大仙站 ",
        "name_en": "Shatin Pass Road, near Wong Tai Sin Station",
        "lat": 22.34271201872242,
        "long": 114.19530416108465
    },
    {
        "co": "GMB",
        "stop": 20012380,
        "name_tc": "穎竹街, 竹園北邨桃園樓外",
        "name_sc": "颖竹街, 竹园北邨桃园楼外",
        "name_en": "Wing Chuk Street, outside Toa Yuen House, Chuk Yuen North Estate",
        "lat": 22.346776386204244,
        "long": 114.19453518497134
    },
    {
        "co": "GMB",
        "stop": 20012389,
        "name_tc": " 港鐵樂富站小巴總站",
        "name_sc": " 港鐵樂富站小巴總站",
        "name_en": "Lok Fu MTR Station Minibus Terminus",
        "lat": 22.33766592088783,
        "long": 114.18823513065071
    },
    {
        "co": "GMB",
        "stop": 20012392,
        "name_tc": "沙田站(排頭街)",
        "name_sc": "沙田站(排头街)",
        "name_en": "Sha Tin Station (Pai Tau Street)",
        "lat": 22.384236028638007,
        "long": 114.18791413307191
    },
    {
        "co": "GMB",
        "stop": 20012411,
        "name_tc": "旺角(柏景灣)總站",
        "name_sc": "旺角(柏景湾)总站",
        "name_en": "Mongkok (Park Avenue) Terminus",
        "lat": 22.31529275431939,
        "long": 114.16342310085219
    },
    {
        "co": "GMB",
        "stop": 20012412,
        "name_tc": "瓊東街, 嘉峰臺",
        "name_sc": "琼东街, 嘉峰台",
        "name_en": "King Tung Street, Kingsford Terrace",
        "lat": 22.340599389216422,
        "long": 114.21006707604647
    },
    {
        "co": "GMB",
        "stop": 20012417,
        "name_tc": "沙田坳道, 黃大仙中心外(總站)",
        "name_sc": "沙田坳道, 黄大仙中心外(总站)",
        "name_en": "Shatin Pass Road, outside Wong Tai Sin Shopping Centre",
        "lat": 22.340972453647957,
        "long": 114.19555622504511
    },
    {
        "co": "GMB",
        "stop": 20012423,
        "name_tc": "瓊東街, 嘉峰臺",
        "name_sc": "琼东街, 嘉峰台",
        "name_en": "King Tung Street, Kingsford Terrace",
        "lat": 22.34073310295721,
        "long": 114.21021467873543
    },
    {
        "co": "GMB",
        "stop": 20012427,
        "name_tc": "西洋菜南街,近始創中心",
        "name_sc": "西洋菜南街,近始创中心",
        "name_en": "Sai Yeung Choi Street South, near Pioneer Centre",
        "lat": 22.322288322687438,
        "long": 114.16918909683694
    },
    {
        "co": "GMB",
        "stop": 20012428,
        "name_tc": "旺角道, 捷利大廈",
        "name_sc": "旺角道, 捷利大厦 ",
        "name_en": "MONG KOK ROAD, Chip Lee Building",
        "lat": 22.321067285616348,
        "long": 114.16982761679593
    },
    {
        "co": "GMB",
        "stop": 20012432,
        "name_tc": "恆安邨巴士總站",
        "name_sc": "恒安邨巴士总站",
        "name_en": "Heng On Estate Bus Terminus",
        "lat": 22.418040735163004,
        "long": 114.22849595546724
    },
    {
        "co": "GMB",
        "stop": 20012474,
        "name_tc": "香港科技大學(北站)",
        "name_sc": "香港科技大学(北站)",
        "name_en": "Hong Kong University of Science and Technology (North Station)",
        "lat": 22.33854992596409,
        "long": 114.2620611190796
    },
    {
        "co": "GMB",
        "stop": 20012484,
        "name_tc": "庭和里, 近坑口村",
        "name_sc": "庭和里, 近坑口村",
        "name_en": "Ting Wo Lane, near Hang Hau Village",
        "lat": 22.32053728006542,
        "long": 114.2665082216263
    },
    {
        "co": "GMB",
        "stop": 20012492,
        "name_tc": "龍翔道, 彩虹邨紅萼樓外",
        "name_sc": "龙翔道 彩虹村红萼楼外",
        "name_en": "Lung Cheung Roa,outside Hung Ngok House, Choi Hung Estate ",
        "lat": 22.336689223174876,
        "long": 114.20663595199586
    },
    {
        "co": "GMB",
        "stop": 20012539,
        "name_tc": "翠屏南邨翠松樓外",
        "name_sc": "翠屏南邨翠松楼外",
        "name_en": "Tsui Ping (South) Estate, outside Tsui Chung House",
        "lat": 22.31306155183017,
        "long": 114.23444596377401
    },
    {
        "co": "GMB",
        "stop": 20012572,
        "name_tc": "新港城中心",
        "name_sc": "新港城中心",
        "name_en": "MOSTown",
        "lat": 22.424373673518172,
        "long": 114.23314958810808
    },
    {
        "co": "GMB",
        "stop": 20012604,
        "name_tc": "皇后山",
        "name_sc": "皇后山",
        "name_en": "Queen's Hill",
        "lat": 22.503013697099476,
        "long": 114.16184030462327
    },
    {
        "co": "GMB",
        "stop": 20012637,
        "name_tc": "龍門居公共運輸交匯處",
        "name_sc": "龙门居公共运输交汇处",
        "name_en": "Lung Mun Oasis PTI",
        "lat": 22.38483125300352,
        "long": 113.96594524383545
    },
    {
        "co": "GMB",
        "stop": 20012672,
        "name_tc": "小坑村小巴總站",
        "name_sc": "小坑村小巴总站",
        "name_en": "Siu Hang Tsuen Minibus Terminus",
        "lat": 22.41397209935311,
        "long": 113.97172309120089
    },
    {
        "co": "GMB",
        "stop": 20012703,
        "name_tc": "康強街, 近安強大樓",
        "name_sc": "康强街, 近安强大楼",
        "name_en": "Hong Keung Street, Near On Keung Building",
        "lat": 22.334362043554584,
        "long": 114.196551181376
    },
    {
        "co": "GMB",
        "stop": 20012714,
        "name_tc": "康強街, 安強大樓外",
        "name_sc": "康强街, 安强大楼外",
        "name_en": "Hong Keung Street, outside On Keung Building",
        "lat": 22.334396557312594,
        "long": 114.19660180807116
    },
    {
        "co": "GMB",
        "stop": 20012769,
        "name_tc": "華景山路, 近華景山莊華景商場",
        "name_sc": "华景山路, 近华景山庄华景商场 ",
        "name_en": "WAH KING HILL ROAD, near Wonderland Villas Commercial Complex",
        "lat": 22.3518271514769,
        "long": 114.1372820734978
    },
    {
        "co": "GMB",
        "stop": 20012774,
        "name_tc": "長發街, 近恒生青山道大廈",
        "name_sc": "长发街, 近恒生青山道大厦 ",
        "name_en": "CHEUNG FAT STREET, near Hang Seng Castle Peak Road Building",
        "lat": 22.338275119037927,
        "long": 114.15610246360303
    },
    {
        "co": "GMB",
        "stop": 20012777,
        "name_tc": "瑪嘉烈醫院Ｋ座",
        "name_sc": "玛嘉烈医院Ｋ座",
        "name_en": "Princess Margaret Hospital Block K",
        "lat": 22.341410345513488,
        "long": 114.1346360743046
    },
    {
        "co": "GMB",
        "stop": 20012802,
        "name_tc": "青衣邨小巴總站",
        "name_sc": "青衣邨小巴总站",
        "name_en": "Tsing Yi Estate Minibus Terminus",
        "lat": 22.353737293908203,
        "long": 114.1031911969185
    },
    {
        "co": "GMB",
        "stop": 20012805,
        "name_tc": "葵芳站",
        "name_sc": "葵芳站",
        "name_en": "KWAI FONG STATION",
        "lat": 22.35608546468718,
        "long": 114.12756979465486
    },
    {
        "co": "GMB",
        "stop": 20012809,
        "name_tc": "楓樹窩路, 近翠怡花園第七座",
        "name_sc": "枫树窝路, 近翠怡花园第七座 ",
        "name_en": "FUNG SHUE WO ROAD, near Greenfield Garden Block 7",
        "lat": 22.353096948400314,
        "long": 114.10832427442075
    },
    {
        "co": "GMB",
        "stop": 20012819,
        "name_tc": "港鐵將軍澳站小巴總站",
        "name_sc": "港铁将军澳站小巴总站",
        "name_en": "Tseung Kwan O MTR Station Minibus Terminus",
        "lat": 22.30866439739472,
        "long": 114.26052052527668
    },
    {
        "co": "GMB",
        "stop": 20012842,
        "name_tc": "港鐵調景嶺站小巴總站",
        "name_sc": "港铁调景岭站小巴总站",
        "name_en": "Tiu Keng Leng MTR Station Minibus Terminus",
        "lat": 22.304999135239953,
        "long": 114.25241053104402
    },
    {
        "co": "GMB",
        "stop": 20012868,
        "name_tc": "漁暉道, 近香港仔大道",
        "name_sc": "渔晖道, 近香港仔大道 ",
        "name_en": "YUE FAI ROAD, near Aberdeen Main Road",
        "lat": 22.24846526418939,
        "long": 114.15585838258266
    },
    {
        "co": "GMB",
        "stop": 20012901,
        "name_tc": "香港教育大學小巴總站",
        "name_sc": "香港教育大学小巴总站",
        "name_en": "The Education University of Hong Kong Minibus Terminus",
        "lat": 22.46649169755898,
        "long": 114.19369697570802
    },
    {
        "co": "GMB",
        "stop": 20012903,
        "name_tc": "馬鞍山(海栢花園)小巴總站",
        "name_sc": "马鞍山(海栢花园)小巴总站",
        "name_en": "Ma On Shan (Bayshore Towers) Minibus Terminus",
        "lat": 22.425726984073147,
        "long": 114.23110842704774
    },
    {
        "co": "GMB",
        "stop": 20012938,
        "name_tc": "屯門市中心(屯發路)",
        "name_sc": "屯门市中心(屯发路) ",
        "name_en": "Tuen Mun Town Centre (Tuen Fat Road)",
        "lat": 22.39253647929623,
        "long": 113.97747203707695
    },
    {
        "co": "GMB",
        "stop": 20012939,
        "name_tc": "香港教育大學小巴總站",
        "name_sc": "香港教育大学小巴总站",
        "name_en": "The Education University of Hong Kong Minibus Terminus",
        "lat": 22.466222589163365,
        "long": 114.19343143701555
    },
    {
        "co": "GMB",
        "stop": 20012944,
        "name_tc": "平瀾街, 近花洲大樓",
        "name_sc": "平澜街, 近花洲大楼",
        "name_en": "PING LAN STREET, near Fa Chau Mansion",
        "lat": 22.244431464802524,
        "long": 114.15703888982536
    },
    {
        "co": "GMB",
        "stop": 20012948,
        "name_tc": "鴨脷洲橋道, 近鴨脷洲邨利福樓低座",
        "name_sc": "鸭脷洲桥道, 近鸭脷洲村利福楼低座 ",
        "name_en": "Ap Lei Chau Bridge Road, near Lei Fook House Low Block, Ap Lei Chau Estate",
        "lat": 22.244226631238703,
        "long": 114.15073603391649
    },
    {
        "co": "GMB",
        "stop": 20012950,
        "name_tc": "平瀾街, 近花洲大樓",
        "name_sc": "平澜街, 近花洲大楼",
        "name_en": "PING LAN STREET, near Fa Chau Mansion",
        "lat": 22.244489358918962,
        "long": 114.15701575577262
    },
    {
        "co": "GMB",
        "stop": 20012956,
        "name_tc": "渣甸街, 近燈籠洲街市",
        "name_sc": "渣甸街, 近灯笼洲街市 ",
        "name_en": "Jardine's Bazaar, near Tang Lung Chau Market",
        "lat": 22.279302714943697,
        "long": 114.1856208443642
    },
    {
        "co": "GMB",
        "stop": 20012969,
        "name_tc": "第一街, 近正街街市",
        "name_sc": "第一街, 近正街街市 ",
        "name_en": "First Street, near Centre Street Market",
        "lat": 22.28649284761067,
        "long": 114.14221867918971
    },
    {
        "co": "GMB",
        "stop": 20012971,
        "name_tc": "愛賢街, 愛蝶灣第8座外",
        "name_sc": "爱贤街, 爱东商场外",
        "name_en": "Oi Yin Street, outside Block 8, Aldrich Garden",
        "lat": 22.281509640440625,
        "long": 114.22829931880764
    },
    {
        "co": "GMB",
        "stop": 20012999,
        "name_tc": "承昌道, 近香港兒童醫院教學及科研大樓（A座）",
        "name_sc": "承昌道, 近香港儿童医院教学及科研大楼（A座）",
        "name_en": "Shing Cheong Road, Near Training & Research Tower (Tower A), Hong Kong Children's Hospital",
        "lat": 22.31618644051734,
        "long": 114.20880763704585
    },
    {
        "co": "GMB",
        "stop": 20013000,
        "name_tc": "郵輪碼頭",
        "name_sc": "邮轮码头",
        "name_en": "Cruise Terminal",
        "lat": 22.30555695479727,
        "long": 114.21418368816377
    },
    {
        "co": "GMB",
        "stop": 20013003,
        "name_tc": "愛蝶灣第10座外",
        "name_sc": "爱蝶湾第10座外",
        "name_en": "Aldrich Garden, outside Block 10",
        "lat": 22.281699338030446,
        "long": 114.2285814508796
    },
    {
        "co": "GMB",
        "stop": 20013008,
        "name_tc": "古洞路,　近　何東麥夫人醫局",
        "name_sc": "古洞路,　近　何东麦夫人医局",
        "name_en": "KWU TUNG ROAD, near LADY HO TUNG WELFARE CENTRE",
        "lat": 22.502229043751353,
        "long": 114.09891843795778
    },
    {
        "co": "GMB",
        "stop": 20013015,
        "name_tc": "坑頭小巴總站",
        "name_sc": "坑头小巴总站",
        "name_en": "Hang Tau Minibus Terminus",
        "lat": 22.491736802000062,
        "long": 114.1024160385132
    },
    {
        "co": "GMB",
        "stop": 20013034,
        "name_tc": "河上鄉排峰路,　近　河上鄉　居石侯公祠",
        "name_sc": "河上乡排峰路,　近　河上乡　居石侯公祠",
        "name_en": "HO SHEUNG HEUNG PAI FUNG ROAD, near Hau Ku Shek Ancestral Hall, HO SHEUNG HEUNG",
        "lat": 22.511033761615064,
        "long": 114.10911039576605
    },
    {
        "co": "GMB",
        "stop": 20013035,
        "name_tc": "博泉街,欣泉樓外",
        "name_sc": "博泉街,欣泉楼外",
        "name_en": "Pok Chuen Street, outside Yan Chuen House",
        "lat": 22.371986202363058,
        "long": 114.19852922594082
    },
    {
        "co": "GMB",
        "stop": 20013039,
        "name_tc": "車公廟路,顯徑商場對面",
        "name_sc": "车公庙路,显径商场对面",
        "name_en": "Che Kung Miu Road, opposite Hin Keng Shopping Centre",
        "lat": 22.36390815255499,
        "long": 114.17148765012683
    },
    {
        "co": "GMB",
        "stop": 20013042,
        "name_tc": "逸泰街, 沙田圍鐵路站外",
        "name_sc": "逸泰街, 沙田围铁路站外",
        "name_en": "Yat Tai Street, outside Sha Tin Wai Station",
        "lat": 22.3767992333985,
        "long": 114.19489415784868
    },
    {
        "co": "GMB",
        "stop": 20013046,
        "name_tc": "博泉街,欣泉樓外",
        "name_sc": "博泉街,欣泉楼外",
        "name_en": "Pok Chuen Street, outside Yan Chuen House",
        "lat": 22.37194217114757,
        "long": 114.19852417395666
    },
    {
        "co": "GMB",
        "stop": 20013050,
        "name_tc": "料壆路,　近　公眾停車場",
        "name_sc": "料壆路,　近　公众停车场",
        "name_en": "LIU POK ROAD, near public carpark, LIU POK",
        "lat": 22.527378436622946,
        "long": 114.10411655902864
    },
    {
        "co": "GMB",
        "stop": 20013053,
        "name_tc": "安明街, 近碩門邨",
        "name_sc": "安明街, 近硕门邨",
        "name_en": "On Ming Street, near Shek Mun Estate",
        "lat": 22.387525244171453,
        "long": 114.2089084408502
    },
    {
        "co": "GMB",
        "stop": 20013058,
        "name_tc": "博泉街,欣泉樓對面",
        "name_sc": "博泉街,欣泉楼对面",
        "name_en": "Pok Chuen Street, outside Yan Chuen House",
        "lat": 22.371222720293556,
        "long": 114.19865049336596
    },
    {
        "co": "GMB",
        "stop": 20013061,
        "name_tc": "廣田邨巴士總站",
        "name_sc": "广田邨巴士总站",
        "name_en": "Kwong Tin Estate Bus Terminus",
        "lat": 22.302574421777415,
        "long": 114.24116671068988
    },
    {
        "co": "GMB",
        "stop": 20013132,
        "name_tc": "麗坪路, 近配水庫小巴總站",
        "name_sc": "丽坪路, 近配水库小巴总站",
        "name_en": "Lai Ping Road, GMB Terminus near service reservoir",
        "lat": 22.41617052313776,
        "long": 114.19964542112348
    },
    {
        "co": "GMB",
        "stop": 20013208,
        "name_tc": "九龍站",
        "name_sc": "九龙站",
        "name_en": "Kowloon Station",
        "lat": 22.305038589234098,
        "long": 114.16285693645479
    },
    {
        "co": "GMB",
        "stop": 20013363,
        "name_tc": "西九龍政府合署",
        "name_sc": "西九龙政府合署",
        "name_en": "West Kowloon Government Offices",
        "lat": 22.313220728687007,
        "long": 114.16321913928579
    },
    {
        "co": "GMB",
        "stop": 20013462,
        "name_tc": "荃灣(兆和街)",
        "name_sc": "荃湾(兆和街)",
        "name_en": "Tsuen Wan (Shiu Wo Street)",
        "lat": 22.372064350056277,
        "long": 114.11769557744266
    },
    {
        "co": "GMB",
        "stop": 20013464,
        "name_tc": "老圍",
        "name_sc": "老围",
        "name_en": "Lo Wai",
        "lat": 22.383095145345095,
        "long": 114.12258356809619
    },
    {
        "co": "GMB",
        "stop": 20013495,
        "name_tc": "石圍角邨",
        "name_sc": "石围角邨",
        "name_en": "Shek Wai Kok Estate",
        "lat": 22.376313692861864,
        "long": 114.12541061639787
    },
    {
        "co": "GMB",
        "stop": 20013594,
        "name_tc": "象山邨",
        "name_sc": "象山邨",
        "name_en": "Cheung Shan Estate",
        "lat": 22.378291017249133,
        "long": 114.13038142025471
    },
    {
        "co": "GMB",
        "stop": 20013664,
        "name_tc": "荔崗街,近瑪嘉烈醫院荔景大樓",
        "name_sc": "荔岗街,近玛嘉烈医院荔景大楼",
        "name_en": "LAI KONG STREET, near Princess Margaret Hospital Lai King Building",
        "lat": 22.35030403175218,
        "long": 114.13055777549745
    },
    {
        "co": "GMB",
        "stop": 20013695,
        "name_tc": "瑪嘉烈醫院路,近瑪嘉烈醫院Ｈ座",
        "name_sc": "玛嘉烈医院路,近玛嘉烈医院Ｈ座",
        "name_en": "PRINCESS MARGARET HOSPITAL ROAD, near Princess Margaret Hospital Block H",
        "lat": 22.34047014520789,
        "long": 114.13380324840547
    },
    {
        "co": "GMB",
        "stop": 20013696,
        "name_tc": "興寧路,近新都會廣場",
        "name_sc": "兴宁路,近新都会广场",
        "name_en": "HING NING ROAD, near Metroplaza",
        "lat": 22.357210160885288,
        "long": 114.12752151489258
    },
    {
        "co": "GMB",
        "stop": 20013698,
        "name_tc": "鹹田街,近寶石大廈第３座",
        "name_sc": "咸田街,近宝石大厦第３座",
        "name_en": "Ham Tin Street, near Bo Shek Mansion Block 3",
        "lat": 22.368722095653546,
        "long": 114.11738812923433
    },
    {
        "co": "GMB",
        "stop": 20013699,
        "name_tc": "康盛街,近康怡花園Ｂ座",
        "name_sc": "康盛街,近康怡花园Ｂ座",
        "name_en": "HONG SHING STREET, near Kornhill Block B",
        "lat": 22.279987917872916,
        "long": 114.21403884887695
    },
    {
        "co": "GMB",
        "stop": 20013702,
        "name_tc": "康盛街,近康怡花園俱樂部",
        "name_sc": "康盛街,近康怡花园俱乐部",
        "name_en": "HONG SHING STREET, near Kornhill Recreation Club",
        "lat": 22.280126907630095,
        "long": 114.21400666236879
    },
    {
        "co": "GMB",
        "stop": 20013735,
        "name_tc": "又一城",
        "name_sc": "又一城",
        "name_en": "Festival Walk",
        "lat": 22.336918288594525,
        "long": 114.17530708014966
    },
    {
        "co": "GMB",
        "stop": 20013736,
        "name_tc": "康柏徑,近康景花園Ａ座",
        "name_sc": "康柏径,近康景花园Ａ座",
        "name_en": "HONG PAK PATH, near Mt Parker Lodge Block A",
        "lat": 22.280965807159845,
        "long": 114.2129284143448
    },
    {
        "co": "GMB",
        "stop": 20013750,
        "name_tc": "望隆街,近峻峰花園Ｄ座",
        "name_sc": "望隆街,近峻峰花园Ｄ座",
        "name_en": "MONG LUNG STREET, near Perfect Mount Gardens Block D",
        "lat": 22.278838765123634,
        "long": 114.22945886850358
    },
    {
        "co": "GMB",
        "stop": 20013751,
        "name_tc": "汝州西街, 近恒發工業大廈",
        "name_sc": "汝州西街, 近恒发工业大厦 ",
        "name_en": "YU CHAU WEST STREET, near Hang Fat Industrial Building",
        "lat": 22.339331356938867,
        "long": 114.1501969099045
    },
    {
        "co": "GMB",
        "stop": 20013807,
        "name_tc": "富泰邨服務設施大樓",
        "name_sc": "富泰村服务设施大楼 ",
        "name_en": "FU TAI ESTATE",
        "lat": 22.41317113113521,
        "long": 113.98250453174116
    },
    {
        "co": "GMB",
        "stop": 20013818,
        "name_tc": "景峰徑,近景峰豪庭",
        "name_sc": "景峰径,近景峰豪庭",
        "name_en": "KING FUNG PATH, near Noble Place Block 2",
        "lat": 22.405432484350385,
        "long": 113.9823415875435
    },
    {
        "co": "GMB",
        "stop": 20013825,
        "name_tc": "樂華小巴總站",
        "name_sc": "乐华小巴总站",
        "name_en": "Lok Wah Minibus Terminus",
        "lat": 22.320471497674955,
        "long": 114.21973769289401
    },
    {
        "co": "GMB",
        "stop": 20013858,
        "name_tc": "彩禧路, 彩霞邨彩月樓外",
        "name_sc": "彩禧路, 彩霞邨彩月楼外",
        "name_en": "Choi Hei Road, outside Choi Yuet House, Choi Ha Estate",
        "lat": 22.326348225195076,
        "long": 114.21774029731752
    },
    {
        "co": "GMB",
        "stop": 20013869,
        "name_tc": "康利道, 聖傑靈女子中學外",
        "name_sc": "康利道, 圣杰灵女子中学外",
        "name_en": "Hong Lee Road, outside St. Catherine's School For Girls, Kwun Tong",
        "lat": 22.318979052099362,
        "long": 114.2200791835785
    },
    {
        "co": "GMB",
        "stop": 20013891,
        "name_tc": "荃灣(兆和街)",
        "name_sc": "荃湾(兆和街)",
        "name_en": "Tsuen Wan (Shiu Wo Street)",
        "lat": 22.371711204259668,
        "long": 114.11830510413193
    },
    {
        "co": "GMB",
        "stop": 20013924,
        "name_tc": "荔崗街,　近　浩景臺第一座",
        "name_sc": "荔岗街,　近　浩景台第一座",
        "name_en": "LAI KONG STREET, near Highland Park Block 1",
        "lat": 22.349902569406336,
        "long": 114.1306265791912
    },
    {
        "co": "GMB",
        "stop": 20013966,
        "name_tc": "又一城",
        "name_sc": "又一城",
        "name_en": "Festival Walk",
        "lat": 22.33676213697908,
        "long": 114.17506222710935
    },
    {
        "co": "GMB",
        "stop": 20014023,
        "name_tc": "雅翔道，九龍站E出口外         ",
        "name_sc": "雅翔道，九龙站E出口外 ",
        "name_en": "Nga Cheung Road, outside Kowloon Station Exit E",
        "lat": 22.304759903986564,
        "long": 114.1603290913217
    },
    {
        "co": "GMB",
        "stop": 20014072,
        "name_tc": "裕民坊公共運輸交匯處",
        "name_sc": "裕民坊公共运输交汇处",
        "name_en": "Yue Man Square Public Transport Interchange",
        "lat": 22.3146764660778,
        "long": 114.22522366046907
    },
    {
        "co": "GMB",
        "stop": 20014093,
        "name_tc": "曉光街，曉麗苑曉順閣外",
        "name_sc": "晓光街，晓丽苑晓顺阁外",
        "name_en": "Hiu Kwong Street, outside Hiu Shun House, Hiu Lai Court",
        "lat": 22.318998658127086,
        "long": 114.22957420349123
    },
    {
        "co": "GMB",
        "stop": 20014094,
        "name_tc": "秀麗街, 曉麗商場外",
        "name_sc": "秀丽街, 晓丽商场外",
        "name_en": "Sau Lai Street, outside Hiu Lai Shopping Centre",
        "lat": 22.32065370365449,
        "long": 114.22978073358537
    },
    {
        "co": "GMB",
        "stop": 20014097,
        "name_tc": "秀茂坪(上)巴士總站",
        "name_sc": "秀茂坪(上)巴士总站",
        "name_en": "Sau Mau Ping (Upper) Bus Terminus",
        "lat": 22.31495042128036,
        "long": 114.23607990145683
    },
    {
        "co": "GMB",
        "stop": 20014122,
        "name_tc": "宏福花園小巴總站",
        "name_sc": "宏福花园小巴总站",
        "name_en": "Tivoli Garden Minibus Terminus",
        "lat": 22.354465937265946,
        "long": 114.10741659247283
    },
    {
        "co": "GMB",
        "stop": 20014127,
        "name_tc": "青康路, 近美景花園第七座",
        "name_sc": "青康路, 近美景花园第七座 ",
        "name_en": "Ching Hong Road, Near Mayfair Gardens Block 7",
        "lat": 22.344863451218895,
        "long": 114.10772885115618
    },
    {
        "co": "GMB",
        "stop": 20014128,
        "name_tc": "平田公共運輸交匯處",
        "name_sc": "平田公共运输交汇处",
        "name_en": "Ping Tin Public Transport Interchange",
        "lat": 22.307322514299607,
        "long": 114.2356456866679
    },
    {
        "co": "GMB",
        "stop": 20014154,
        "name_tc": "平田公共運輸交匯處",
        "name_sc": "平田公共运输交汇处",
        "name_en": "Ping Tin Public Transport Interchange",
        "lat": 22.307250007109953,
        "long": 114.23563932542228
    },
    {
        "co": "GMB",
        "stop": 20014164,
        "name_tc": "喇沙利道, 近碧華花園第六座",
        "name_sc": "喇沙利道, 近碧华花园第六座 ",
        "name_en": "LA SALLE ROAD, near Beverly Villas Block 6",
        "lat": 22.327315758930602,
        "long": 114.18196055328043
    },
    {
        "co": "GMB",
        "stop": 20014168,
        "name_tc": "東頭邨(東隆道)小巴總站",
        "name_sc": "东头村(东隆道)小巴总站 ",
        "name_en": "Tung Tau Estate (Tung Lung Road) Minibus Terminus",
        "lat": 22.3334714519251,
        "long": 114.19286844134331
    },
    {
        "co": "GMB",
        "stop": 20014194,
        "name_tc": "新蒲崗(譽‧港灣)小巴總站",
        "name_sc": "新蒲岗(誉‧港湾)小巴总站",
        "name_en": "San Po Kong (The Latitude) Minibus Terminus",
        "lat": 22.33384845443316,
        "long": 114.19699877500537
    },
    {
        "co": "GMB",
        "stop": 20014215,
        "name_tc": "九龍塘(沙福道)公共運輸交匯處",
        "name_sc": "九龙塘（沙福道）公共运输交汇处",
        "name_en": "Kowloon Tong (Suffolk Road) Public Transport Interchange",
        "lat": 22.33635486086877,
        "long": 114.17682319879533
    },
    {
        "co": "GMB",
        "stop": 20014224,
        "name_tc": "村南道, 近大圍站",
        "name_sc": "村南道, 近大围站 ",
        "name_en": "TSUEN NAM ROAD, near Tai Wai Station",
        "lat": 22.373436877265814,
        "long": 114.17845887041865
    },
    {
        "co": "GMB",
        "stop": 20014229,
        "name_tc": "美田邨, 美田商場",
        "name_sc": "美田邨, 美田商场",
        "name_en": "Mei Tin Shopping Centre, Mei Tin Estate",
        "lat": 22.376184975949357,
        "long": 114.17065606246595
    },
    {
        "co": "GMB",
        "stop": 20014234,
        "name_tc": "美松苑小巴總站",
        "name_sc": "美松苑小巴总站",
        "name_en": "Mei Chung Court Minibus Terminus",
        "lat": 22.380173092710578,
        "long": 114.17293088522652
    },
    {
        "co": "GMB",
        "stop": 20014238,
        "name_tc": "碧田街, 近恒峰花園第３座",
        "name_sc": "碧田街, 近恒峰花园第３座 ",
        "name_en": "PIK TIN STREET, near Granville Garden Tower 3",
        "lat": 22.377573804485422,
        "long": 114.1717274806891
    },
    {
        "co": "GMB",
        "stop": 20014246,
        "name_tc": "西洋菜南街,近長寧大廈",
        "name_sc": "西洋菜南街,近长宁大厦 ",
        "name_en": "SAI YEUNG CHOI STREET SOUTH, near Cheung Ling Mansion",
        "lat": 22.323803487143728,
        "long": 114.16912844847025
    },
    {
        "co": "GMB",
        "stop": 20014287,
        "name_tc": "亞士厘道, 近 北京道休憩處",
        "name_sc": "亚士厘道, 近 北京道休憩处",
        "name_en": "ASHLEY ROAD, near PEKING ROAD SITTING-OUT AREA",
        "lat": 22.29565855621547,
        "long": 114.17073100786186
    },
    {
        "co": "GMB",
        "stop": 20014293,
        "name_tc": "上水站小巴總站",
        "name_sc": "上水站小巴总站",
        "name_en": "Sheung Shui Station Public Light Bus Terminus",
        "lat": 22.50212556665549,
        "long": 114.12768747657537
    },
    {
        "co": "GMB",
        "stop": 20014299,
        "name_tc": "蓮麻坑小巴總站",
        "name_sc": "莲麻坑小巴总站",
        "name_en": "Lin Ma Hang Minibus Terminus",
        "lat": 22.552338371997006,
        "long": 114.18163239955904
    },
    {
        "co": "GMB",
        "stop": 20014320,
        "name_tc": "漢口道, 近 騏生商業中心",
        "name_sc": "汉口道, 近 骐生商业中心",
        "name_en": "HANKOW ROAD, near Kai Seng Commercial Centre",
        "lat": 22.29592368232427,
        "long": 114.17129719699523
    },
    {
        "co": "GMB",
        "stop": 20014327,
        "name_tc": "忠孝街, 近 忠孝街休憩處",
        "name_sc": "忠孝街, 近 忠孝街休憩处",
        "name_en": "CHUNG HAU STREET, near Chung Hau Street Sitting-out Area",
        "lat": 22.30915619132813,
        "long": 114.18155554028866
    },
    {
        "co": "GMB",
        "stop": 20014332,
        "name_tc": "忠孝街,　近　欣圖軒第二座",
        "name_sc": "忠孝街,　近　欣图轩第二座",
        "name_en": "CHUNG HAU STREET, near Cascades Block 2",
        "lat": 22.315572228770016,
        "long": 114.17983524985553
    },
    {
        "co": "GMB",
        "stop": 20014333,
        "name_tc": "常和街,　近　陳瑞祺（喇沙）書院",
        "name_sc": "常和街,　近　陈瑞祺（喇沙）书院",
        "name_en": "SHEUNG WO STREET, near Chan Sui Ki (La Salle) College",
        "lat": 22.319352896038655,
        "long": 114.18308025323874
    },
    {
        "co": "GMB",
        "stop": 20014354,
        "name_tc": "樂華小巴總站",
        "name_sc": "乐华小巴总站",
        "name_en": "Lok Wah Minibus Terminus",
        "lat": 22.320765999032247,
        "long": 114.2205229139733
    },
    {
        "co": "GMB",
        "stop": 20014386,
        "name_tc": "美荔道,近美孚巴士總站",
        "name_sc": "美荔道,近美孚巴士总站",
        "name_en": "MEI LAI ROAD, near Mei Foo Bus Terminus",
        "lat": 22.33684990899732,
        "long": 114.14063174203677
    },
    {
        "co": "GMB",
        "stop": 20014457,
        "name_tc": "粉嶺車站路,近粉嶺名都嘉麗閣",
        "name_sc": "粉岭车站路,近粉岭名都嘉丽阁",
        "name_en": "FANLING STATION ROAD, near Galaxy Court, FANLING TOWN CENTER",
        "lat": 22.49302971022653,
        "long": 114.138509483979
    },
    {
        "co": "GMB",
        "stop": 20014489,
        "name_tc": "山頂廣場（下層巴士總站）",
        "name_sc": "山顶广场（下层巴士总站）",
        "name_en": "The Peak Galleria (Bus Terminus under)",
        "lat": 22.270084542826492,
        "long": 114.14988317765588
    },
    {
        "co": "GMB",
        "stop": 20014492,
        "name_tc": "香港站小巴總站",
        "name_sc": "香港站小巴总站",
        "name_en": "Hong Kong Station Minibus Terminus",
        "lat": 22.28591623656832,
        "long": 114.15845014374341
    },
    {
        "co": "GMB",
        "stop": 20014524,
        "name_tc": "碧瑤灣(上)小巴總站",
        "name_sc": "碧瑶湾(上)小巴总站",
        "name_en": "Baguio Villa (Upper) Minibus Terminus",
        "lat": 22.26226559248361,
        "long": 114.13422094927766
    },
    {
        "co": "GMB",
        "stop": 20014536,
        "name_tc": "新會道, 近京城大廈",
        "name_sc": "新會道, 近京城大廈 ",
        "name_en": "SUN WUI ROAD, near Capital Building",
        "lat": 22.277676936420676,
        "long": 114.18467811918791
    },
    {
        "co": "GMB",
        "stop": 20014549,
        "name_tc": "旭龢道, 近赫頓大廈",
        "name_sc": "旭和道, 近赫顿大厦 ",
        "name_en": "KOTEWALL ROAD, near Hatton House",
        "lat": 22.280728919671905,
        "long": 114.13898505694009
    },
    {
        "co": "GMB",
        "stop": 20014550,
        "name_tc": "寶珊道, 近寶城大廈Ａ座",
        "name_sc": "宝珊道, 近宝城大厦Ａ座 ",
        "name_en": "PO SHAN ROAD, near Po Shan Mansions Block A",
        "lat": 22.280299747445756,
        "long": 114.14134238269114
    },
    {
        "co": "GMB",
        "stop": 20014585,
        "name_tc": "坪原路,近坪洋舊村公廁",
        "name_sc": "坪原路,近坪洋旧村公厕",
        "name_en": "PING YUEN ROAD, near Ping Yeung Old Village Public Toilet",
        "lat": 22.535134647272436,
        "long": 114.1626655318551
    },
    {
        "co": "GMB",
        "stop": 20014617,
        "name_tc": "軍地(北)",
        "name_sc": "军地(北)",
        "name_en": "KWAN TEI (NORTH)",
        "lat": 22.51269955499805,
        "long": 114.15597333157612
    },
    {
        "co": "GMB",
        "stop": 20014620,
        "name_tc": "鶴藪圍小巴總站",
        "name_sc": "鹤薮围小巴总站",
        "name_en": "Hok Tau Wai Minibus Terminus",
        "lat": 22.502440602448765,
        "long": 114.17507212709977
    },
    {
        "co": "GMB",
        "stop": 20014622,
        "name_tc": "康景街, 近利景樓",
        "name_sc": "康景街, 近利景楼 ",
        "name_en": "HONG KING STREET, near Lee King Building",
        "lat": 22.443938389256818,
        "long": 114.02761496946692
    },
    {
        "co": "GMB",
        "stop": 20014633,
        "name_tc": "康景街總站\t",
        "name_sc": "康景街总站\t",
        "name_en": "Hong King Street Terminus\t",
        "lat": 22.443938389256818,
        "long": 114.02761496946692
    },
    {
        "co": "GMB",
        "stop": 20014636,
        "name_tc": "丹桂村總站",
        "name_sc": "丹桂村總站",
        "name_en": "Tan Kwai Tsuen Terminus",
        "lat": 22.426877863449043,
        "long": 113.99748517050664
    },
    {
        "co": "GMB",
        "stop": 20014652,
        "name_tc": "高山道, 高山劇場外",
        "name_sc": "高山道, 高山剧场外",
        "name_en": "Ko Shan Road, outside Ko Shan Theatre",
        "lat": 22.314279450303857,
        "long": 114.18668031692506
    },
    {
        "co": "GMB",
        "stop": 20014659,
        "name_tc": "康盛花園巴士總站, 景嶺書院外",
        "name_sc": "康盛花园巴士总站, 景岭书院外",
        "name_en": "Hong Sing Garden Bus Terminus, outside King Ling College",
        "lat": 22.318658968086226,
        "long": 114.2537221312523
    },
    {
        "co": "GMB",
        "stop": 20014675,
        "name_tc": "翠林體育館外",
        "name_sc": "翠林体育馆外",
        "name_en": "Tsui Lam Indoor Creation Centre",
        "lat": 22.32231460964801,
        "long": 114.24944718650136
    },
    {
        "co": "GMB",
        "stop": 20014677,
        "name_tc": "貿泰路, 茵怡花園第2座外",
        "name_sc": "贸泰路, 茵怡花园第2座外",
        "name_en": "Mau Tai Road, outside Block 2, Verbena Heights",
        "lat": 22.3221091282095,
        "long": 114.25635304035615
    },
    {
        "co": "GMB",
        "stop": 20014679,
        "name_tc": "寶寧里, 近將軍澳醫院",
        "name_sc": "宝宁里, 近将军澳医院",
        "name_en": "Po Ning Lane, near Tseung Kwan O Hospital",
        "lat": 22.31882686744287,
        "long": 114.2688261009111
    },
    {
        "co": "GMB",
        "stop": 20014728,
        "name_tc": "清水灣道, 近大坳門",
        "name_sc": "清水湾道, 近大坳门",
        "name_en": "Clear Water Bay Road, near Tai Au Mun",
        "lat": 22.296359375172052,
        "long": 114.29148226976396
    },
    {
        "co": "GMB",
        "stop": 20014731,
        "name_tc": "清水灣第二灣泳灘",
        "name_sc": "清水湾第二湾泳滩",
        "name_en": "Clear Water Bay Second Beach",
        "lat": 22.286949147785208,
        "long": 114.2871317267418
    },
    {
        "co": "GMB",
        "stop": 20014734,
        "name_tc": "布袋澳村道, 近布袋澳",
        "name_sc": "布袋澳村道, 近布袋澳",
        "name_en": "Po Toi O Chuen Road, near Po Toi O",
        "lat": 22.27428546647095,
        "long": 114.29561376549829
    },
    {
        "co": "GMB",
        "stop": 20014766,
        "name_tc": "翠琳巴士總站",
        "name_sc": "翠琳巴士总站",
        "name_en": "Tsui Lam Bus Terminus",
        "lat": 22.322936619589193,
        "long": 114.24918807996589
    },
    {
        "co": "GMB",
        "stop": 20014769,
        "name_tc": "藍田站公共運輸交匯處",
        "name_sc": "蓝田站公共运输交汇处",
        "name_en": "Lam Tin Station Public Transport Interchange",
        "lat": 22.306852423713565,
        "long": 114.23388239920915
    },
    {
        "co": "GMB",
        "stop": 20014773,
        "name_tc": "寶康路, 將軍澳村對面",
        "name_sc": "宝康路, 将军澳村对面",
        "name_en": "Po Hong Road, opposite Tseung Kwan O Village",
        "lat": 22.327465121699255,
        "long": 114.25057396454693
    },
    {
        "co": "GMB",
        "stop": 20014779,
        "name_tc": "盛芳街,　近　協德大廈",
        "name_sc": "盛芳街,　近　协德大厦",
        "name_en": "SHING FONG STREET, near Hip Tak Building",
        "lat": 22.359510763725023,
        "long": 114.12740849981914
    },
    {
        "co": "GMB",
        "stop": 20014793,
        "name_tc": "鹹田街,　近　荃灣石壁遷置村遊樂場",
        "name_sc": "咸田街,　近　荃湾石壁迁置村游乐场",
        "name_en": "HAM TIN STREET, near Shek Pik Resettlers' Playground, Tsuen Wan",
        "lat": 22.368158483585848,
        "long": 114.11704188495489
    },
    {
        "co": "GMB",
        "stop": 20014794,
        "name_tc": "坪輋路,近李屋村",
        "name_sc": "坪輋路,近李屋村 ",
        "name_en": "PING CHE ROAD, near Lee Uk Tsuen",
        "lat": 22.533307092966208,
        "long": 114.15204815676701
    },
    {
        "co": "GMB",
        "stop": 20014795,
        "name_tc": "貨櫃碼頭路公共運輸交匯處小巴總站",
        "name_sc": "货柜码头路公共运输交汇处小巴总站",
        "name_en": "Container Port Road Public Transport Interchange Minibus Terminus",
        "lat": 22.354544082415487,
        "long": 114.12661149836741
    },
    {
        "co": "GMB",
        "stop": 20014804,
        "name_tc": "昂運路,　近　昂船洲公眾貨物裝卸區",
        "name_sc": "昂运路,　近　昂船洲公众货物装卸区",
        "name_en": "NGONG WAN ROAD, near Stonecutters Island Public Cargo Working Area",
        "lat": 22.31943653515113,
        "long": 114.12886575138232
    },
    {
        "co": "GMB",
        "stop": 20014814,
        "name_tc": "下城門道, 近富山火葬場",
        "name_sc": "下城门道, 近富山火葬场 ",
        "name_en": "LOWER SHING MUN ROAD, near FU SHAN CREMATORIUM",
        "lat": 22.374508140746308,
        "long": 114.16999668021273
    },
    {
        "co": "GMB",
        "stop": 20014816,
        "name_tc": "興寧路,　近　葵涌廣場",
        "name_sc": "兴宁路,　近　葵涌广场",
        "name_en": "HING NING ROAD, near Kwai Chung Plaza",
        "lat": 22.35730903061811,
        "long": 114.12771546463581
    },
    {
        "co": "GMB",
        "stop": 20014819,
        "name_tc": "四號貨櫃碼頭",
        "name_sc": "四号货柜码头",
        "name_en": "CONTAINER TERMINAL 4",
        "lat": 22.341715029749174,
        "long": 114.12734040722621
    },
    {
        "co": "GMB",
        "stop": 20014858,
        "name_tc": "興寧路,　近　新都會廣場",
        "name_sc": "兴宁路,　近　新都会广场",
        "name_en": "HING NING ROAD, near Metroplaza",
        "lat": 22.357035948302162,
        "long": 114.1275116535054
    },
    {
        "co": "GMB",
        "stop": 20014859,
        "name_tc": "謝斐道, 近兆安中心",
        "name_sc": "谢斐道, 近兆安中心 ",
        "name_en": "JAFFE ROAD, near Siu On Plaza",
        "lat": 22.280944422504902,
        "long": 114.18247540955535
    },
    {
        "co": "GMB",
        "stop": 20014862,
        "name_tc": "蓮麻坑路,近松園下\t",
        "name_sc": "莲麻坑路,近松园下\t",
        "name_en": "LIN MA HANG ROAD, near TSUNG YUEN HA\t",
        "lat": 22.553159388320175,
        "long": 114.15554079651561
    },
    {
        "co": "GMB",
        "stop": 20014863,
        "name_tc": "蓮麻坑路,近香園圍",
        "name_sc": "莲麻坑路,近香园围",
        "name_en": "LIN MA HANG ROAD, near Heung Yuen Wai",
        "lat": 22.55347548324447,
        "long": 114.16462859803052
    },
    {
        "co": "GMB",
        "stop": 20014874,
        "name_tc": "數碼港巴士總站",
        "name_sc": "数码港巴士总站",
        "name_en": "Cyberport Bus Terminus",
        "lat": 22.262379777039285,
        "long": 114.13007497787477
    },
    {
        "co": "GMB",
        "stop": 20014885,
        "name_tc": "田灣邨小巴總站",
        "name_sc": "田湾邨小巴总站",
        "name_en": "Tin Wan Estate Minibus Terminus",
        "lat": 22.250585130294553,
        "long": 114.14953187593063
    },
    {
        "co": "GMB",
        "stop": 20014947,
        "name_tc": "石排街, 近石籬一邨石安樓",
        "name_sc": "石排街, 近石篱一村石安楼",
        "name_en": "Shek Pai Street, near Shek On House, Shek Lei (I) Estate",
        "lat": 22.364133310916753,
        "long": 114.13881093263629
    },
    {
        "co": "GMB",
        "stop": 20014980,
        "name_tc": "長宏邨小巴總站",
        "name_sc": "长宏邨小巴总站",
        "name_en": "Cheung Wang Estate Minibus Terminus",
        "lat": 22.357355275228212,
        "long": 114.09615978598598
    },
    {
        "co": "GMB",
        "stop": 20014984,
        "name_tc": "瑪嘉烈醫院路, 近瑪嘉烈醫院Ａ，Ｂ，Ｃ，Ｄ座",
        "name_sc": "玛嘉烈医院路，近玛嘉烈医院A，B，C，D座",
        "name_en": "Princess Margaret Hospital Road, near Princess Margaret Hospital Blocks A,B,C,D",
        "lat": 22.34051728204022,
        "long": 114.13480907678606
    },
    {
        "co": "GMB",
        "stop": 20014986,
        "name_tc": "葵盛圍, 近香港專業教育學院（葵涌）",
        "name_sc": "葵盛围, 近香港专业教育学院（葵涌）",
        "name_en": "KWAI SHING CIRCUIT, near Hong Kong Institute of Vocational Education (Kwai Chung)",
        "lat": 22.362419299017336,
        "long": 114.12764623761178
    },
    {
        "co": "GMB",
        "stop": 20015022,
        "name_tc": "獅子石道, 近創業樓",
        "name_sc": "狮子石道, 近创业楼",
        "name_en": "Lion Rock Road, near 70 Lion Rock Road",
        "lat": 22.32984085336211,
        "long": 114.1882630255029
    },
    {
        "co": "GMB",
        "stop": 20015046,
        "name_tc": "廣田邨小巴總站",
        "name_sc": "广田邨小巴总站",
        "name_en": "Kwong Tin Estate Minibus Terminus",
        "lat": 22.302756045675814,
        "long": 114.24132406700667
    },
    {
        "co": "GMB",
        "stop": 20015057,
        "name_tc": "基督教聯合醫院小巴總站",
        "name_sc": "基督教联合医院小巴总站",
        "name_en": "United Christian Hospital Minibus Terminus",
        "lat": 22.322953987748427,
        "long": 114.22784149646759
    },
    {
        "co": "GMB",
        "stop": 20015079,
        "name_tc": "大本型",
        "name_sc": "大本型",
        "name_en": "Domain",
        "lat": 22.295973935125943,
        "long": 114.23845205536055
    },
    {
        "co": "GMB",
        "stop": 20015118,
        "name_tc": "麗港城小巴總站",
        "name_sc": "丽港城小巴总站",
        "name_en": "Laguna City Minibus Terminus",
        "lat": 22.307176372275126,
        "long": 114.22907386583368
    },
    {
        "co": "GMB",
        "stop": 20015145,
        "name_tc": "利安道, 近順利邨利明樓",
        "name_sc": "利安道, 近顺利村利明楼",
        "name_en": "Lee On Road, near Lee Ming House, Shun Lee Estate",
        "lat": 22.332409512538238,
        "long": 114.22511637210847
    },
    {
        "co": "GMB",
        "stop": 20015218,
        "name_tc": "觀塘渡輪碼頭小巴總站",
        "name_sc": "观塘渡轮码头小巴总站",
        "name_en": "Kwun Tong Ferry Pier Light Bus Terminus",
        "lat": 22.30760561771912,
        "long": 114.22216057777406
    },
    {
        "co": "GMB",
        "stop": 20015225,
        "name_tc": "常怡道, 近零碳天地組裝合成建築法展現中心",
        "name_sc": "常怡道, 近零碳天地组装合成建筑法展现中心",
        "name_en": "Sheung Yee Road, near Modular Integrated Construction Display Centre, Zero Carbon Building",
        "lat": 22.32066911772258,
        "long": 114.20780369569172
    },
    {
        "co": "GMB",
        "stop": 20015226,
        "name_tc": "香港科技大學(南站)",
        "name_sc": "香港科技大学(南站)",
        "name_en": "Hong Kong University of Science and Technology (South Station)",
        "lat": 22.333632654836716,
        "long": 114.26374554634096
    },
    {
        "co": "GMB",
        "stop": 20015234,
        "name_tc": "唐德街, 港鐵將軍澳站公共交通交匯處",
        "name_sc": "唐德街, 港铁将军澳站公共交通交汇处",
        "name_en": "Tseung Kwan O Station Public Transport Interchange",
        "lat": 22.308572223789504,
        "long": 114.26039546728136
    },
    {
        "co": "GMB",
        "stop": 20015244,
        "name_tc": "啓仁街, 近聖公會九龍灣基樂小學",
        "name_sc": "启仁街, 近圣公会九龙湾基乐小学",
        "name_en": "Kai Yan Street, near SKH Kowloon Bay Kei Lok Primary School",
        "lat": 22.329052638906724,
        "long": 114.2066788673401
    },
    {
        "co": "GMB",
        "stop": 20015251,
        "name_tc": "維港灣",
        "name_sc": "维港湾",
        "name_en": "Island Harbourview",
        "lat": 22.31884010099002,
        "long": 114.158753156662
    },
    {
        "co": "GMB",
        "stop": 20015279,
        "name_tc": "海貴路公共運輸交匯處",
        "name_sc": "海贵路公共运输交汇处",
        "name_en": "Hoi Kwai Road Public Transport Interchange",
        "lat": 22.368312831806037,
        "long": 114.11067187786104
    },
    {
        "co": "GMB",
        "stop": 20015280,
        "name_tc": "海濱花園",
        "name_sc": "海滨花园",
        "name_en": "Riviera Gardens",
        "lat": 22.362925319196762,
        "long": 114.11429554224016
    },
    {
        "co": "GMB",
        "stop": 20015294,
        "name_tc": "順安道, 近順天邨",
        "name_sc": "顺安道, 近顺天邨",
        "name_en": "Shun On Road, near Shun Tin Estate",
        "lat": 22.32584331279105,
        "long": 114.22839671373369
    },
    {
        "co": "GMB",
        "stop": 20015343,
        "name_tc": "順安道, 近順天邨天榮樓",
        "name_sc": "顺安道, 近顺天村天荣楼",
        "name_en": "Shun On Road, near Tin Wing House, Shun Tin Estate",
        "lat": 22.326422659301567,
        "long": 114.22718167304994
    },
    {
        "co": "GMB",
        "stop": 20015376,
        "name_tc": "康城站公共運輸交匯處",
        "name_sc": "康城站公共运输交汇处",
        "name_en": "LOHAS Park Station Public Transport Interchange",
        "lat": 22.296436147981264,
        "long": 114.26845282316211
    },
    {
        "co": "GMB",
        "stop": 20015377,
        "name_tc": "石角路, 近峻瀅II",
        "name_sc": "石角路, 近峻滢II",
        "name_en": "Shek Kok Road, near The Beaumount II",
        "lat": 22.297072694668127,
        "long": 114.27385210990907
    },
    {
        "co": "GMB",
        "stop": 20015382,
        "name_tc": "將軍澳工業邨",
        "name_sc": "将军澳工业邨",
        "name_en": "Tseung Kwan O Industrial Estate",
        "lat": 22.28325662254648,
        "long": 114.27018150687218
    },
    {
        "co": "GMB",
        "stop": 20015409,
        "name_tc": "福康街, 近金寶樓",
        "name_sc": "福康街, 近金宝楼",
        "name_en": "Fook Hong Street, near Kam Bo Building",
        "lat": 22.445104359918382,
        "long": 114.02857482433319
    },
    {
        "co": "GMB",
        "stop": 20015420,
        "name_tc": "未命名通道, 近落馬洲站",
        "name_sc": "未命名通道, 近落马洲站",
        "name_en": "UNNAMED ACCESS ROAD, near Lok Ma Chau Station",
        "lat": 22.514965367303837,
        "long": 114.06645029783252
    },
    {
        "co": "GMB",
        "stop": 20015423,
        "name_tc": "青山公路－新田段, 近文天祥公園",
        "name_sc": "青山公路－新田段, 近文天祥公园",
        "name_en": "Castle Peak Road - San Tin, near Man Tin Cheung Park",
        "lat": 22.497642193260134,
        "long": 114.0766614675522
    },
    {
        "co": "GMB",
        "stop": 20015428,
        "name_tc": "下灣村東路, 近下灣村籃球場",
        "name_sc": "下湾村东路, 近下湾村篮球场",
        "name_en": "Ha Wan Tsuen East Road, near Ha Wan Tsuen Basketball Court",
        "lat": 22.51509297239099,
        "long": 114.07437756657602
    },
    {
        "co": "GMB",
        "stop": 20015429,
        "name_tc": "平定道",
        "name_sc": "平定道",
        "name_en": "Ping Ting Road",
        "lat": 22.339927649732008,
        "long": 114.20796190011713
    },
    {
        "co": "GMB",
        "stop": 20015439,
        "name_tc": "粉嶺車站路, 近粉嶺名都嘉麗閣",
        "name_sc": "粉岭车站路, 近粉岭名都嘉丽阁",
        "name_en": "Fanling Station Road, Near Galaxy Court, Fanling Town Center",
        "lat": 22.492851981214468,
        "long": 114.13861244916917
    },
    {
        "co": "GMB",
        "stop": 20015445,
        "name_tc": "天恩商場",
        "name_sc": "天恩商场",
        "name_en": "Tin Yan Shopping Centre",
        "lat": 22.462548128576966,
        "long": 113.9964258670807
    },
    {
        "co": "GMB",
        "stop": 20015453,
        "name_tc": "深圳灣口岸",
        "name_sc": "深圳湾口岸",
        "name_en": "Shenzhen Bay Port",
        "lat": 22.501852387530874,
        "long": 113.94667625427248
    },
    {
        "co": "GMB",
        "stop": 20015477,
        "name_tc": "嘉龍路, 近新田軍營12座",
        "name_sc": "嘉龙路, 近新田军营12座",
        "name_en": "Ka Lung Road, near San Tin Barracks Block 12",
        "lat": 22.489312520699702,
        "long": 114.08087815115773
    },
    {
        "co": "GMB",
        "stop": 20015508,
        "name_tc": "惠風街, 近順利樓",
        "name_sc": "惠风街, 近顺利楼",
        "name_en": "Wai Fung Street, near Shun Lee Building",
        "lat": 22.24413139472573,
        "long": 114.15654301643373
    },
    {
        "co": "GMB",
        "stop": 20015511,
        "name_tc": "西安街, 近利港中心",
        "name_sc": "西安街, 近利港中心",
        "name_en": " Sai On Street, near Port Centre",
        "lat": 22.2488432847662,
        "long": 114.1551133990288
    },
    {
        "co": "GMB",
        "stop": 20015543,
        "name_tc": "公庵路, 近培康居",
        "name_sc": "公庵路, 近培康居",
        "name_en": "KUNG UM ROAD, near Pui Hong Kui",
        "lat": 22.413626310837966,
        "long": 114.01603820453718
    },
    {
        "co": "GMB",
        "stop": 20015550,
        "name_tc": "公庵路, 近振輝花園10座",
        "name_sc": "公庵路, 近振辉花园10座",
        "name_en": "Kung Um Road, near Chun Fai Garden Block 10",
        "lat": 22.429951888338568,
        "long": 114.02331215999526
    },
    {
        "co": "GMB",
        "stop": 20015554,
        "name_tc": "毓雅里, 仁濟醫院靚次伯紀念中學外",
        "name_sc": "毓雅里, 仁济医院靓次伯纪念中学外",
        "name_en": "Yuk Nga Lane, outside Yan Chai Hospital Lan Chi Pat Memorial Secondary School",
        "lat": 22.32432758992331,
        "long": 114.25445181763841
    },
    {
        "co": "GMB",
        "stop": 20015557,
        "name_tc": "裕民坊公共運輸交匯處",
        "name_sc": "裕民坊公共运输交汇处",
        "name_en": "Yue Man Square Public Transport Interchange",
        "lat": 22.314392642486943,
        "long": 114.22509165138766
    },
    {
        "co": "GMB",
        "stop": 20015587,
        "name_tc": "天水圍北(俊宏軒)小巴總站",
        "name_sc": "天水围北(俊宏轩)小巴总站",
        "name_en": "Tin Shiu Wai North (Grandeur Terrace) Minibus Terminus",
        "lat": 22.468417585805035,
        "long": 114.00097623467447
    },
    {
        "co": "GMB",
        "stop": 20015598,
        "name_tc": "落馬洲管制站",
        "name_sc": "落马洲管制站",
        "name_en": "Lok Ma Chau Control Point",
        "lat": 22.508146376561424,
        "long": 114.0748777985573
    },
    {
        "co": "GMB",
        "stop": 20015599,
        "name_tc": "調景嶺站公共運輸交匯處",
        "name_sc": "调景岭站公共运输交汇处",
        "name_en": "Tiu Keng Leng Station Public Transport Interchange",
        "lat": 22.305085994724383,
        "long": 114.25239012588183
    },
    {
        "co": "GMB",
        "stop": 20015606,
        "name_tc": "啟祥道, 香港輔助警察總部外",
        "name_sc": "启祥道, 香港辅助警察总部外",
        "name_en": "Kai Cheung Road outside Hong Kong Auxiliary Police Headquarters",
        "lat": 22.32549595312472,
        "long": 114.20745356871572
    },
    {
        "co": "GMB",
        "stop": 20015640,
        "name_tc": "沙田正街, 近偉華中心第２座",
        "name_sc": "沙田正街, 近伟华中心第２座",
        "name_en": "Sha Tin Centre Street, Near Wai Wah Centre Block 2",
        "lat": 22.380768782265736,
        "long": 114.18719662190912
    },
    {
        "co": "GMB",
        "stop": 20015656,
        "name_tc": "沙田正街, 近偉華中心第２座",
        "name_sc": "沙田正街, 近伟华中心第２座",
        "name_en": "Sha Tin Centre Street, Near Wai Wah Centre Block 2",
        "lat": 22.380766853329128,
        "long": 114.18717351865948
    },
    {
        "co": "GMB",
        "stop": 20015673,
        "name_tc": "耀沙路, 近雲海榕海臺第一座",
        "name_sc": "耀沙路, 近云海榕海台第一座",
        "name_en": "Yiu Sha Road, Near St. Barths Maple Court Tower 1",
        "lat": 22.43328649537051,
        "long": 114.24118006835904
    },
    {
        "co": "GMB",
        "stop": 20015706,
        "name_tc": "穗禾苑",
        "name_sc": "穗禾苑",
        "name_en": "Sui Wo Court",
        "lat": 22.39264085675188,
        "long": 114.19443860650064
    },
    {
        "co": "GMB",
        "stop": 20015710,
        "name_tc": "樂信徑, 駿景園外",
        "name_sc": "乐信径, 骏景园外",
        "name_en": "Lok Shun Path, outside Royal Ascot",
        "lat": 22.400340813051354,
        "long": 114.20121297000154
    },
    {
        "co": "GMB",
        "stop": 20015713,
        "name_tc": "愉翠苑愉欣閣",
        "name_sc": "愉翠苑愉欣阁",
        "name_en": "Yu Yan House, Yuet Chui Court",
        "lat": 22.382310212356494,
        "long": 114.20476645231248
    },
    {
        "co": "GMB",
        "stop": 20015714,
        "name_tc": "排頭街, 港鐵沙田站外",
        "name_sc": "排头街, 港铁沙田站外",
        "name_en": "Pai Tau Street, outside Shatin Station",
        "lat": 22.38432158205235,
        "long": 114.18796304802729
    },
    {
        "co": "GMB",
        "stop": 20015726,
        "name_tc": "顯泰街, 近瑞峰花園",
        "name_sc": "显泰街, 近瑞峰花园",
        "name_en": "Hin Tai Street, near Julimount Garden",
        "lat": 22.36220016617489,
        "long": 114.17590787395196
    },
    {
        "co": "GMB",
        "stop": 20015741,
        "name_tc": "車公廟路, 近顯徑站",
        "name_sc": "车公庙路, 近显径站",
        "name_en": "Che Kung Miu Road, near Hin Keng Station",
        "lat": 22.363917121655582,
        "long": 114.17175064676097
    },
    {
        "co": "GMB",
        "stop": 20015742,
        "name_tc": "穗禾路, 近沙田渣甸山花園",
        "name_sc": "穗禾路, 近沙田渣甸山花园",
        "name_en": "Sui Wo Road, Ville de Jardin",
        "lat": 22.390715156834215,
        "long": 114.1879503428936
    },
    {
        "co": "GMB",
        "stop": 20015748,
        "name_tc": "碧濤花園",
        "name_sc": "碧涛花园",
        "name_en": "Pictorial Garden",
        "lat": 22.39631362451505,
        "long": 114.20988008379939
    },
    {
        "co": "GMB",
        "stop": 20015761,
        "name_tc": "荔崗街, 近浩景臺第四座",
        "name_sc": "荔岗街, 近浩景台第四座",
        "name_en": "Lai Kong Street, near Highland Park Block 4",
        "lat": 22.349293260875864,
        "long": 114.13050327871804
    },
    {
        "co": "GMB",
        "stop": 20015764,
        "name_tc": "鳳翔路, 近鳳庭苑華庭閣",
        "name_sc": "凤翔路, 近凤庭苑华庭阁",
        "name_en": "Fung Cheung Road, Near Wah Ting Court, Fung Ting Court",
        "lat": 22.442937621369868,
        "long": 114.03247444390335
    },
    {
        "co": "GMB",
        "stop": 20015765,
        "name_tc": "華員徑, 近華員邨華信閣",
        "name_sc": "华员径, 近华员村华信阁",
        "name_en": "Wah Yuen Drive, near Wah Shun Court, Wah Yuen Chuen",
        "lat": 22.35035770137786,
        "long": 114.13560591681787
    },
    {
        "co": "GMB",
        "stop": 20015772,
        "name_tc": "耀安邨巴士總站",
        "name_sc": "耀安邨巴士总站",
        "name_en": "Yiu On Estate Bus Terminus",
        "lat": 22.419401976051258,
        "long": 114.22990277409555
    },
    {
        "co": "GMB",
        "stop": 20015805,
        "name_tc": "瑪麗醫院",
        "name_sc": "玛丽医院",
        "name_en": "Queen Mary Hospital",
        "lat": 22.270299100188044,
        "long": 114.13091585459087
    },
    {
        "co": "GMB",
        "stop": 20015806,
        "name_tc": "瑪麗醫院",
        "name_sc": "玛丽医院",
        "name_en": "Queen Mary Hospital",
        "lat": 22.270426662732515,
        "long": 114.1309698020064
    },
    {
        "co": "GMB",
        "stop": 20015838,
        "name_tc": "科技大道西1號外(總站)",
        "name_sc": "科技大道西1号外(总站)",
        "name_en": "Near 1 Science Park West Avenue",
        "lat": 22.425007965924106,
        "long": 114.21200305223466
    },
    {
        "co": "GMB",
        "stop": 20015839,
        "name_tc": "沙田中, 排頭街, 港鐵沙田站外",
        "name_sc": "沙田中, 排头街, 港铁沙田站外",
        "name_en": "Pai Tau Street, outside Sha Tin Station",
        "lat": 22.384394755384488,
        "long": 114.18840765953065
    },
    {
        "co": "GMB",
        "stop": 20015841,
        "name_tc": "白石角(科城路)公共運輸交匯處",
        "name_sc": "白石角(科城路)公共运输交汇处",
        "name_en": "Pak Shek Kok (Fo Shing Road) Public Transport Interchange",
        "lat": 22.43126081981788,
        "long": 114.20217812061311
    },
    {
        "co": "GMB",
        "stop": 20015879,
        "name_tc": "沙田中,排頭街, 港鐵沙田站外",
        "name_sc": "沙田中,排头街, 港铁沙田站外",
        "name_en": "Pai Tau Street, outside Sha Tin Station",
        "lat": 22.384156665196844,
        "long": 114.18816626071931
    },
    {
        "co": "GMB",
        "stop": 20015937,
        "name_tc": "河背街, 近天佑小學",
        "name_sc": "河背街, 近天佑小学",
        "name_en": "Ho Pui Street, near Mary Of Providence Primary School",
        "lat": 22.36834465407321,
        "long": 114.11613634614083
    },
    {
        "co": "GMB",
        "stop": 20015941,
        "name_tc": "石頭街, 近大窩口邨富泰樓",
        "name_sc": "石头街, 近大窝口邨富泰楼",
        "name_en": "Shek Tau Street, Near Fu Tai House, Tai Wo Hau Estate",
        "lat": 22.36577408095625,
        "long": 114.12319696665685
    },
    {
        "co": "GMB",
        "stop": 20015970,
        "name_tc": "葵興政府合署",
        "name_sc": "葵兴政府合署",
        "name_en": "Kwai Hing Government Offices",
        "lat": 22.36305390778044,
        "long": 114.13146221223928
    },
    {
        "co": "GMB",
        "stop": 20015971,
        "name_tc": "海貴路公共運輸交匯處小巴總站",
        "name_sc": "海贵路公共运输交汇处小巴总站",
        "name_en": "Hoi Kwai Road Public Transport Interchange Minibus Terminus",
        "lat": 22.368276433814845,
        "long": 114.11070082289629
    },
    {
        "co": "GMB",
        "stop": 20015978,
        "name_tc": "葵盛(葵孝街)小巴總站",
        "name_sc": "葵盛(葵孝街)小巴总站",
        "name_en": "Kwai Shing (Kwai Hau Street) Minibus Terminus",
        "lat": 22.36280687937787,
        "long": 114.12486476547062
    },
    {
        "co": "GMB",
        "stop": 20015985,
        "name_tc": "興寧路, 近新都會廣場",
        "name_sc": "兴宁路, 近新都会广场",
        "name_en": "Hing Ning Road, Near Metroplaza",
        "lat": 22.356815188852988,
        "long": 114.1272792069342
    },
    {
        "co": "GMB",
        "stop": 20015988,
        "name_tc": "荃灣(川龍街)",
        "name_sc": "荃湾(川龙街)",
        "name_en": "Tsuen Wan (Chuen Lung Street)",
        "lat": 22.37218714801429,
        "long": 114.1170381009579
    },
    {
        "co": "GMB",
        "stop": 20015990,
        "name_tc": "川龍",
        "name_sc": "川龙",
        "name_en": "Chuen Lung",
        "lat": 22.39509103264862,
        "long": 114.10805940628053
    },
    {
        "co": "GMB",
        "stop": 20015991,
        "name_tc": "銀竹里, 近竹園南邨秀園樓",
        "name_sc": "银竹里, 近竹园南村秀园楼",
        "name_en": "Ngan Chuk Lane, Near Sau Yuen House, Chuk Yuen (South) Estate",
        "lat": 22.344284854980135,
        "long": 114.19188266354331
    },
    {
        "co": "GMB",
        "stop": 20015994,
        "name_tc": "橫頭磡南道, 近樂富邨宏順樓",
        "name_sc": "横头磡南道, 近乐富村宏顺楼",
        "name_en": "Wang Tau Hom South Road, Near Wang Shun House, Lok Fu Estate",
        "lat": 22.338603097752816,
        "long": 114.18647090178119
    },
    {
        "co": "GMB",
        "stop": 20015998,
        "name_tc": "荃灣中心",
        "name_sc": "荃湾中心",
        "name_en": "Tsuen Wan Centre",
        "lat": 22.379005385013997,
        "long": 114.10787165164949
    },
    {
        "co": "GMB",
        "stop": 20016004,
        "name_tc": "荃灣(海壩街)",
        "name_sc": "荃湾(海坝街)",
        "name_en": "Tsuen Wan (Hoi Pa Street)",
        "lat": 22.371047265349034,
        "long": 114.1171482083503
    },
    {
        "co": "GMB",
        "stop": 20016006,
        "name_tc": "青龍頭(龍如路)",
        "name_sc": "青龙头(龙如路)",
        "name_en": "Tsing Lung Tau (Lung Yue Road)",
        "lat": 22.36283511921983,
        "long": 114.04581074457445
    },
    {
        "co": "GMB",
        "stop": 20016007,
        "name_tc": "荃灣站",
        "name_sc": "荃湾站",
        "name_en": "Tsuen Wan Station",
        "lat": 22.374171391129742,
        "long": 114.11639973521233
    },
    {
        "co": "GMB",
        "stop": 20016010,
        "name_tc": "荃德花園",
        "name_sc": "荃德花园",
        "name_en": "Tsuen Tak Gardens",
        "lat": 22.37580713027699,
        "long": 114.10613492131235
    },
    {
        "co": "GMB",
        "stop": 20016036,
        "name_tc": "東區尤德夫人那打素醫院, 主座大樓外",
        "name_sc": "东区尤德夫人那打素医院, 主座大楼外",
        "name_en": "Pamela Youde Nethersole Eastern Hospital, outside Main Block",
        "lat": 22.269094166010063,
        "long": 114.23660293221475
    },
    {
        "co": "GMB",
        "stop": 20016051,
        "name_tc": "堡壘街, 近長康街",
        "name_sc": "堡垒街, 近长康街",
        "name_en": "Fort Street, near Cheung Hong Street",
        "lat": 22.289527010271247,
        "long": 114.19598892331125
    },
    {
        "co": "GMB",
        "stop": 20016071,
        "name_tc": "荃灣站",
        "name_sc": "荃湾站",
        "name_en": "Tsuen Wan Station",
        "lat": 22.37259888078643,
        "long": 114.118949174881
    },
    {
        "co": "GMB",
        "stop": 20016074,
        "name_tc": "油柑頭村",
        "name_sc": "油柑头村",
        "name_en": "Yau Kom Tau Village",
        "lat": 22.372293801801046,
        "long": 114.0968504548073
    },
    {
        "co": "GMB",
        "stop": 20016077,
        "name_tc": "麗城花園",
        "name_sc": "丽城花园",
        "name_en": "Belvedere Garden",
        "lat": 22.370736152332135,
        "long": 114.1009944677353
    },
    {
        "co": "GMB",
        "stop": 20016081,
        "name_tc": "康民街",
        "name_sc": "康民街",
        "name_en": "Hong Man Street",
        "lat": 22.2664221011923,
        "long": 114.23505127429964
    },
    {
        "co": "GMB",
        "stop": 20016103,
        "name_tc": "北角渡輪碼頭公共運輸交匯處",
        "name_sc": "北角渡轮码头公共运输交汇处",
        "name_en": "North Point Ferry Pier Public Transport Interchange",
        "lat": 22.293322859351214,
        "long": 114.20193940401079
    },
    {
        "co": "GMB",
        "stop": 20016267,
        "name_tc": "博物館道，近西九文化區藝術公園 ",
        "name_sc": "博物馆道，近西九文化区艺术公园",
        "name_en": "Museum Drive, near Art Park in West Kowloon Cultural District",
        "lat": 22.300925237865254,
        "long": 114.15733084435831
    },
    {
        "co": "GMB",
        "stop": 20016372,
        "name_tc": "白石角公共運輸交匯處",
        "name_sc": "白石角公共运输交汇处",
        "name_en": "Pak Shek Kok Public Transport Terminus",
        "lat": 22.43183542676466,
        "long": 114.20170864287802
    },
    {
        "co": "GMB",
        "stop": 20016399,
        "name_tc": "寶達公共運輸交匯處",
        "name_sc": "宝达公共运输交汇处",
        "name_en": "Po Tat Estate Public Transport Interchange",
        "lat": 22.317526666918106,
        "long": 114.2360577039349
    },
    {
        "co": "GMB",
        "stop": 20016400,
        "name_tc": "鯉魚門道藍田公共運輸交匯處外",
        "name_sc": "鲤鱼门道蓝田公共运输交汇处外",
        "name_en": "Lei Yue Mun Road outside Lam Tin Public Transport Interchange",
        "lat": 22.30678802425091,
        "long": 114.23357838507904
    },
    {
        "co": "GMB",
        "stop": 20016402,
        "name_tc": "秀豐街, 近秀茂坪邨秀緻樓",
        "name_sc": "秀丰街, 近秀茂坪村秀致楼",
        "name_en": "Sau Fung Street, near Sau Chi House, Sau Mau Ping Estate",
        "lat": 22.31755836306029,
        "long": 114.23481146849893
    },
    {
        "co": "GMB",
        "stop": 20016432,
        "name_tc": "雲漢街, 近南寧大樓",
        "name_sc": "云汉街, 近南宁大楼",
        "name_en": "Wan Hon Street, Near Nam Ning Mansion",
        "lat": 22.317379713383954,
        "long": 114.22531834085412
    },
    {
        "co": "GMB",
        "stop": 20016438,
        "name_tc": "茜發道, 近藍田站",
        "name_sc": "茜发道, 近蓝田站",
        "name_en": "Sin Fat Road, Near Lam Tin Station",
        "lat": 22.3072346935521,
        "long": 114.23116893815427
    },
    {
        "co": "GMB",
        "stop": 20016445,
        "name_tc": "元朗泰衡街, 近大興大廈Ｂ座",
        "name_sc": "元朗泰衡街, 近大兴大厦Ｂ座",
        "name_en": "Yuen Long Tai Hang Street, Near Tai Hang Building Block B",
        "lat": 22.446302518589988,
        "long": 114.03009123862401
    },
    {
        "co": "GMB",
        "stop": 20016447,
        "name_tc": "石湖塘(河背)小巴總站",
        "name_sc": "石湖塘(河背)小巴总站",
        "name_en": "Shek Wu Tong (Ho Pui) Minibus Terminus",
        "lat": 22.41355487409207,
        "long": 114.06790914579466
    },
    {
        "co": "GMB",
        "stop": 20016468,
        "name_tc": "錦莆路, 近長莆村村公所",
        "name_sc": "锦莆路, 近长莆村村公所",
        "name_en": "Kam Po Road, near Cheung Po Tsuen Village Office",
        "lat": 22.418536067098486,
        "long": 114.07184812380677
    },
    {
        "co": "GMB",
        "stop": 20016495,
        "name_tc": "荃錦公路,近石崗村53座",
        "name_sc": "荃锦公路,近石岗村53座",
        "name_en": "Route Twisk, Near Shek Kong Village Block 53",
        "lat": 22.427085229910343,
        "long": 114.10837659208899
    },
    {
        "co": "GMB",
        "stop": 20016499,
        "name_tc": "油塘公共運輸交匯處",
        "name_sc": "油塘公共运输交汇处",
        "name_en": "Yau Tong Public Transport Interchange",
        "lat": 22.29577498458871,
        "long": 114.23860200572588
    },
    {
        "co": "GMB",
        "stop": 20016533,
        "name_tc": "碧雲道, 近碧雲道休憩處",
        "name_sc": "碧云道, 近碧云道休憩处",
        "name_en": "Pik Wan Road, Near Pik Wan Road Sitting - Out Area",
        "lat": 22.31091375551142,
        "long": 114.23842073263425
    },
    {
        "co": "GMB",
        "stop": 20016630,
        "name_tc": "鯉魚門邨公共運輸交匯處",
        "name_sc": "鲤鱼门邨公共运输交汇处",
        "name_en": "Lei Yue Mun Estate Public Transport Interchange",
        "lat": 22.294731366882953,
        "long": 114.23941045333206
    },
    {
        "co": "GMB",
        "stop": 20016668,
        "name_tc": "元朗(崇山新村)",
        "name_sc": "元朗(崇山新村)",
        "name_en": "Yuen Long (Sung Shan San Tsuen)",
        "lat": 22.42396478117015,
        "long": 114.04729505850635
    },
    {
        "co": "GMB",
        "stop": 20016675,
        "name_tc": "福順街, 近盛屋村廣陵堂",
        "name_sc": "福顺街, 近盛屋村广陵堂",
        "name_en": "Fuk Shun Street, Near 廣陵堂, Shing Uk Tsuen",
        "lat": 22.46387189222349,
        "long": 114.01837301813107
    },
    {
        "co": "GMB",
        "stop": 20016679,
        "name_tc": "橫洲東頭圍　蔡福善堂",
        "name_sc": "横洲东头围　蔡福善堂",
        "name_en": "蔡福善堂, Wang Chau Tung Tau Wai",
        "lat": 22.45385646396649,
        "long": 114.02802649283431
    },
    {
        "co": "GMB",
        "stop": 20016696,
        "name_tc": "荃灣(川龍街)",
        "name_sc": "荃湾(川龙街)",
        "name_en": "Tsuen Wan (Chuen Lung Street)",
        "lat": 22.369890200177373,
        "long": 114.11563044410792
    },
    {
        "co": "GMB",
        "stop": 20016703,
        "name_tc": "安蔭邨(安捷街)",
        "name_sc": "安荫邨(安捷街)",
        "name_en": "On Yam Estate (On Chit Street)",
        "lat": 22.373003203908198,
        "long": 114.14183260438317
    },
    {
        "co": "GMB",
        "stop": 20016704,
        "name_tc": "油塘 (油麗邨) 小巴總站",
        "name_sc": "油塘 (油丽村) 小巴总站",
        "name_en": "Yau Tong (Yau Lai Estate) Minibus Terminus",
        "lat": 22.299241646788072,
        "long": 114.23609465360644
    },
    {
        "co": "GMB",
        "stop": 20016711,
        "name_tc": "荃灣(兆和街)",
        "name_sc": "荃湾(兆和街)",
        "name_en": "Tsuen Wan (Shiu Wo Street)",
        "lat": 22.372293511572504,
        "long": 114.11724966753835
    },
    {
        "co": "GMB",
        "stop": 20016713,
        "name_tc": "芙蓉山(竹林禪院)",
        "name_sc": "芙蓉山(竹林禅院)",
        "name_en": "Fu Yung Shan (Chuk Lam Sim Yuen)",
        "lat": 22.37874274031701,
        "long": 114.12281327233632
    },
    {
        "co": "GMB",
        "stop": 20016724,
        "name_tc": "石籬(梨貝街)",
        "name_sc": "石篱(梨贝街)",
        "name_en": "Shek Lei (Lei Pui Street)",
        "lat": 22.362634701506096,
        "long": 114.13821142172256
    },
    {
        "co": "GMB",
        "stop": 20016725,
        "name_tc": "荃灣(川龍街)",
        "name_sc": "荃湾(川龙街)",
        "name_en": "Tsuen Wan (Chuen Lung Street)",
        "lat": 22.36973019136425,
        "long": 114.11549820595309
    },
    {
        "co": "GMB",
        "stop": 20016740,
        "name_tc": "山貝路, 近山貝洪田村",
        "name_sc": "山贝路, 近山贝洪田村",
        "name_en": "Shan Pui Road, Near Shan Pui Hung Tin Tsuen",
        "lat": 22.45227472424094,
        "long": 114.03540033659375
    },
    {
        "co": "GMB",
        "stop": 20016743,
        "name_tc": "山貝路, 近山貝洪田村",
        "name_sc": "山贝路, 近山贝洪田村",
        "name_en": "Shan Pui Road, Near Shan Pui Hung Tin Tsuen",
        "lat": 22.45227472424094,
        "long": 114.03540033659375
    },
    {
        "co": "GMB",
        "stop": 20016744,
        "name_tc": "山貝路近同心村",
        "name_sc": "山貝路近同心村",
        "name_en": "Shan Pui Road Near United Court",
        "lat": 22.452191949755473,
        "long": 114.0325024453668
    },
    {
        "co": "GMB",
        "stop": 20016745,
        "name_tc": "担杆山路, 近香港船廠有限公司",
        "name_sc": "担杆山路, 近香港船厂有限公司",
        "name_en": "Tam Kon Shan Road, Near The Hong Kong Shipyard Ltd",
        "lat": 22.3611542405251,
        "long": 114.08994376659395
    },
    {
        "co": "GMB",
        "stop": 20016746,
        "name_tc": "港鐵青衣站小巴總站",
        "name_sc": "港铁青衣站小巴总站",
        "name_en": "Tsing Yi MTR Station Minibus Terminus",
        "lat": 22.359886690001595,
        "long": 114.10662174224855
    },
    {
        "co": "GMB",
        "stop": 20016756,
        "name_tc": "鈞樂里, 近尚豪庭One Regent Place House 1",
        "name_sc": "钧乐里, 近尚豪庭One Regent Place House 1",
        "name_en": "Kwan Lok Lane, Near One Regent Place House 1",
        "lat": 22.449254162751213,
        "long": 114.03216822487065
    },
    {
        "co": "GMB",
        "stop": 20016758,
        "name_tc": "德業街, 近東頭工業區寶威大廈",
        "name_sc": "德业街, 近东头工业区宝威大厦",
        "name_en": "Tak Yip Street, Near Po Wai Building, Tung Tau Industrial Area",
        "lat": 22.451880978354808,
        "long": 114.0300448756142
    },
    {
        "co": "GMB",
        "stop": 20016768,
        "name_tc": "藍澄灣第三座",
        "name_sc": "蓝澄湾第三座",
        "name_en": "Rambler Crest Tower 3",
        "lat": 22.342978298727736,
        "long": 114.10991281270982
    },
    {
        "co": "GMB",
        "stop": 20016797,
        "name_tc": "新葵芳花園",
        "name_sc": "新葵芳花园",
        "name_en": "New Kwai Fong Gardens",
        "lat": 22.355964899967695,
        "long": 114.12754833698274
    },
    {
        "co": "GMB",
        "stop": 20016798,
        "name_tc": "長青巴士總站",
        "name_sc": "长青巴士总站",
        "name_en": "Cheung Ching Bus Terminus",
        "lat": 22.348525350392567,
        "long": 114.10666197538377
    },
    {
        "co": "GMB",
        "stop": 20016800,
        "name_tc": "香港聯合船塢小巴總站",
        "name_sc": "香港联合船坞小巴总站",
        "name_en": "Hong Kong United Dockyard Minibus Terminus",
        "lat": 22.35143523151775,
        "long": 114.08463835716249
    },
    {
        "co": "GMB",
        "stop": 20016813,
        "name_tc": "大生圍村公所小巴總站",
        "name_sc": "大生围村公所小巴总站",
        "name_en": "Tai Sang Wai Village Office Minibus Terminus",
        "lat": 22.470987612096767,
        "long": 114.04415695051857
    },
    {
        "co": "GMB",
        "stop": 20016826,
        "name_tc": "葵仁路, 近葵芳站",
        "name_sc": "葵仁路, 近葵芳站",
        "name_en": "Kwai Yan Road, Near Kwai Fong Station",
        "lat": 22.357466901542985,
        "long": 114.12805393338205
    },
    {
        "co": "GMB",
        "stop": 20016827,
        "name_tc": "葵仁路, 近葵芳站",
        "name_sc": "葵仁路, 近葵芳站",
        "name_en": "Kwai Yan Road, Near Kwai Fong Station",
        "lat": 22.356493269007366,
        "long": 114.12729620933534
    },
    {
        "co": "GMB",
        "stop": 20016828,
        "name_tc": "美景花園小巴總站",
        "name_sc": "美景花园小巴总站",
        "name_en": "Mayfair Gardens Minibus Terminus",
        "lat": 22.343943342808203,
        "long": 114.10694360733034
    },
    {
        "co": "GMB",
        "stop": 20016838,
        "name_tc": "牛潭尾路, 近攸潭尾村公所",
        "name_sc": "牛潭尾路, 近攸潭尾村公所",
        "name_en": "Ngau Tam Mei Road, Near Ngau Tam Mei Village Office",
        "lat": 22.477234475182293,
        "long": 114.07186685268941
    },
    {
        "co": "GMB",
        "stop": 20016849,
        "name_tc": "亨美街, 近長亨邨聖公會何澤芸小學",
        "name_sc": "亨美街, 近长亨村圣公会何泽芸小学",
        "name_en": "Hang Mei Street, Near S.K.H. Ho Chak Wan Primary School, Cheung Hang Estate",
        "lat": 22.35746937981912,
        "long": 114.09683773412272
    },
    {
        "co": "GMB",
        "stop": 20016862,
        "name_tc": "竹攸路, 近香港政府環境保護署牛潭尾堆肥廠",
        "name_sc": "竹攸路, 近香港政府环境保护署牛潭尾堆肥厂",
        "name_en": "Chuk Yau Road, Near 香港政府環境保護署牛潭尾堆肥廠",
        "lat": 22.47268612878474,
        "long": 114.06669009951061
    },
    {
        "co": "GMB",
        "stop": 20016863,
        "name_tc": "未命名通道, 近爾巒",
        "name_sc": "未命名通道, 近尔峦",
        "name_en": "Unnamed Access Road, Near Riva",
        "lat": 22.442262394567138,
        "long": 114.05476186613669
    },
    {
        "co": "GMB",
        "stop": 20016868,
        "name_tc": "錦田(北圍村)小巴總站",
        "name_sc": "锦田(北围村)小巴总站",
        "name_en": "Kam Tin (Pak Wai Tsuen) Minibus Terminus",
        "lat": 22.448550155347,
        "long": 114.06142383813861
    },
    {
        "co": "GMB",
        "stop": 20016894,
        "name_tc": "錦上路站公共運輸交匯處",
        "name_sc": "锦上路站公共运输交汇处",
        "name_en": "Kam Sheung Road Station Public Transport Interchange",
        "lat": 22.43463474656554,
        "long": 114.06491405703265
    },
    {
        "co": "GMB",
        "stop": 20016896,
        "name_tc": "江大路, 近入建花園第三期Ａ座",
        "name_sc": "江大路, 近入建花园第三期Ａ座",
        "name_en": "Kong Tai Road, Near In Keen Garden Phase Iii Block A",
        "lat": 22.44797007779323,
        "long": 114.07647639513017
    },
    {
        "co": "GMB",
        "stop": 20016899,
        "name_tc": "裕民坊公共運輸交匯處",
        "name_sc": "裕民坊公共运输交汇处",
        "name_en": "Yue Man Square Public Transport Interchange",
        "lat": 22.314392642486943,
        "long": 114.22509165138766
    },
    {
        "co": "GMB",
        "stop": 20016900,
        "name_tc": "裕民坊公共運輸交匯處",
        "name_sc": "裕民坊公共运输交汇处",
        "name_en": "Yue Man Square Public Transport Interchange",
        "lat": 22.314392642486943,
        "long": 114.22509165138766
    },
    {
        "co": "GMB",
        "stop": 20016902,
        "name_tc": "逢吉鄉路, 近妙覺園",
        "name_sc": "逢吉乡路, 近妙觉园",
        "name_en": "Fung Kat Heung Road, Near 妙覺園",
        "lat": 22.456430541181195,
        "long": 114.0623250603676
    },
    {
        "co": "GMB",
        "stop": 20016905,
        "name_tc": "山下村小巴總站",
        "name_sc": "山下村小巴总站",
        "name_en": "Shan Ha Tsuen Minibus Terminus",
        "lat": 22.432312025328727,
        "long": 114.01693403720857
    },
    {
        "co": "GMB",
        "stop": 20016908,
        "name_tc": "麒麟村小巴總站",
        "name_sc": "麒麟村小巴总站",
        "name_en": "Ki Lun Tsuen Minibus Terminus",
        "lat": 22.49483202171816,
        "long": 114.09848660230638
    },
    {
        "co": "GMB",
        "stop": 20016915,
        "name_tc": "峻巒交通總匯",
        "name_sc": "峻峦交通总汇",
        "name_en": "Park YOHO Transport Interchange",
        "lat": 22.451522394998978,
        "long": 114.05197173357013
    },
    {
        "co": "GMB",
        "stop": 20016921,
        "name_tc": "麼地道, 近麼地道花園",
        "name_sc": "么地道, 近么地道花园",
        "name_en": "Mody Road, Near Mody Road Garden",
        "lat": 22.298705615987025,
        "long": 114.1786015033722
    },
    {
        "co": "GMB",
        "stop": 20016928,
        "name_tc": "茶果嶺道, 近天后宮",
        "name_sc": "茶果岭道, 近天后宫",
        "name_en": "Cha Kwo Ling Road, Near Tin Hau Temple",
        "lat": 22.29948872485785,
        "long": 114.22923082203012
    },
    {
        "co": "GMB",
        "stop": 20016960,
        "name_tc": "基督教聯合醫院小巴總站",
        "name_sc": "基督教联合医院小巴总站",
        "name_en": "United Christian Hospital Minibus Terminus",
        "lat": 22.322953987748427,
        "long": 114.22782540321352
    },
    {
        "co": "GMB",
        "stop": 20016961,
        "name_tc": "安華街, 近牛頭角街市",
        "name_sc": "安华街, 近牛头角街市",
        "name_en": "On Wah Street, near Ngau Tau Kok Market",
        "lat": 22.321487011410824,
        "long": 114.21659120902187
    },
    {
        "co": "GMB",
        "stop": 20016975,
        "name_tc": "彩榮路, 近彩福邨彩歡樓",
        "name_sc": "彩荣路, 近彩福邨彩欢楼",
        "name_en": "Choi Wing Road, near Choi Foon House, Choi Fook Estate",
        "lat": 22.327264989457134,
        "long": 114.21796888717644
    },
    {
        "co": "GMB",
        "stop": 20016993,
        "name_tc": "明愛醫院小巴總站",
        "name_sc": "明爱医院小巴总站",
        "name_en": "Caritas Medical Centre Minibus Terminus",
        "lat": 22.34105962807356,
        "long": 114.15329321295083
    },
    {
        "co": "GMB",
        "stop": 20017002,
        "name_tc": "汝州街, 近信邦大廈",
        "name_sc": "汝州街, 近信邦大厦",
        "name_en": "Yu Chau Street, Near Shun Pong Building",
        "lat": 22.329989771874725,
        "long": 114.16129547388618
    },
    {
        "co": "GMB",
        "stop": 20017026,
        "name_tc": "良景邨 良景廣場",
        "name_sc": "良景村 良景广场",
        "name_en": "Leung King Plaza, Leung King Estate",
        "lat": 22.40666554597357,
        "long": 113.96388664841653
    },
    {
        "co": "GMB",
        "stop": 20017029,
        "name_tc": "弼街, 近旺角機樓",
        "name_sc": "弼街, 近旺角机楼",
        "name_en": "Bute Street, Near Mongkok Exchange",
        "lat": 22.32201112936031,
        "long": 114.16840374469759
    },
    {
        "co": "GMB",
        "stop": 20017055,
        "name_tc": "湖翠路, 近湖景邨湖畔樓",
        "name_sc": "湖翠路, 近湖景村湖畔楼",
        "name_en": "Wu Chui Road, Near Wu Boon House, Wu King Estate",
        "lat": 22.373439704773,
        "long": 113.96496891975404
    },
    {
        "co": "GMB",
        "stop": 20017067,
        "name_tc": "奧運站公共運輸交匯處",
        "name_sc": "奥运站公共运输交汇处",
        "name_en": "Olympic Station Public Transport Interchange",
        "lat": 22.31864709534087,
        "long": 114.16057188610904
    },
    {
        "co": "GMB",
        "stop": 20017224,
        "name_tc": "宜春街, 近西貢街市",
        "name_sc": "宜春街, 近西贡街市",
        "name_en": "Yi Chun Street, near Sai Kung Market",
        "lat": 22.380530699694948,
        "long": 114.27165403962137
    },
    {
        "co": "GMB",
        "stop": 20017226,
        "name_tc": "南山新村路, 近南山村公所",
        "name_sc": "南山新村路, 近南山村公所",
        "name_en": "Nam Shan San Tsuen Road, Near 南山村公所",
        "lat": 22.38861954839132,
        "long": 114.26440939307216
    },
    {
        "co": "GMB",
        "stop": 20017227,
        "name_tc": "北港㘭路, 近紅花村",
        "name_sc": "北港㘭路, 近红花村",
        "name_en": "Pak Kong Au Road, near Hung Fa Tsuen",
        "lat": 22.382705794309047,
        "long": 114.26450461149217
    },
    {
        "co": "GMB",
        "stop": 20017228,
        "name_tc": "康健路, 近明順村２０１號",
        "name_sc": "康健路, 近明顺村２０１号",
        "name_en": "Hong Kin Road, Near Ming Shun Village 201",
        "lat": 22.375624831263227,
        "long": 114.27145421504974
    },
    {
        "co": "GMB",
        "stop": 20017229,
        "name_tc": "康健路, 近泰湖閣",
        "name_sc": "康健路, 近泰湖阁",
        "name_en": "Hong Kin Road, near Lake Court",
        "lat": 22.376815351122456,
        "long": 114.27350878715517
    },
    {
        "co": "GMB",
        "stop": 20017290,
        "name_tc": "裕民坊公共運輸交匯處",
        "name_sc": "裕民坊公共运输交汇处",
        "name_en": "Yue Man Square Public Transport Interchange",
        "lat": 22.31427055230505,
        "long": 114.22458586916267
    },
    {
        "co": "GMB",
        "stop": 20017328,
        "name_tc": "源禾路, 近沙田大會堂",
        "name_sc": "源禾路, 近沙田大会堂",
        "name_en": "Yuen Wo Road, Near Sha Tin Town Hall",
        "lat": 22.381640572632005,
        "long": 114.19088199734689
    },
    {
        "co": "GMB",
        "stop": 20017331,
        "name_tc": "安明街, 近碩門邨健碩樓",
        "name_sc": "安明街, 近硕门邨健硕楼",
        "name_en": "On Ming Street, Near Kin Shek House, Shek Mun Estate",
        "lat": 22.387373068459887,
        "long": 114.20874927571731
    },
    {
        "co": "GMB",
        "stop": 20017339,
        "name_tc": "亞公角山路, 近鄰舍輔導會怡欣山莊",
        "name_sc": "亚公角山路, 近邻舍辅导会怡欣山庄",
        "name_en": "A Kung Kok Shan Road, Near The Neighbourhood Advice-Action Council Harmony Manor",
        "lat": 22.395140630905157,
        "long": 114.21854227781299
    },
    {
        "co": "GMB",
        "stop": 20017389,
        "name_tc": "新發街小巴總站",
        "name_sc": "新发街小巴总站",
        "name_en": "San Fat Street MiniBus Terminus ",
        "lat": 22.50317974031878,
        "long": 114.12724264001508
    },
    {
        "co": "GMB",
        "stop": 20017395,
        "name_tc": "插桅杆街, 近威爾斯親王醫院急症室",
        "name_sc": "插桅杆街, 近威尔斯亲王医院急症室",
        "name_en": "Chap Wai Kon Street, Near Prince of Wales Hospital A&E",
        "lat": 22.38118192950187,
        "long": 114.20206120252607
    },
    {
        "co": "GMB",
        "stop": 20017396,
        "name_tc": "牛皮沙街小巴總站",
        "name_sc": "牛皮沙街小巴总站",
        "name_en": "Ngau Pei Sha Street Minibus Terminus ",
        "lat": 22.381687052090435,
        "long": 114.20626023044407
    },
    {
        "co": "GMB",
        "stop": 20017554,
        "name_tc": "荃灣西站公共運輸交匯處",
        "name_sc": "荃湾西站公共运输交汇处",
        "name_en": "Tsuen Wan West Station Public Transport Interchange",
        "lat": 22.368790937225096,
        "long": 114.10964440476523
    },
    {
        "co": "GMB",
        "stop": 20017687,
        "name_tc": "錦上路站公共運輸交匯處",
        "name_sc": "锦上路站公共运输交汇处",
        "name_en": "Kam Sheung Road Station Public Transport Interchange",
        "lat": 22.434312548300294,
        "long": 114.06465515554281
    },
    {
        "co": "GMB",
        "stop": 20017688,
        "name_tc": "錦上路站公共運輸交匯處\t",
        "name_sc": "锦上路站公共运输交汇处",
        "name_en": "Kam Sheung Road Station Public Transport Interchange\t",
        "lat": 22.434526505796423,
        "long": 114.06467695478554
    },
    {
        "co": "GMB",
        "stop": 20017719,
        "name_tc": "落馬洲(新田)公共運輸交匯處",
        "name_sc": "落马洲(新田)公共运输交汇处",
        "name_en": "Lok Ma Chau (San Tin) Public Transport Interchange",
        "lat": 22.502581839964314,
        "long": 114.0819588447902
    },
    {
        "co": "GMB",
        "stop": 20017720,
        "name_tc": "八鄉路,(近大欖隧道轉車站)小巴總站",
        "name_sc": "八乡路,(近大榄隧道转车站)小巴总站",
        "name_en": "Pat Heung Road, (near Tai Lam Bus-Bus Interchange) Minibus Terminus",
        "lat": 22.420462335665945,
        "long": 114.0625929293598
    },
    {
        "co": "GMB",
        "stop": 20017851,
        "name_tc": "香園圍邊境管制站小巴總站",
        "name_sc": "香园围边境管制站小巴总站",
        "name_en": "Heung Yuen Wai Boundary Control Point Minibus Terminus",
        "lat": 22.552358999025376,
        "long": 114.1541300707745
    },
    {
        "co": "GMB",
        "stop": 20017917,
        "name_tc": "承昌道, 近香港兒童醫院教學及科研大樓（B座）",
        "name_sc": "承昌道, 近香港儿童医院教学及科研大楼（B座）",
        "name_en": "Shing Cheong Road, Near Training & Research Tower (Tower B), Hong Kong Children's Hospital",
        "lat": 22.31580534595704,
        "long": 114.20945512440734
    },
    {
        "co": "GMB",
        "stop": 20017984,
        "name_tc": "上水鄉小巴總站",
        "name_sc": "上水乡小巴总站",
        "name_en": "Sheung Shui Heung Public Light Bus Terminus",
        "lat": 22.51307358473284,
        "long": 114.12400513887407
    },
    {
        "co": "GMB",
        "stop": 20018083,
        "name_tc": "青麟路，近欣田邨",
        "name_sc": "青麟路，近欣田邨",
        "name_en": "Tsing Lun Road, near Yin Tin Estate",
        "lat": 22.414284236182137,
        "long": 113.97700130939485
    },
    {
        "co": "GMB",
        "stop": 20018115,
        "name_tc": "粉嶺(唐公嶺)小巴總站",
        "name_sc": "粉岭(唐公岭)小巴总站",
        "name_en": "Fanling (Tong Kung Leng) Minibus Terminus",
        "lat": 22.484632743157537,
        "long": 114.10110846161844
    },
    {
        "co": "GMB",
        "stop": 20018313,
        "name_tc": "海達公共運輸交匯處",
        "name_sc": "海达公共运输交汇处",
        "name_en": "Hoi Tat Public Transport Interchange",
        "lat": 22.328948659933225,
        "long": 114.15187325005272
    },
    {
        "co": "GMB",
        "stop": 20018350,
        "name_tc": "青山道近發祥街",
        "name_sc": "青山道近发祥街",
        "name_en": "Castle Peak Road near Fat Tseung Street",
        "lat": 22.337804747290754,
        "long": 114.15724308704873
    },
    {
        "co": "GMB",
        "stop": 20018379,
        "name_tc": "高嶺道8號對面",
        "name_sc": "高岭道8号对面",
        "name_en": "Ko Ling Road, opposite to House No. 8",
        "lat": 22.303643970091635,
        "long": 114.22977179277952
    },
    {
        "co": "GMB",
        "stop": 20018562,
        "name_tc": "屏康里",
        "name_sc": "屏康里",
        "name_en": "Ping Hong Lane",
        "lat": 22.440366321452924,
        "long": 114.01126700737565
    },
    {
        "co": "GMB",
        "stop": 20018610,
        "name_tc": "沙橋村(尖鼻咀)小巴總站",
        "name_sc": "沙桥村(尖鼻咀)小巴总站",
        "name_en": "Sha Kiu Tsuen (Tsim Bei Tsui) Minibus Terminus",
        "lat": 22.485687417719824,
        "long": 114.00582969188692
    },
    {
        "co": "GMB",
        "stop": 20018643,
        "name_tc": "瑪嘉列醫院",
        "name_sc": "玛嘉列医院",
        "name_en": "Princess Magaret Hospital",
        "lat": 22.341420321435127,
        "long": 114.13477689027788
    }
]