[
    {
        "co": "NLB",
        "stop": "1",
        "name_en": "Mui Wo Ferry Pier, Mui Wo Ferry Pier",
        "name_tc": "梅窩碼頭, 梅窩碼頭",
        "name_sc": "梅窝码头, 梅窝码头",
        "lat": "22.26466400",
        "long": "114.00155400"
    },
    {
        "co": "NLB",
        "stop": "2",
        "name_en": "Mui Wo Cooked Food Market, Ngan Kwong Wan Road",
        "name_tc": "梅窩熟食市場, 銀礦灣道",
        "name_sc": "梅窝熟食市场, 银矿湾道",
        "lat": "22.26614300",
        "long": "114.00004900"
    },
    {
        "co": "NLB",
        "stop": "3",
        "name_en": "Ngan Wan Estate, Ngan Kwong Wan Road",
        "name_tc": "銀灣邨, 銀礦灣道",
        "name_sc": "银湾邨, 银矿湾道",
        "lat": "22.26540600",
        "long": "113.99707400"
    },
    {
        "co": "NLB",
        "stop": "4",
        "name_en": "Mui Wo Market, Ngan Shek Street",
        "name_tc": "梅窩街市, 銀石街",
        "name_sc": "梅窝街市, 银石街",
        "lat": "22.26675900",
        "long": "113.99699900"
    },
    {
        "co": "NLB",
        "stop": "5",
        "name_en": "Ngan King Centre, Ngan Kwong Wan Road",
        "name_tc": "銀景中心, 銀礦灣道",
        "name_sc": "银景中心, 银矿湾道",
        "lat": "22.26553700",
        "long": "113.99696500"
    },
    {
        "co": "NLB",
        "stop": "6",
        "name_en": "Silver Mine Bay Water Treatment Works, South Lantau Road",
        "name_tc": "銀鑛灣濾水廠, 嶼南道",
        "name_sc": "银鑛湾滤水厂, 屿南道",
        "lat": "22.26296600",
        "long": "113.99782600"
    },
    {
        "co": "NLB",
        "stop": "7",
        "name_en": "Lai Chi Yuen, South Lantau Road",
        "name_tc": "荔枝園, 嶼南道",
        "name_sc": "荔枝园, 屿南道",
        "lat": "22.26075800",
        "long": "113.99647700"
    },
    {
        "co": "NLB",
        "stop": "8",
        "name_en": "Nam Shan Sam Uk Tsuen, South Lantau Road",
        "name_tc": "南山三屋村, 嶼南道",
        "name_sc": "南山三屋村, 屿南道",
        "lat": "22.25707200",
        "long": "113.99010800"
    },
    {
        "co": "NLB",
        "stop": "9",
        "name_en": "Nam Shan Camp Site, South Lantau Road",
        "name_tc": "南山營地, 嶼南道",
        "name_sc": "南山营地, 屿南道",
        "lat": "22.25545100",
        "long": "113.98681100"
    },
    {
        "co": "NLB",
        "stop": "10",
        "name_en": "Swire Staff Holiday House, South Lantau Road",
        "name_tc": "太古職員宿舍, 嶼南道",
        "name_sc": "太古职员宿舍, 屿南道",
        "lat": "22.25191800",
        "long": "113.98488700"
    },
    {
        "co": "NLB",
        "stop": "11",
        "name_en": "Pui O Petrol Station, South Lantau Road",
        "name_tc": "貝澳油站, 嶼南道",
        "name_sc": "贝澳油站, 屿南道",
        "lat": "22.24731100",
        "long": "113.98098500"
    },
    {
        "co": "NLB",
        "stop": "12",
        "name_en": "Lo Wai Tsuen, South Lantau Road",
        "name_tc": "老圍村, 嶼南道",
        "name_sc": "老围村, 屿南道",
        "lat": "22.24425200",
        "long": "113.97923600"
    },
    {
        "co": "NLB",
        "stop": "13",
        "name_en": "Sun Wai Tsuen, South Lantau Road",
        "name_tc": "新圍村, 嶼南道",
        "name_sc": "新围村, 屿南道",
        "lat": "22.24347600",
        "long": "113.97817800"
    },
    {
        "co": "NLB",
        "stop": "14",
        "name_en": "Lo Uk Tsuen, South Lantau Road",
        "name_tc": "羅屋村, 嶼南道",
        "name_sc": "罗屋村, 屿南道",
        "lat": "22.24319200",
        "long": "113.97488500"
    },
    {
        "co": "NLB",
        "stop": "15",
        "name_en": "Ngau Au Yuen, South Lantau Road",
        "name_tc": "牛坳園, 嶼南道",
        "name_sc": "牛坳园, 屿南道",
        "lat": "22.24304100",
        "long": "113.97254500"
    },
    {
        "co": "NLB",
        "stop": "16",
        "name_en": "San Shek Wan 3 1/4 Milestone, South Lantau Road",
        "name_tc": "散石灣中蘆, 嶼南道",
        "name_sc": "散石湾中芦, 屿南道",
        "lat": "22.24124400",
        "long": "113.96910500"
    },
    {
        "co": "NLB",
        "stop": "17",
        "name_en": "San Shek Wan Village, South Lantau Road",
        "name_tc": "散石灣村, 嶼南道",
        "name_sc": "散石湾村, 屿南道",
        "lat": "22.23892800",
        "long": "113.96677200"
    },
    {
        "co": "NLB",
        "stop": "18",
        "name_en": "YWCA Sydney Leong Holiday Lodge, South Lantau Road",
        "name_tc": "女青年會梁紹榮度假村, 嶼南道",
        "name_sc": "女青年会梁绍荣度假村, 屿南道",
        "lat": "22.23748400",
        "long": "113.96400100"
    },
    {
        "co": "NLB",
        "stop": "19",
        "name_en": "Cheung Sha Sheung Tsuen, South Lantau Road",
        "name_tc": "長沙上村, 嶼南道",
        "name_sc": "长沙上村, 屿南道",
        "lat": "22.23523800",
        "long": "113.96173900"
    },
    {
        "co": "NLB",
        "stop": "20",
        "name_en": "Cheung Sha Police Headquarters, South Lantau Road",
        "name_tc": "長沙警署, 嶼南道",
        "name_sc": "长沙警署, 屿南道",
        "lat": "22.23377200",
        "long": "113.96021100"
    },
    {
        "co": "NLB",
        "stop": "21",
        "name_en": "Cheung Sha Ha Tsuen, South Lantau Road",
        "name_tc": "長沙下村, 嶼南道",
        "name_sc": "长沙下村, 屿南道",
        "lat": "22.23478700",
        "long": "113.95723200"
    },
    {
        "co": "NLB",
        "stop": "22",
        "name_en": "Cheung Sha Fire Station, South Lantau Road",
        "name_tc": "長沙消防局, 嶼南道",
        "name_sc": "长沙消防局, 屿南道",
        "lat": "22.23663200",
        "long": "113.95434900"
    },
    {
        "co": "NLB",
        "stop": "23",
        "name_en": "Leyburn Villas, South Lantau Road",
        "name_tc": "麗濱別墅, 嶼南道",
        "name_sc": "丽滨别墅, 屿南道",
        "lat": "22.23621700",
        "long": "113.95191600"
    },
    {
        "co": "NLB",
        "stop": "24",
        "name_en": "Butterfly Crest, South Lantau Road",
        "name_tc": "蝶崗, 嶼南道",
        "name_sc": "蝶岗, 屿南道",
        "lat": "22.23454000",
        "long": "113.94884100"
    },
    {
        "co": "NLB",
        "stop": "25",
        "name_en": "Cheung Sha Bridge, South Lantau Road",
        "name_tc": "長沙大橋, 嶼南道",
        "name_sc": "长沙大桥, 屿南道",
        "lat": "22.23338900",
        "long": "113.94697700"
    },
    {
        "co": "NLB",
        "stop": "26",
        "name_en": "Upper Cheung Sha Beach, South Lantau Road",
        "name_tc": "上長沙泳灘, 嶼南道",
        "name_sc": "上长沙泳滩, 屿南道",
        "lat": "22.23087700",
        "long": "113.94152500"
    },
    {
        "co": "NLB",
        "stop": "27",
        "name_en": "Tong Fuk Beach, South Lantau Road",
        "name_tc": "塘福海灘, 嶼南道",
        "name_sc": "塘福海滩, 屿南道",
        "lat": "22.22850900",
        "long": "113.93533900"
    },
    {
        "co": "NLB",
        "stop": "28",
        "name_en": "Tong Fuk Village, South Lantau Road",
        "name_tc": "塘福村, 嶼南道",
        "name_sc": "塘福村, 屿南道",
        "lat": "22.22756500",
        "long": "113.93270600"
    },
    {
        "co": "NLB",
        "stop": "30",
        "name_en": "Ma Po Ping Village, Ma Po Ping Road",
        "name_tc": "麻埔坪村, 麻埔坪道",
        "name_sc": "麻埔坪村, 麻埔坪道",
        "lat": "22.22992600",
        "long": "113.92805000"
    },
    {
        "co": "NLB",
        "stop": "31",
        "name_en": "Ma Po Ping Road Junction, South Lantau Road",
        "name_tc": "麻埔坪道口, 嶼南道",
        "name_sc": "麻埔坪道口, 屿南道",
        "lat": "22.22601800",
        "long": "113.92949500"
    },
    {
        "co": "NLB",
        "stop": "32",
        "name_en": "Tong Fuk Correctional Institution, South Lantau Road",
        "name_tc": "塘福懲教所, 嶼南道",
        "name_sc": "塘福惩教所, 屿南道",
        "lat": "22.22876400",
        "long": "113.92608400"
    },
    {
        "co": "NLB",
        "stop": "33",
        "name_en": "Upper Wan Lung, South Lantau Road",
        "name_tc": "上橫壟, 嶼南道",
        "name_sc": "上横垄, 屿南道",
        "lat": "22.22334800",
        "long": "113.92062400"
    },
    {
        "co": "NLB",
        "stop": "34",
        "name_en": "Lower Wan Lung, South Lantau Road",
        "name_tc": "下橫壟, 嶼南道",
        "name_sc": "下横垄, 屿南道",
        "lat": "22.22230500",
        "long": "113.91974100"
    },
    {
        "co": "NLB",
        "stop": "35",
        "name_en": "Shui Hau Village (East), South Lantau Road",
        "name_tc": "水口村(東), 嶼南道",
        "name_sc": "水口村(东), 屿南道",
        "lat": "22.22156500",
        "long": "113.91605900"
    },
    {
        "co": "NLB",
        "stop": "36",
        "name_en": "Shui Hau Village, South Lantau Road",
        "name_tc": "水口村, 嶼南道",
        "name_sc": "水口村, 屿南道",
        "lat": "22.22098931",
        "long": "113.91431800"
    },
    {
        "co": "NLB",
        "stop": "37",
        "name_en": "Four-Eye Ma, South Lantau Road",
        "name_tc": "四眼馬, 嶼南道",
        "name_sc": "四眼马, 屿南道",
        "lat": "22.22191300",
        "long": "113.91037000"
    },
    {
        "co": "NLB",
        "stop": "38",
        "name_en": "Shui Hau Helicopter Landing Field, South Lantau Road",
        "name_tc": "水口直升機場, 嶼南道",
        "name_sc": "水口直升机场, 屿南道",
        "lat": "22.22353200",
        "long": "113.90806300"
    },
    {
        "co": "NLB",
        "stop": "39",
        "name_en": "Shek Pik Police Station, South Lantau Road",
        "name_tc": "石壁警崗, 嶼南道",
        "name_sc": "石壁警岗, 屿南道",
        "lat": "22.22586200",
        "long": "113.89772000"
    },
    {
        "co": "NLB",
        "stop": "40",
        "name_en": "Sha Tsui Detention Centre, Shek Pik Reservoir Road",
        "name_tc": "沙咀懲教所, 石壁水塘道",
        "name_sc": "沙咀惩教所, 石壁水塘道",
        "lat": "22.22496900",
        "long": "113.89348700"
    },
    {
        "co": "NLB",
        "stop": "41",
        "name_en": "Sha Tsui, Keung Shan Road",
        "name_tc": "沙咀, 姜山道",
        "name_sc": "沙咀, 姜山道",
        "lat": "22.22832800",
        "long": "113.89060000"
    },
    {
        "co": "NLB",
        "stop": "42",
        "name_en": "Shek Pik Au W.W.O. Access Road, Keung Shan Road",
        "name_tc": "石壁坳引水道通道, 姜山道",
        "name_sc": "石壁坳引水道通道, 姜山道",
        "lat": "22.23945100",
        "long": "113.89369700"
    },
    {
        "co": "NLB",
        "stop": "43",
        "name_en": "Sham Wat Road Junction, Keung Shan Road",
        "name_tc": "深屈道口, 姜山道",
        "name_sc": "深屈道口, 姜山道",
        "lat": "22.24503800",
        "long": "113.89223700"
    },
    {
        "co": "NLB",
        "stop": "44",
        "name_en": "Fat Hwa Yuen, Keung Shan Road",
        "name_tc": "法華苑, 姜山道",
        "name_sc": "法华苑, 姜山道",
        "lat": "22.24612200",
        "long": "113.88904200"
    },
    {
        "co": "NLB",
        "stop": "45",
        "name_en": "Sam Yuen Ching Shea, Keung Shan Road",
        "name_tc": "三緣精舍, 姜山道",
        "name_sc": "三缘精舍, 姜山道",
        "lat": "22.24643500",
        "long": "113.88624200"
    },
    {
        "co": "NLB",
        "stop": "46",
        "name_en": "Shing Fai Orchard, Keung Shan Road",
        "name_tc": "成輝果園, 姜山道",
        "name_sc": "成辉果园, 姜山道",
        "lat": "22.24382000",
        "long": "113.88420900"
    },
    {
        "co": "NLB",
        "stop": "47",
        "name_en": "Kwun Yam Monastery, Keung Shan Road",
        "name_tc": "觀音寺, 姜山道",
        "name_sc": "观音寺, 姜山道",
        "lat": "22.24225600",
        "long": "113.88299100"
    },
    {
        "co": "NLB",
        "stop": "48",
        "name_en": "Lung Chai, Tai O Road",
        "name_tc": "龍仔, 大澳道",
        "name_sc": "龙仔, 大澳道",
        "lat": "22.24081600",
        "long": "113.88102200"
    },
    {
        "co": "NLB",
        "stop": "49",
        "name_en": "Keung Shan Management Centre, Tai O Road",
        "name_tc": "羌山管理站, 大澳道",
        "name_sc": "羌山管理站, 大澳道",
        "lat": "22.24203200",
        "long": "113.87882300"
    },
    {
        "co": "NLB",
        "stop": "51",
        "name_en": "Ling Yan Monastery, Tai O Road",
        "name_tc": "靈隱寺, 大澳道",
        "name_sc": "灵隐寺, 大澳道",
        "lat": "22.24401800",
        "long": "113.87500900"
    },
    {
        "co": "NLB",
        "stop": "52",
        "name_en": "Hang Mei, Tai O Road",
        "name_tc": "坑尾, 大澳道",
        "name_sc": "坑尾, 大澳道",
        "lat": "22.25065600",
        "long": "113.86906200"
    },
    {
        "co": "NLB",
        "stop": "53",
        "name_en": "Buddhist Fat Ho Memorial College, Tai O Road",
        "name_tc": "佛教筏可紀念中學, 大澳道",
        "name_sc": "佛教筏可纪念中学, 大澳道",
        "lat": "22.25203300",
        "long": "113.86698800"
    },
    {
        "co": "NLB",
        "stop": "54",
        "name_en": "Lung Tin Estate, Tai O Road",
        "name_tc": "龍田邨, 大澳道",
        "name_sc": "龙田邨, 大澳道",
        "lat": "22.25232600",
        "long": "113.86497600"
    },
    {
        "co": "NLB",
        "stop": "55",
        "name_en": "Tai O, Tai O Road",
        "name_tc": "大澳, 大澳道",
        "name_sc": "大澳, 大澳道",
        "lat": "22.25278300",
        "long": "113.86216000"
    },
    {
        "co": "NLB",
        "stop": "56",
        "name_en": "Lai Chi Yuen Cemetery, South Lantau Road",
        "name_tc": "禮智園墳場, 嶼南道",
        "name_sc": "礼智园坟场, 屿南道",
        "lat": "22.25932700",
        "long": "113.99399300"
    },
    {
        "co": "NLB",
        "stop": "57",
        "name_en": "Mui Wo Police Station, South Lantau Road",
        "name_tc": "梅窩警署, 嶼南道",
        "name_sc": "梅窝警署, 屿南道",
        "lat": "22.26409300",
        "long": "113.99890600"
    },
    {
        "co": "NLB",
        "stop": "58",
        "name_en": "Sham Wat Road, Sham Wat Road",
        "name_tc": "深屈道, 深屈道",
        "name_sc": "深屈道, 深屈道",
        "lat": "22.24505400",
        "long": "113.89119300"
    },
    {
        "co": "NLB",
        "stop": "59",
        "name_en": "San Hoi Ting, Sham Wat Road",
        "name_tc": "山海亭, 深屈道",
        "name_sc": "山海亭, 深屈道",
        "lat": "22.24947700",
        "long": "113.89305300"
    },
    {
        "co": "NLB",
        "stop": "60",
        "name_en": "Ngong Ping Village, Ngong Ping Road",
        "name_tc": "昂坪市集, 昂坪道",
        "name_sc": "昂坪市集, 昂坪道",
        "lat": "22.25546100",
        "long": "113.90398100"
    },
    {
        "co": "NLB",
        "stop": "62",
        "name_en": "Ngong Ping, Po Ngong Road",
        "name_tc": "昂坪, 寶昂路",
        "name_sc": "昂坪, 宝昂路",
        "lat": "22.25561200",
        "long": "113.90286200"
    },
    {
        "co": "NLB",
        "stop": "64",
        "name_en": "Cheung Sha Catchwater, Tung Chung Road",
        "name_tc": "長沙引水道, 東涌道",
        "name_sc": "长沙引水道, 东涌道",
        "lat": "22.23981400",
        "long": "113.95721600"
    },
    {
        "co": "NLB",
        "stop": "65",
        "name_en": "Pak Kung Au, Tung Chung Road",
        "name_tc": "伯公坳, 東涌道",
        "name_sc": "伯公坳, 东涌道",
        "lat": "22.24805400",
        "long": "113.94313900"
    },
    {
        "co": "NLB",
        "stop": "66",
        "name_en": "Tung Chung Au Management Centre, Tung Chung Road",
        "name_tc": "東涌坳管理站, 東涌道",
        "name_sc": "东涌坳管理站, 东涌道",
        "lat": "22.26400600",
        "long": "113.93715500"
    },
    {
        "co": "NLB",
        "stop": "67",
        "name_en": "Cemetery Area No. 18, Tung Chung Road",
        "name_tc": "十八區墳場, 東涌道",
        "name_sc": "十八区坟场, 东涌道",
        "lat": "22.26546600",
        "long": "113.93646300"
    },
    {
        "co": "NLB",
        "stop": "68",
        "name_en": "Shek Mun Kap Road, Tung Chung Road",
        "name_tc": "石門甲道, 東涌道",
        "name_sc": "石门甲道, 东涌道",
        "lat": "22.26991800",
        "long": "113.93424300"
    },
    {
        "co": "NLB",
        "stop": "69",
        "name_en": "Lung Tseng Tau, Tung Chung Road",
        "name_tc": "龍井頭, 東涌道",
        "name_sc": "龙井头, 东涌道",
        "lat": "22.27597500",
        "long": "113.93337700"
    },
    {
        "co": "NLB",
        "stop": "70",
        "name_en": "Wong Ka Wai, Tung Chung Road",
        "name_tc": "黃家圍, 東涌道",
        "name_sc": "黄家围, 东涌道",
        "lat": "22.27716200",
        "long": "113.93381200"
    },
    {
        "co": "NLB",
        "stop": "71",
        "name_en": "Ha Ling Pei, Tung Chung Road",
        "name_tc": "下嶺皮, 東涌道",
        "name_sc": "下岭皮, 东涌道",
        "lat": "22.27873100",
        "long": "113.93547500"
    },
    {
        "co": "NLB",
        "stop": "72",
        "name_en": "Sheung Ling Pei, Tung Chung Road",
        "name_tc": "上嶺皮, 東涌道",
        "name_sc": "上岭皮, 东涌道",
        "lat": "22.27891200",
        "long": "113.93685600"
    },
    {
        "co": "NLB",
        "stop": "73",
        "name_en": "Tung Chung Rural Committee Office, Tung Chung Road",
        "name_tc": "東涌鄉事委員會, 東涌道",
        "name_sc": "东涌乡事委员会, 东涌道",
        "lat": "22.27913800",
        "long": "113.93929900"
    },
    {
        "co": "NLB",
        "stop": "74",
        "name_en": "Ma Wan Sun Tsuen, Chung Yan Road",
        "name_tc": "馬灣新村, 松仁路",
        "name_sc": "马湾新村, 松仁路",
        "lat": "22.27986500",
        "long": "113.94024300"
    },
    {
        "co": "NLB",
        "stop": "76",
        "name_en": "North Lantau Hospital (South Bound), Chung Yan Road",
        "name_tc": "北大嶼山醫院(南行), 松仁路",
        "name_sc": "北大屿山医院(南行), 松仁路",
        "lat": "22.28186100",
        "long": "113.93880300"
    },
    {
        "co": "NLB",
        "stop": "77",
        "name_en": "Tung Chung Fire Station, Shun Tung Road",
        "name_tc": "東涌消防局, 順東路",
        "name_sc": "东涌消防局, 顺东路",
        "lat": "22.28603000",
        "long": "113.94105700"
    },
    {
        "co": "NLB",
        "stop": "78",
        "name_en": "Tung Chung Cable Car Terminal, Tat Tung Road",
        "name_tc": "東涌纜車站, 達東路",
        "name_sc": "东涌缆车站, 达东路",
        "lat": "22.28930100",
        "long": "113.93873300"
    },
    {
        "co": "NLB",
        "stop": "79",
        "name_en": "Tung Chung Station Bus Terminus, Tat Tung Road",
        "name_tc": "東涌站巴士總站, 達東路",
        "name_sc": "东涌站巴士总站, 达东路",
        "lat": "22.28986200",
        "long": "113.93961600"
    },
    {
        "co": "NLB",
        "stop": "80",
        "name_en": "Fu Tung Plaza, Tat Tung Road",
        "name_tc": "富東廣場, 達東路",
        "name_sc": "富东广场, 达东路",
        "lat": "22.28887000",
        "long": "113.94210500"
    },
    {
        "co": "NLB",
        "stop": "81",
        "name_en": "Yu Tung Court, Shun Tung Road",
        "name_tc": "裕東苑, 順東路",
        "name_sc": "裕东苑, 顺东路",
        "lat": "22.28607700",
        "long": "113.94160300"
    },
    {
        "co": "NLB",
        "stop": "83",
        "name_en": "San Shek Wan Roundabout, South Lantau Road",
        "name_tc": "散石灣迴旋處, 嶼南道",
        "name_sc": "散石湾回旋处, 屿南道",
        "lat": "22.23654400",
        "long": "113.96255000"
    },
    {
        "co": "NLB",
        "stop": "84",
        "name_en": "Sun Fung Tsuen, Tai O Road",
        "name_tc": "新鳳村, 大澳道",
        "name_sc": "新凤村, 大澳道",
        "lat": "22.24357100",
        "long": "113.87697200"
    },
    {
        "co": "NLB",
        "stop": "88",
        "name_en": "Kui Yat House, Yat Tung Estate, Yat Tung Street",
        "name_tc": "逸東邨居逸樓, 逸東街",
        "name_sc": "逸东邨居逸楼, 逸东街",
        "lat": "22.28236900",
        "long": "113.93657600"
    },
    {
        "co": "NLB",
        "stop": "89",
        "name_en": "Yat Tung Estate, Yat Tung Street",
        "name_tc": "逸東邨, 逸東街",
        "name_sc": "逸东邨, 逸东街",
        "lat": "22.28205300",
        "long": "113.93586200"
    },
    {
        "co": "NLB",
        "stop": "90",
        "name_en": "Yu Tai Court, Tung Chung Road",
        "name_tc": "裕泰苑, 東涌道",
        "name_sc": "裕泰苑, 东涌道",
        "lat": "22.28056500",
        "long": "113.94106400"
    },
    {
        "co": "NLB",
        "stop": "91",
        "name_en": "Chek Lap Kok New Village, Wong Lung Hang Road",
        "name_tc": "赤立角新村, 黃龍坑道",
        "name_sc": "赤立角新村, 黄龙坑道",
        "lat": "22.27770400",
        "long": "113.94199600"
    },
    {
        "co": "NLB",
        "stop": "92",
        "name_en": "Shek Mun Kap Village, Shek Mun Kap Road",
        "name_tc": "石門甲村, 石門甲道",
        "name_sc": "石门甲村, 石门甲道",
        "lat": "22.26940400",
        "long": "113.93199600"
    },
    {
        "co": "NLB",
        "stop": "93",
        "name_en": "Shek Mun Kap, Shek Mun Kap Road",
        "name_tc": "石門甲, 石門甲道",
        "name_sc": "石门甲, 石门甲道",
        "lat": "22.26905700",
        "long": "113.93118500"
    },
    {
        "co": "NLB",
        "stop": "94",
        "name_en": "Tung Chung Rural Committee Office, Tung Chung Road",
        "name_tc": "東涌鄉事委員會, 東涌道",
        "name_sc": "东涌乡事委员会, 东涌道",
        "lat": "22.27893600",
        "long": "113.93879500"
    },
    {
        "co": "NLB",
        "stop": "95",
        "name_en": "Siu Ho Wan, Shum Fung Road",
        "name_tc": "小蠔灣, 深豐路",
        "name_sc": "小蚝湾, 深丰路",
        "lat": "22.31551900",
        "long": "113.99797500"
    },
    {
        "co": "NLB",
        "stop": "96",
        "name_en": "Siu Ho Wan Water Treatment Works, Cheung Tung Road",
        "name_tc": "小蠔灣濾水廠, 翔東路",
        "name_sc": "小蚝湾滤水厂, 翔东路",
        "lat": "22.31359500",
        "long": "113.99573400"
    },
    {
        "co": "NLB",
        "stop": "97",
        "name_en": "Discovery Bay Tunnel, Cheung Tung Road",
        "name_tc": "愉景灣隧道, 翔東路",
        "name_sc": "愉景湾隧道, 翔东路",
        "lat": "22.31002200",
        "long": "113.99058400"
    },
    {
        "co": "NLB",
        "stop": "98",
        "name_en": "Government Maintenance Depot, Cheung Tung Road",
        "name_tc": "政府維修廠, 翔東路",
        "name_sc": "政府维修厂, 翔东路",
        "lat": "22.30893500",
        "long": "113.98945100"
    },
    {
        "co": "NLB",
        "stop": "99",
        "name_en": "Pak Mong, Cheung Tung Road",
        "name_tc": "白芒, 翔東路",
        "name_sc": "白芒, 翔东路",
        "lat": "22.29796400",
        "long": "113.96758000"
    },
    {
        "co": "NLB",
        "stop": "100",
        "name_en": "Citygate, Tat Tung Road",
        "name_tc": "東薈城, 達東路",
        "name_sc": "东薈城, 达东路",
        "lat": "22.29013600",
        "long": "113.94147400"
    },
    {
        "co": "NLB",
        "stop": "101",
        "name_en": "Chung Yat Street, Chung Yat Street",
        "name_tc": "松逸街, 松逸街",
        "name_sc": "松逸街, 松逸街",
        "lat": "22.27616400",
        "long": "113.93182300"
    },
    {
        "co": "NLB",
        "stop": "102",
        "name_en": "Chung Mun Road, Chung Mun Road",
        "name_tc": "松滿路, 松滿路",
        "name_sc": "松满路, 松满路",
        "lat": "22.27720100",
        "long": "113.93170000"
    },
    {
        "co": "NLB",
        "stop": "103",
        "name_en": "Fuk Yat House, Yat Tung Estate, Yu Tung Road",
        "name_tc": "逸東邨福逸樓, 裕東路",
        "name_sc": "逸东邨福逸楼, 裕东路",
        "lat": "22.27921600",
        "long": "113.93465100"
    },
    {
        "co": "NLB",
        "stop": "104",
        "name_en": "Yung Yat House, Yat Tung Estate, Yu Tung Road",
        "name_tc": "逸東邨雍逸樓, 裕東路",
        "name_sc": "逸东邨雍逸楼, 裕东路",
        "lat": "22.27959200",
        "long": "113.93671200"
    },
    {
        "co": "NLB",
        "stop": "105",
        "name_en": "Tung Chung MTR Station, Tat Tung Road",
        "name_tc": "東涌港鐵站, 達東路",
        "name_sc": "东涌港铁站, 达东路",
        "lat": "22.28961300",
        "long": "113.94021000"
    },
    {
        "co": "NLB",
        "stop": "106",
        "name_en": "Tung Chung Development Ferry Pier, Tung Chung Waterfront Road",
        "name_tc": "東涌發展碼頭, 東涌海濱路",
        "name_sc": "东涌发展码头, 东涌海滨路",
        "lat": "22.29384600",
        "long": "113.94044900"
    },
    {
        "co": "NLB",
        "stop": "107",
        "name_en": "Seaview Crescent, Wai Tung Road",
        "name_tc": "海堤灣畔, 惠東路",
        "name_sc": "海堤湾畔, 惠东路",
        "lat": "22.29292500",
        "long": "113.94347100"
    },
    {
        "co": "NLB",
        "stop": "108",
        "name_en": "Coastal Skyline, Man Tung Road",
        "name_tc": "藍天海岸, 文東路",
        "name_sc": "蓝天海岸, 文东路",
        "lat": "22.29094200",
        "long": "113.94593100"
    },
    {
        "co": "NLB",
        "stop": "109",
        "name_en": "Caribbean Coast Phase 2, Man Tung Road",
        "name_tc": "映灣園二期, 文東路",
        "name_sc": "映湾园二期, 文东路",
        "lat": "22.29188200",
        "long": "113.95001000"
    },
    {
        "co": "NLB",
        "stop": "110",
        "name_en": "Kin Tung Road, Kin Tung Road",
        "name_tc": "健東路, 健東路",
        "name_sc": "健东路, 健东路",
        "lat": "22.29322200",
        "long": "113.94941000"
    },
    {
        "co": "NLB",
        "stop": "111",
        "name_en": "Yi Tung Road, Man Tung Road",
        "name_tc": "怡東路, 文東路",
        "name_sc": "怡东路, 文东路",
        "lat": "22.29094900",
        "long": "113.94801200"
    },
    {
        "co": "NLB",
        "stop": "112",
        "name_en": "E Wun Secondary School, Man Tung Road",
        "name_tc": "怡文中學, 文東路",
        "name_sc": "怡文中学, 文东路",
        "lat": "22.29085000",
        "long": "113.94461100"
    },
    {
        "co": "NLB",
        "stop": "114",
        "name_en": "Aviation Fuel Tank Farm, Scenic Road",
        "name_tc": "飛機燃料庫, 觀景路",
        "name_sc": "飞机燃料库, 观景路",
        "lat": "22.29358400",
        "long": "113.93212900"
    },
    {
        "co": "NLB",
        "stop": "115",
        "name_en": "Cathay City, Scenic Road",
        "name_tc": "國泰城, 觀景路",
        "name_sc": "国泰城, 观景路",
        "lat": "22.29754600",
        "long": "113.93281400"
    },
    {
        "co": "NLB",
        "stop": "116",
        "name_en": "Gate House No. 2, Cheong Lin Road",
        "name_tc": "二號檢查閘, 暢連路",
        "name_sc": "二号检查闸, 畅连路",
        "lat": "22.31053500",
        "long": "113.93710700"
    },
    {
        "co": "NLB",
        "stop": "117",
        "name_en": "Airport (Passenger Terminal Building), Cheong Tat Road",
        "name_tc": "機場(客運大樓), 暢達路",
        "name_sc": "机场(客运大楼), 畅达路",
        "lat": "22.31456900",
        "long": "113.93661000"
    },
    {
        "co": "NLB",
        "stop": "118",
        "name_en": "Cheong Tat Road, Cheong Tat Road",
        "name_tc": "暢達路, 暢達路",
        "name_sc": "畅达路, 畅达路",
        "lat": "22.31623600",
        "long": "113.93594800"
    },
    {
        "co": "NLB",
        "stop": "120",
        "name_en": "Regal Airport Hotel, Cheong Tat Road",
        "name_tc": "富豪機場酒店, 暢達路",
        "name_sc": "富豪机场酒店, 畅达路",
        "lat": "22.31943000",
        "long": "113.93394200"
    },
    {
        "co": "NLB",
        "stop": "121",
        "name_en": "Chek Lap Kok South Road, Chek Lap Kok South Road",
        "name_tc": "赤鱲角南路, 赤鱲角南路",
        "name_sc": "赤鱲角南路, 赤鱲角南路",
        "lat": "22.29188300",
        "long": "113.92825100"
    },
    {
        "co": "NLB",
        "stop": "122",
        "name_en": "Asia Airfreight Terminal, Chun Ping Road",
        "name_tc": "亞洲空運中心, 駿坪路",
        "name_sc": "亚洲空运中心, 骏坪路",
        "lat": "22.29606500",
        "long": "113.92080600"
    },
    {
        "co": "NLB",
        "stop": "124",
        "name_en": "Airport Freight Forwarding Centre, Chun Ping Road",
        "name_tc": "機場空運中心, 駿坪路",
        "name_sc": "机场空运中心, 骏坪路",
        "lat": "22.29501600",
        "long": "113.92332900"
    },
    {
        "co": "NLB",
        "stop": "125",
        "name_en": "HACTL, Chun Wan Road",
        "name_tc": "香港空運貨站, 駿運路",
        "name_sc": "香港空运货站, 骏运路",
        "lat": "22.29712400",
        "long": "113.92978400"
    },
    {
        "co": "NLB",
        "stop": "126",
        "name_en": "Airport Freight Forwarding Centre, Chun Wan Road",
        "name_tc": "機場空運中心, 駿運路",
        "name_sc": "机场空运中心, 骏运路",
        "lat": "22.29500500",
        "long": "113.92434000"
    },
    {
        "co": "NLB",
        "stop": "127",
        "name_en": "Hung Hom (Hung Luen Road), Hung Hom Bay Hung Luen Road",
        "name_tc": "紅磡 (紅鸞道), 紅磡灣紅鸞道",
        "name_sc": "红磡 (红鸾道), 红磡湾红鸾道",
        "lat": "22.30141600",
        "long": "114.18809200"
    },
    {
        "co": "NLB",
        "stop": "128",
        "name_en": "East Tsim Sha Tsui MTR Station, Salisbury Road",
        "name_tc": "尖東港鐵站, 梳士巴利道",
        "name_sc": "尖东港铁站, 梳士巴利道",
        "lat": "22.29479800",
        "long": "114.17438000"
    },
    {
        "co": "NLB",
        "stop": "129",
        "name_en": "Kowloon Park, Nathan Road",
        "name_tc": "九龍公園, 彌敦道",
        "name_sc": "九龙公园, 弥敦道",
        "lat": "22.29872100",
        "long": "114.17192800"
    },
    {
        "co": "NLB",
        "stop": "131",
        "name_en": "Prince Edward MTR Station, Nathan Road",
        "name_tc": "太子港鐵站, 彌敦道",
        "name_sc": "太子港铁站, 弥敦道",
        "lat": "22.32581600",
        "long": "114.16787600"
    },
    {
        "co": "NLB",
        "stop": "132",
        "name_en": "Yen Chow Street, Cheung Sha Wan Road",
        "name_tc": "欽州街, 長沙灣道",
        "name_sc": "钦州街, 长沙湾道",
        "lat": "22.33129900",
        "long": "114.16136900"
    },
    {
        "co": "NLB",
        "stop": "134",
        "name_en": "Yuen Long MTR Station, Long Yat Road",
        "name_tc": "元朗港鐵站, 朗日路",
        "name_sc": "元朗港铁站, 朗日路",
        "lat": "22.44615300",
        "long": "114.03388800"
    },
    {
        "co": "NLB",
        "stop": "135",
        "name_en": "Yau San Street, Castle Peak Road",
        "name_tc": "又新街, 青山公路",
        "name_sc": "又新街, 青山公路",
        "lat": "22.44430800",
        "long": "114.03125200"
    },
    {
        "co": "NLB",
        "stop": "136",
        "name_en": "Tai Tong Road, Castle Peak Road",
        "name_tc": "大棠路, 青山公路",
        "name_sc": "大棠路, 青山公路",
        "lat": "22.44435500",
        "long": "114.02825500"
    },
    {
        "co": "NLB",
        "stop": "137",
        "name_en": "Yuen Long Police Station, Castle Peak Road",
        "name_tc": "元朗警署, 青山公路",
        "name_sc": "元朗警署, 青山公路",
        "lat": "22.44438300",
        "long": "114.02408500"
    },
    {
        "co": "NLB",
        "stop": "138",
        "name_en": "Shui Pin Tsuen, Castle Peak Road",
        "name_tc": "水邊村, 青山公路",
        "name_sc": "水边村, 青山公路",
        "lat": "22.44440700",
        "long": "114.02078100"
    },
    {
        "co": "NLB",
        "stop": "139",
        "name_en": "Yuen Long Park, Castle Peak Road",
        "name_tc": "元朗公園, 青山公路",
        "name_sc": "元朗公园, 青山公路",
        "lat": "22.44411700",
        "long": "114.01901300"
    },
    {
        "co": "NLB",
        "stop": "140",
        "name_en": "Long Bin, Castle Peak Road",
        "name_tc": "朗邊, 青山公路",
        "name_sc": "朗边, 青山公路",
        "lat": "22.44338600",
        "long": "114.01479900"
    },
    {
        "co": "NLB",
        "stop": "141",
        "name_en": "Ping Shan, Castle Peak Road",
        "name_tc": "屏山, 青山公路",
        "name_sc": "屏山, 青山公路",
        "lat": "22.44167400",
        "long": "114.01037800"
    },
    {
        "co": "NLB",
        "stop": "142",
        "name_en": "San Hei Tsuen, Castle Peak Road",
        "name_tc": "新起村, 青山公路",
        "name_sc": "新起村, 青山公路",
        "lat": "22.44001900",
        "long": "114.00763600"
    },
    {
        "co": "NLB",
        "stop": "143",
        "name_en": "Fui Sha Wai, Castle Peak Road",
        "name_tc": "灰沙圍, 青山公路",
        "name_sc": "灰沙围, 青山公路",
        "lat": "22.43851400",
        "long": "114.00465400"
    },
    {
        "co": "NLB",
        "stop": "144",
        "name_en": "Tai Tao Tsuen, Castle Peak Road",
        "name_tc": "大道村, 青山公路",
        "name_sc": "大道村, 青山公路",
        "lat": "22.43645100",
        "long": "114.00145900"
    },
    {
        "co": "NLB",
        "stop": "145",
        "name_en": "Hung Shui Kiu LTR Station, Castle Peak Road",
        "name_tc": "洪水橋輕鐵站, 青山公路",
        "name_sc": "洪水桥轻铁站, 青山公路",
        "lat": "22.43385800",
        "long": "113.99775000"
    },
    {
        "co": "NLB",
        "stop": "146",
        "name_en": "Chung Uk Tsuen LTR Station, Castle Peak Road",
        "name_tc": "鍾屋村輕鐵站, 青山公路",
        "name_sc": "钟屋村轻铁站, 青山公路",
        "lat": "22.42967300",
        "long": "113.99223500"
    },
    {
        "co": "NLB",
        "stop": "147",
        "name_en": "Yick Yuen Tsuen, Castle Peak Road",
        "name_tc": "亦園村, 青山公路",
        "name_sc": "亦园村, 青山公路",
        "lat": "22.42716800",
        "long": "113.98972800"
    },
    {
        "co": "NLB",
        "stop": "148",
        "name_en": "Nai Wai, Castle Peak Road",
        "name_tc": "泥圍, 青山公路",
        "name_sc": "泥围, 青山公路",
        "lat": "22.42362300",
        "long": "113.98679600"
    },
    {
        "co": "NLB",
        "stop": "149",
        "name_en": "Fuk Hang Tsuen, Castle Peak Road",
        "name_tc": "福亨村, 青山公路",
        "name_sc": "福亨村, 青山公路",
        "lat": "22.42236000",
        "long": "113.98564000"
    },
    {
        "co": "NLB",
        "stop": "150",
        "name_en": "Miu Fat Buddhist Monastery, Castle Peak Road",
        "name_tc": "妙法寺, 青山公路",
        "name_sc": "妙法寺, 青山公路",
        "lat": "22.42043900",
        "long": "113.98387800"
    },
    {
        "co": "NLB",
        "stop": "151",
        "name_en": "Lam Tei LTR Station, Castle Peak Road",
        "name_tc": "藍地輕鐵站, 青山公路",
        "name_sc": "蓝地轻铁站, 青山公路",
        "lat": "22.41832800",
        "long": "113.98238500"
    },
    {
        "co": "NLB",
        "stop": "152",
        "name_en": "Shenzhen Bay Port, Shenzhen Bay Port",
        "name_tc": "深圳灣口岸, 深圳灣口岸",
        "name_sc": "深圳湾口岸, 深圳湾口岸",
        "lat": "22.49743300",
        "long": "113.95050900"
    },
    {
        "co": "NLB",
        "stop": "153",
        "name_en": "Tsing Chuen Wai, Castle Peak Road",
        "name_tc": "青磚圍, 青山公路",
        "name_sc": "青砖围, 青山公路",
        "lat": "22.42245200",
        "long": "113.98530500"
    },
    {
        "co": "NLB",
        "stop": "154",
        "name_en": "Nai Wai LTR Station, Castle Peak Road",
        "name_tc": "泥圍輕鐵站, 青山公路",
        "name_sc": "泥围轻铁站, 青山公路",
        "lat": "22.42364800",
        "long": "113.98631300"
    },
    {
        "co": "NLB",
        "stop": "155",
        "name_en": "Tong Fong Tsuen LRT Station, Castle Peak Road",
        "name_tc": "塘坊村輕鐵站, 青山公路",
        "name_sc": "塘坊村轻铁站, 青山公路",
        "lat": "22.44021000",
        "long": "114.00731200"
    },
    {
        "co": "NLB",
        "stop": "156",
        "name_en": "Ping Shan LRT Station, Castle Peak Road",
        "name_tc": "屏山輕鐵站, 青山公路",
        "name_sc": "屏山轻铁站, 青山公路",
        "lat": "22.44321600",
        "long": "114.01293000"
    },
    {
        "co": "NLB",
        "stop": "157",
        "name_en": "Villa By The Park, Castle Peak Road",
        "name_tc": "朗庭園, 青山公路",
        "name_sc": "朗庭园, 青山公路",
        "lat": "22.44425900",
        "long": "114.01818900"
    },
    {
        "co": "NLB",
        "stop": "158",
        "name_en": "Hi Lee Path, Castle Peak Road",
        "name_tc": "喜利徑, 青山公路",
        "name_sc": "喜利径, 青山公路",
        "lat": "22.44465400",
        "long": "114.02580200"
    },
    {
        "co": "NLB",
        "stop": "159",
        "name_en": "Tung Lok Street, Castle Peak Road",
        "name_tc": "同樂街, 青山公路",
        "name_sc": "同乐街, 青山公路",
        "lat": "22.44462900",
        "long": "114.02822500"
    },
    {
        "co": "NLB",
        "stop": "160",
        "name_en": "Kuk Ting Street, Castle Peak Road",
        "name_tc": "谷亭街, 青山公路",
        "name_sc": "谷亭街, 青山公路",
        "lat": "22.44457800",
        "long": "114.03023000"
    },
    {
        "co": "NLB",
        "stop": "161",
        "name_en": "Yuen Long MTR Station, Castle Peak Road",
        "name_tc": "元朗港鐵站, 青山公路",
        "name_sc": "元朗港铁站, 青山公路",
        "lat": "22.44618900",
        "long": "114.03481600"
    },
    {
        "co": "NLB",
        "stop": "162",
        "name_en": "Tin Shui Wai (Tin Tsz Estate), Tin Hei Street",
        "name_tc": "天水圍 (天慈邨), 天喜街",
        "name_sc": "天水围 (天慈邨), 天喜街",
        "lat": "22.45353600",
        "long": "114.00711100"
    },
    {
        "co": "NLB",
        "stop": "163",
        "name_en": "Harbour Plaza Resort City, Tin Yan Road",
        "name_tc": "嘉湖海逸酒店, 天恩路",
        "name_sc": "嘉湖海逸酒店, 天恩路",
        "lat": "22.45860500",
        "long": "114.00326000"
    },
    {
        "co": "NLB",
        "stop": "164",
        "name_en": "Tin Shui Wai Town Centre, Tin Yan Road",
        "name_tc": "天水圍市中心, 天恩路",
        "name_sc": "天水围市中心, 天恩路",
        "lat": "22.45849800",
        "long": "114.00199400"
    },
    {
        "co": "NLB",
        "stop": "165",
        "name_en": "Chestwood Court, Kingswood Villas, Tin Wing Road",
        "name_tc": "嘉湖山莊翠湖居, 天榮路",
        "name_sc": "嘉湖山庄翠湖居, 天荣路",
        "lat": "22.45959500",
        "long": "113.99998400"
    },
    {
        "co": "NLB",
        "stop": "166",
        "name_en": "Tin Shui Estate, Tin Shui Road",
        "name_tc": "天瑞邨, 天瑞路",
        "name_sc": "天瑞邨, 天瑞路",
        "lat": "22.45699400",
        "long": "113.99885700"
    },
    {
        "co": "NLB",
        "stop": "167",
        "name_en": "Tin Shui Wai Park, Tin Shui Road",
        "name_tc": "天水圍公園, 天瑞路",
        "name_sc": "天水围公园, 天瑞路",
        "lat": "22.45455700",
        "long": "114.00254300"
    },
    {
        "co": "NLB",
        "stop": "168",
        "name_en": "Yiu Shing House, Tin Yiu Estate, Tin Wu Road",
        "name_tc": "天耀邨耀盛樓, 天湖路",
        "name_sc": "天耀邨耀盛楼, 天湖路",
        "lat": "22.45222100",
        "long": "114.00216500"
    },
    {
        "co": "NLB",
        "stop": "169",
        "name_en": "Yiu Man House, Tin Yiu Estate, Tin Yiu Road",
        "name_tc": "天耀邨耀民樓, 天耀路",
        "name_sc": "天耀邨耀民楼, 天耀路",
        "lat": "22.44955000",
        "long": "114.00317400"
    },
    {
        "co": "NLB",
        "stop": "170",
        "name_en": "Tin Shing Court, Ping Ha Road",
        "name_tc": "天盛苑, 屏廈路",
        "name_sc": "天盛苑, 屏厦路",
        "lat": "22.44698800",
        "long": "114.00279400"
    },
    {
        "co": "NLB",
        "stop": "171",
        "name_en": "Tin Shui Wai Police Station, Tin Yiu Road",
        "name_tc": "天水圍警署, 天耀路",
        "name_sc": "天水围警署, 天耀路",
        "lat": "22.45017100",
        "long": "114.00250400"
    },
    {
        "co": "NLB",
        "stop": "172",
        "name_en": "Sherwood Court, Kingswood Villas, Tin Wu Road",
        "name_tc": "嘉湖山莊賞湖居, 天湖路",
        "name_sc": "嘉湖山庄赏湖居, 天湖路",
        "lat": "22.45255000",
        "long": "114.00216900"
    },
    {
        "co": "NLB",
        "stop": "173",
        "name_en": "Tin Chung Court, Tin Wing Road",
        "name_tc": "天頌苑, 天榮路",
        "name_sc": "天颂苑, 天荣路",
        "lat": "22.45986400",
        "long": "114.00007900"
    },
    {
        "co": "NLB",
        "stop": "174",
        "name_en": "Lynwood Court, Kingswood Villas, Tin Shing Road",
        "name_tc": "嘉湖山莊麗湖居, 天城路",
        "name_sc": "嘉湖山庄丽湖居, 天城路",
        "lat": "22.45893400",
        "long": "114.00359200"
    },
    {
        "co": "NLB",
        "stop": "175",
        "name_en": "Kenswood Court, Kingswood Villas, Tin Shing Road",
        "name_tc": "嘉湖山莊景湖居, 天城路",
        "name_sc": "嘉湖山庄景湖居, 天城路",
        "lat": "22.45736400",
        "long": "114.00579700"
    },
    {
        "co": "NLB",
        "stop": "176",
        "name_en": "Tin Shui Wai (Tin Yiu Estate), Tin Yiu Road",
        "name_tc": "天水圍 (天耀邨), 天耀路",
        "name_sc": "天水围 (天耀邨), 天耀路",
        "lat": "22.45053000",
        "long": "114.00302900"
    },
    {
        "co": "NLB",
        "stop": "178",
        "name_en": "South Lantau Sea Cable Station, South Lantau Road",
        "name_tc": "南大嶼山海底電纜站, 嶼南道",
        "name_sc": "南大屿山海底电缆站, 屿南道",
        "lat": "22.22527200",
        "long": "113.92866100"
    },
    {
        "co": "NLB",
        "stop": "179",
        "name_en": "Tung Chung Road, South Lantau Road",
        "name_tc": "東涌道, 嶼南道",
        "name_sc": "东涌道, 屿南道",
        "lat": "22.23791800",
        "long": "113.96292000"
    },
    {
        "co": "NLB",
        "stop": "181",
        "name_en": "Tong Fuk, Tong Fuk",
        "name_tc": "塘福, 塘福",
        "name_sc": "塘福, 塘福",
        "lat": "22.22761600",
        "long": "113.93228900"
    },
    {
        "co": "NLB",
        "stop": "183",
        "name_en": "Nelson Street, Nathan Road",
        "name_tc": "奶路臣街, 彌敦道",
        "name_sc": "奶路臣街, 弥敦道",
        "lat": "22.31801800",
        "long": "114.16951500"
    },
    {
        "co": "NLB",
        "stop": "184",
        "name_en": "Yee Kok Court, Cheung Sha Wan Road",
        "name_tc": "怡閣苑, 長沙灣道",
        "name_sc": "怡阁苑, 长沙湾道",
        "lat": "22.33389400",
        "long": "114.15804300"
    },
    {
        "co": "NLB",
        "stop": "185",
        "name_en": "North Lantau Hospital (North Bound), Mei Yat House Yat Tung Estate, Chung Yan Road",
        "name_tc": "北大嶼山醫院(北行), 逸東邨美逸樓, 松仁路",
        "name_sc": "北大屿山医院(北行), 逸东邨美逸楼, 松仁路",
        "lat": "22.28129500",
        "long": "113.93882200"
    },
    {
        "co": "NLB",
        "stop": "186",
        "name_en": "Caribbean Coast Phase 3, Man Tung Road",
        "name_tc": "映灣園三期, 文東路",
        "name_sc": "映湾园三期, 文东路",
        "lat": "22.29142400",
        "long": "113.94897500"
    },
    {
        "co": "NLB",
        "stop": "187",
        "name_en": "Chun Wan Road South, Chun Wan Road South",
        "name_tc": "駿運南路, 駿運南路",
        "name_sc": "骏运南路, 骏运南路",
        "lat": "22.29631900",
        "long": "113.92846900"
    },
    {
        "co": "NLB",
        "stop": "188",
        "name_en": "North Lantau Hospital(Main Block), North Lantau Hospital, outside Casualty Ward",
        "name_tc": "北大嶼山醫院(主座大樓), 北大嶼山醫院急症室外",
        "name_sc": "北大屿山医院(主座大楼), 北大屿山医院急症室外",
        "lat": "22.28202800",
        "long": "113.93926900"
    },
    {
        "co": "NLB",
        "stop": "190",
        "name_en": "The Visionary(North Bound), Ying Tung Road",
        "name_tc": "昇薈(北行), 迎東路",
        "name_sc": "升薈(北行), 迎东路",
        "lat": "22.29582300",
        "long": "113.95190700"
    },
    {
        "co": "NLB",
        "stop": "191",
        "name_en": "The Visionary (South Bound), Ying Tung Road",
        "name_tc": "昇薈(南行), 迎東路",
        "name_sc": "升薈(南行), 迎东路",
        "lat": "22.29583500",
        "long": "113.95207700"
    },
    {
        "co": "NLB",
        "stop": "192",
        "name_en": "Ying Hei Road, Ying Hei Road",
        "name_tc": "迎禧路, 迎禧路",
        "name_sc": "迎禧路, 迎禧路",
        "lat": "22.29431000",
        "long": "113.94999600"
    },
    {
        "co": "NLB",
        "stop": "193",
        "name_en": "Ying Tung Estate, Ying Tung Estate",
        "name_tc": "迎東邨, 迎東邨",
        "name_sc": "迎东邨, 迎东邨",
        "lat": "22.29710400",
        "long": "113.95334200"
    },
    {
        "co": "NLB",
        "stop": "194",
        "name_en": "Caribbean Coast Phase 1, Man Tung Road",
        "name_tc": "映灣園一期, 文東路",
        "name_sc": "映湾园一期, 文东路",
        "lat": "22.29349500",
        "long": "113.95181600"
    },
    {
        "co": "NLB",
        "stop": "195",
        "name_en": "Yick Yuen Tsuen, Castle Peak Road",
        "name_tc": "亦園村, 青山公路",
        "name_sc": "亦园村, 青山公路",
        "lat": "22.42739600",
        "long": "113.99036600"
    },
    {
        "co": "NLB",
        "stop": "196",
        "name_en": "Lam Tei LTR Station, Castle Peak Road",
        "name_tc": "藍地輕鐵站, 青山公路",
        "name_sc": "蓝地轻铁站, 青山公路",
        "lat": "22.41844400",
        "long": "113.98214600"
    },
    {
        "co": "NLB",
        "stop": "197",
        "name_en": "Fui Sha Wai, Castle Peak Road",
        "name_tc": "灰沙圍, 青山公路",
        "name_sc": "灰沙围, 青山公路",
        "lat": "22.43866900",
        "long": "114.00540400"
    },
    {
        "co": "NLB",
        "stop": "199",
        "name_en": "Tai Tao Tsuen, Castle Peak Road",
        "name_tc": "大道村, 青山公路",
        "name_sc": "大道村, 青山公路",
        "lat": "22.43653300",
        "long": "114.00211500"
    },
    {
        "co": "NLB",
        "stop": "200",
        "name_en": "Hung Shui Kiu LTR Station, Castle Peak Road",
        "name_tc": "洪水橋輕鐵站, 青山公路",
        "name_sc": "洪水桥轻铁站, 青山公路",
        "lat": "22.43351800",
        "long": "113.99781500"
    },
    {
        "co": "NLB",
        "stop": "201",
        "name_en": "Chung Uk Tsuen LTR Station, Castle Peak Road",
        "name_tc": "鍾屋村輕鐵站, 青山公路",
        "name_sc": "钟屋村轻铁站, 青山公路",
        "lat": "22.42958700",
        "long": "113.99258700"
    },
    {
        "co": "NLB",
        "stop": "203",
        "name_en": "Tin Shui Wai (Tin Tsz Estate), Tin Hei Street",
        "name_tc": "天水圍 (天慈邨), 天喜街",
        "name_sc": "天水围 (天慈邨), 天喜街",
        "lat": "22.45353600",
        "long": "114.00711100"
    },
    {
        "co": "NLB",
        "stop": "205",
        "name_en": "Tin Shui Estate, Tin Shui Road",
        "name_tc": "天瑞邨, 天瑞路",
        "name_sc": "天瑞邨, 天瑞路",
        "lat": "22.45659700",
        "long": "113.99943400"
    },
    {
        "co": "NLB",
        "stop": "206",
        "name_en": "Tin Shui Wai Park, Tin Shui Road",
        "name_tc": "天水圍公園, 天瑞路",
        "name_sc": "天水围公园, 天瑞路",
        "lat": "22.45455500",
        "long": "114.00305500"
    },
    {
        "co": "NLB",
        "stop": "207",
        "name_en": "Tin Shing Court, Ping Ha Road",
        "name_tc": "天盛苑, 屏廈路",
        "name_sc": "天盛苑, 屏厦路",
        "lat": "22.44669700",
        "long": "114.00300000"
    },
    {
        "co": "NLB",
        "stop": "221",
        "name_en": "Tai O, Tai O Road",
        "name_tc": "大澳, 大澳道",
        "name_sc": "大澳, 大澳道",
        "lat": "22.25278300",
        "long": "113.86216000"
    },
    {
        "co": "NLB",
        "stop": "222",
        "name_en": "Lung Tin Estate, Tai O Road",
        "name_tc": "龍田邨, 大澳道",
        "name_sc": "龙田邨, 大澳道",
        "lat": "22.25252100",
        "long": "113.86500500"
    },
    {
        "co": "NLB",
        "stop": "224",
        "name_en": "Hang Mei, Tai O Road",
        "name_tc": "坑尾, 大澳道",
        "name_sc": "坑尾, 大澳道",
        "lat": "22.25083200",
        "long": "113.86930600"
    },
    {
        "co": "NLB",
        "stop": "225",
        "name_en": "Ling Yan Monastery, Tai O Road",
        "name_tc": "靈隱寺, 大澳道",
        "name_sc": "灵隐寺, 大澳道",
        "lat": "22.24428700",
        "long": "113.87510700"
    },
    {
        "co": "NLB",
        "stop": "226",
        "name_en": "Sun Fung Tsuen, Tai O Road",
        "name_tc": "新鳳村, 大澳道",
        "name_sc": "新凤村, 大澳道",
        "lat": "22.24390000",
        "long": "113.87700600"
    },
    {
        "co": "NLB",
        "stop": "227",
        "name_en": "Keung Shan Management Centre, Tai O Road",
        "name_tc": "羌山管理站, 大澳道",
        "name_sc": "羌山管理站, 大澳道",
        "lat": "22.24218200",
        "long": "113.87905100"
    },
    {
        "co": "NLB",
        "stop": "228",
        "name_en": "Lung Chai, Tai O Road",
        "name_tc": "龍仔, 大澳道",
        "name_sc": "龙仔, 大澳道",
        "lat": "22.24137000",
        "long": "113.88139200"
    },
    {
        "co": "NLB",
        "stop": "229",
        "name_en": "Shing Fai Orchard, Keung Shan Road",
        "name_tc": "成輝果園, 姜山道",
        "name_sc": "成辉果园, 姜山道",
        "lat": "22.24400100",
        "long": "113.88399500"
    },
    {
        "co": "NLB",
        "stop": "230",
        "name_en": "Sam Yuen Ching Shea, Keung Shan Road",
        "name_tc": "三緣精舍, 姜山道",
        "name_sc": "三缘精舍, 姜山道",
        "lat": "22.24671100",
        "long": "113.88596800"
    },
    {
        "co": "NLB",
        "stop": "232",
        "name_en": "Fat Hwa Yuen, Keung Shan Road",
        "name_tc": "法華苑, 姜山道",
        "name_sc": "法华苑, 姜山道",
        "lat": "22.24622100",
        "long": "113.88887200"
    },
    {
        "co": "NLB",
        "stop": "233",
        "name_en": "Sham Wat Road, Sham Wat Road",
        "name_tc": "深屈道, 深屈道",
        "name_sc": "深屈道, 深屈道",
        "lat": "22.24459200",
        "long": "113.89187900"
    },
    {
        "co": "NLB",
        "stop": "234",
        "name_en": "Shek Pik Au W.W.O. Access Road, Keung Shan Road",
        "name_tc": "石壁坳引水道通道, 姜山道",
        "name_sc": "石壁坳引水道通道, 姜山道",
        "lat": "22.23917900",
        "long": "113.89397500"
    },
    {
        "co": "NLB",
        "stop": "235",
        "name_en": "Sha Tsui, Keung Shan Road",
        "name_tc": "沙咀, 姜山道",
        "name_sc": "沙咀, 姜山道",
        "lat": "22.22850300",
        "long": "113.89110500"
    },
    {
        "co": "NLB",
        "stop": "236",
        "name_en": "Shek Pik Police Station, South Lantau Road",
        "name_tc": "石壁警崗, 嶼南道",
        "name_sc": "石壁警岗, 屿南道",
        "lat": "22.22611900",
        "long": "113.89813400"
    },
    {
        "co": "NLB",
        "stop": "237",
        "name_en": "Shui Hau Helicopter Landing Field, South Lantau Road",
        "name_tc": "水口直升機場, 嶼南道",
        "name_sc": "水口直升机场, 屿南道",
        "lat": "22.22370300",
        "long": "113.90832500"
    },
    {
        "co": "NLB",
        "stop": "238",
        "name_en": "Four-Eye Ma, South Lantau Road",
        "name_tc": "四眼馬, 嶼南道",
        "name_sc": "四眼马, 屿南道",
        "lat": "22.22205400",
        "long": "113.91063200"
    },
    {
        "co": "NLB",
        "stop": "239",
        "name_en": "Shui Hau Village, South Lantau Road",
        "name_tc": "水口村, 嶼南道",
        "name_sc": "水口村, 屿南道",
        "lat": "22.22110100",
        "long": "113.91417300"
    },
    {
        "co": "NLB",
        "stop": "240",
        "name_en": "Shui Hau Village (East), South Lantau Road",
        "name_tc": "水口村(東), 嶼南道",
        "name_sc": "水口村(东), 屿南道",
        "lat": "22.22184100",
        "long": "113.91576300"
    },
    {
        "co": "NLB",
        "stop": "241",
        "name_en": "Lower Wan Lung, South Lantau Road",
        "name_tc": "下橫壟, 嶼南道",
        "name_sc": "下横垄, 屿南道",
        "lat": "22.22205000",
        "long": "113.91923400"
    },
    {
        "co": "NLB",
        "stop": "242",
        "name_en": "Upper Wan Lung, South Lantau Road",
        "name_tc": "上橫壟, 嶼南道",
        "name_sc": "上横垄, 屿南道",
        "lat": "22.22435800",
        "long": "113.92107700"
    },
    {
        "co": "NLB",
        "stop": "243",
        "name_en": "South Lantau Sea Cable Station, South Lantau Road",
        "name_tc": "南大嶼山海底電纜站, 嶼南道",
        "name_sc": "南大屿山海底电缆站, 屿南道",
        "lat": "22.22588300",
        "long": "113.92718000"
    },
    {
        "co": "NLB",
        "stop": "244",
        "name_en": "Ma Po Ping Road Junction, South Lantau Road",
        "name_tc": "麻埔坪道口, 嶼南道",
        "name_sc": "麻埔坪道口, 屿南道",
        "lat": "22.22658300",
        "long": "113.93007700"
    },
    {
        "co": "NLB",
        "stop": "245",
        "name_en": "Tong Fuk Village, South Lantau Road",
        "name_tc": "塘福村, 嶼南道",
        "name_sc": "塘福村, 屿南道",
        "lat": "22.22776300",
        "long": "113.93239700"
    },
    {
        "co": "NLB",
        "stop": "246",
        "name_en": "Tong Fuk Beach, South Lantau Road",
        "name_tc": "塘福海灘, 嶼南道",
        "name_sc": "塘福海滩, 屿南道",
        "lat": "22.22894100",
        "long": "113.93594400"
    },
    {
        "co": "NLB",
        "stop": "247",
        "name_en": "Upper Cheung Sha Beach, South Lantau Road",
        "name_tc": "上長沙泳灘, 嶼南道",
        "name_sc": "上长沙泳滩, 屿南道",
        "lat": "22.23132900",
        "long": "113.94176600"
    },
    {
        "co": "NLB",
        "stop": "248",
        "name_en": "Cheung Sha Bridge, South Lantau Road",
        "name_tc": "長沙大橋, 嶼南道",
        "name_sc": "长沙大桥, 屿南道",
        "lat": "22.23397900",
        "long": "113.94736600"
    },
    {
        "co": "NLB",
        "stop": "249",
        "name_en": "Butterfly Crest, South Lantau Road",
        "name_tc": "蝶崗, 嶼南道",
        "name_sc": "蝶岗, 屿南道",
        "lat": "22.23506200",
        "long": "113.94929800"
    },
    {
        "co": "NLB",
        "stop": "250",
        "name_en": "Leyburn Villas, South Lantau Road",
        "name_tc": "麗濱別墅, 嶼南道",
        "name_sc": "丽滨别墅, 屿南道",
        "lat": "22.23647200",
        "long": "113.95142400"
    },
    {
        "co": "NLB",
        "stop": "251",
        "name_en": "Cheung Sha Fire Station, South Lantau Road",
        "name_tc": "長沙消防局, 嶼南道",
        "name_sc": "长沙消防局, 屿南道",
        "lat": "22.23680300",
        "long": "113.95543400"
    },
    {
        "co": "NLB",
        "stop": "252",
        "name_en": "Cheung Sha Ha Tsuen, South Lantau Road",
        "name_tc": "長沙下村, 嶼南道",
        "name_sc": "长沙下村, 屿南道",
        "lat": "22.23496500",
        "long": "113.95717000"
    },
    {
        "co": "NLB",
        "stop": "253",
        "name_en": "Cheung Sha Police Headquarters, South Lantau Road",
        "name_tc": "長沙警署, 嶼南道",
        "name_sc": "长沙警署, 屿南道",
        "lat": "22.23396400",
        "long": "113.96017400"
    },
    {
        "co": "NLB",
        "stop": "254",
        "name_en": "Cheung Sha Sheung Tsuen, South Lantau Road",
        "name_tc": "長沙上村, 嶼南道",
        "name_sc": "长沙上村, 屿南道",
        "lat": "22.23533000",
        "long": "113.96154700"
    },
    {
        "co": "NLB",
        "stop": "255",
        "name_en": "San Shek Wan Roundabout, South Lantau Road",
        "name_tc": "散石灣迴旋處, 嶼南道",
        "name_sc": "散石湾回旋处, 屿南道",
        "lat": "22.23672700",
        "long": "113.96242400"
    },
    {
        "co": "NLB",
        "stop": "256",
        "name_en": "YWCA Sydney Leong Holiday Lodge, South Lantau Road",
        "name_tc": "女青年會梁紹榮度假村, 嶼南道",
        "name_sc": "女青年会梁绍荣度假村, 屿南道",
        "lat": "22.23776800",
        "long": "113.96397300"
    },
    {
        "co": "NLB",
        "stop": "257",
        "name_en": "San Shek Wan Village, South Lantau Road",
        "name_tc": "散石灣村, 嶼南道",
        "name_sc": "散石湾村, 屿南道",
        "lat": "22.23902400",
        "long": "113.96652600"
    },
    {
        "co": "NLB",
        "stop": "258",
        "name_en": "San Shek Wan 3 1/4 Milestone, South Lantau Road",
        "name_tc": "散石灣中蘆, 嶼南道",
        "name_sc": "散石湾中芦, 屿南道",
        "lat": "22.24125500",
        "long": "113.96866600"
    },
    {
        "co": "NLB",
        "stop": "259",
        "name_en": "Lo Uk Tsuen, South Lantau Road",
        "name_tc": "羅屋村, 嶼南道",
        "name_sc": "罗屋村, 屿南道",
        "lat": "22.24337500",
        "long": "113.97483200"
    },
    {
        "co": "NLB",
        "stop": "260",
        "name_en": "Sun Wai Tsuen, South Lantau Road",
        "name_tc": "新圍村, 嶼南道",
        "name_sc": "新围村, 屿南道",
        "lat": "22.24347600",
        "long": "113.97732200"
    },
    {
        "co": "NLB",
        "stop": "261",
        "name_en": "Lo Wai Tsuen, South Lantau Road",
        "name_tc": "老圍村, 嶼南道",
        "name_sc": "老围村, 屿南道",
        "lat": "22.24444000",
        "long": "113.97900000"
    },
    {
        "co": "NLB",
        "stop": "262",
        "name_en": "Pui O Petrol Station, South Lantau Road",
        "name_tc": "貝澳油站, 嶼南道",
        "name_sc": "贝澳油站, 屿南道",
        "lat": "22.24750100",
        "long": "113.98077000"
    },
    {
        "co": "NLB",
        "stop": "263",
        "name_en": "Swire Staff Holiday House, South Lantau Road",
        "name_tc": "太古職員宿舍, 嶼南道",
        "name_sc": "太古职员宿舍, 屿南道",
        "lat": "22.25212000",
        "long": "113.98474500"
    },
    {
        "co": "NLB",
        "stop": "264",
        "name_en": "Nam Shan Camp Site, South Lantau Road",
        "name_tc": "南山營地, 嶼南道",
        "name_sc": "南山营地, 屿南道",
        "lat": "22.25606700",
        "long": "113.98747000"
    },
    {
        "co": "NLB",
        "stop": "265",
        "name_en": "Nam Shan Sam Uk Tsuen, South Lantau Road",
        "name_tc": "南山三屋村, 嶼南道",
        "name_sc": "南山三屋村, 屿南道",
        "lat": "22.25732700",
        "long": "113.98990100"
    },
    {
        "co": "NLB",
        "stop": "266",
        "name_en": "Lai Chi Yuen, South Lantau Road",
        "name_tc": "荔枝園, 嶼南道",
        "name_sc": "荔枝园, 屿南道",
        "lat": "22.26066700",
        "long": "113.99626800"
    },
    {
        "co": "NLB",
        "stop": "269",
        "name_en": "Sham Wat Road Junction, Keung Shan Road",
        "name_tc": "深屈道口, 姜山道",
        "name_sc": "深屈道口, 姜山道",
        "lat": "22.24520700",
        "long": "113.89208900"
    },
    {
        "co": "NLB",
        "stop": "270",
        "name_en": "Ngong Ping, Po Ngong Road",
        "name_tc": "昂坪, 寶昂路",
        "name_sc": "昂坪, 宝昂路",
        "lat": "22.25561200",
        "long": "113.90286200"
    },
    {
        "co": "NLB",
        "stop": "271",
        "name_en": "San Hoi Ting, Sham Wat Road",
        "name_tc": "山海亭, 深屈道",
        "name_sc": "山海亭, 深屈道",
        "lat": "22.24931300",
        "long": "113.89284000"
    },
    {
        "co": "NLB",
        "stop": "273",
        "name_en": "Cheung Sha Catchwater, Tung Chung Road",
        "name_tc": "長沙引水道, 東涌道",
        "name_sc": "长沙引水道, 东涌道",
        "lat": "22.24000700",
        "long": "113.95733900"
    },
    {
        "co": "NLB",
        "stop": "274",
        "name_en": "Cathay City, Scenic Road",
        "name_tc": "國泰城, 觀景路",
        "name_sc": "国泰城, 观景路",
        "lat": "22.29755500",
        "long": "113.93336000"
    },
    {
        "co": "NLB",
        "stop": "276",
        "name_en": "Chek Lap Kok South Road, Chek Lap Kok South Road",
        "name_tc": "赤鱲角南路, 赤鱲角南路",
        "name_sc": "赤鱲角南路, 赤鱲角南路",
        "lat": "22.29197000",
        "long": "113.92875900"
    },
    {
        "co": "NLB",
        "stop": "277",
        "name_en": "Aviation Fuel Tank Farm, Scenic Road",
        "name_tc": "飛機燃料庫, 觀景路",
        "name_sc": "飞机燃料库, 观景路",
        "lat": "22.29307500",
        "long": "113.93222900"
    },
    {
        "co": "NLB",
        "stop": "278",
        "name_en": "Tung Chung Station Bus Terminus, Tat Tung Road",
        "name_tc": "東涌站巴士總站, 達東路",
        "name_sc": "东涌站巴士总站, 达东路",
        "lat": "22.28986200",
        "long": "113.93961600"
    },
    {
        "co": "NLB",
        "stop": "279",
        "name_en": "Sheung Ling Pei, Tung Chung Road",
        "name_tc": "上嶺皮, 東涌道",
        "name_sc": "上岭皮, 东涌道",
        "lat": "22.27879200",
        "long": "113.93714800"
    },
    {
        "co": "NLB",
        "stop": "280",
        "name_en": "Ha Ling Pei, Tung Chung Road",
        "name_tc": "下嶺皮, 東涌道",
        "name_sc": "下岭皮, 东涌道",
        "lat": "22.27851200",
        "long": "113.93542300"
    },
    {
        "co": "NLB",
        "stop": "282",
        "name_en": "Wong Ka Wai, Tung Chung Road",
        "name_tc": "黃家圍, 東涌道",
        "name_sc": "黄家围, 东涌道",
        "lat": "22.27703800",
        "long": "113.93397500"
    },
    {
        "co": "NLB",
        "stop": "283",
        "name_en": "Lung Tseng Tau, Tung Chung Road",
        "name_tc": "龍井頭, 東涌道",
        "name_sc": "龙井头, 东涌道",
        "lat": "22.27570700",
        "long": "113.93370700"
    },
    {
        "co": "NLB",
        "stop": "284",
        "name_en": "Shek Mun Kap Road, Tung Chung Road",
        "name_tc": "石門甲道, 東涌道",
        "name_sc": "石门甲道, 东涌道",
        "lat": "22.27047000",
        "long": "113.93446500"
    },
    {
        "co": "NLB",
        "stop": "286",
        "name_en": "Cemetery Area No. 18, Tung Chung Road",
        "name_tc": "十八區墳場, 東涌道",
        "name_sc": "十八区坟场, 东涌道",
        "lat": "22.26567800",
        "long": "113.93674000"
    },
    {
        "co": "NLB",
        "stop": "287",
        "name_en": "Tung Chung Au Management Centre, Tung Chung Road",
        "name_tc": "東涌坳管理站, 東涌道",
        "name_sc": "东涌坳管理站, 东涌道",
        "lat": "22.26410400",
        "long": "113.93755200"
    },
    {
        "co": "NLB",
        "stop": "288",
        "name_en": "Pak Kung Au, Tung Chung Road",
        "name_tc": "伯公坳, 東涌道",
        "name_sc": "伯公坳, 东涌道",
        "lat": "22.24893900",
        "long": "113.94259700"
    },
    {
        "co": "NLB",
        "stop": "289",
        "name_en": "Yat Tung Estate, Yat Tung Street",
        "name_tc": "逸東邨, 逸東街",
        "name_sc": "逸东邨, 逸东街",
        "lat": "22.28205300",
        "long": "113.93586200"
    },
    {
        "co": "NLB",
        "stop": "291",
        "name_en": "Shek Mun Kap, Shek Mun Kap Road",
        "name_tc": "石門甲, 石門甲道",
        "name_sc": "石门甲, 石门甲道",
        "lat": "22.26905700",
        "long": "113.93118500"
    },
    {
        "co": "NLB",
        "stop": "292",
        "name_en": "Shek Mun Kap Village, Shek Mun Kap Road",
        "name_tc": "石門甲村, 石門甲道",
        "name_sc": "石门甲村, 石门甲道",
        "lat": "22.26957500",
        "long": "113.93197800"
    },
    {
        "co": "NLB",
        "stop": "293",
        "name_en": "Siu Ho Wan, Shum Fung Road",
        "name_tc": "小蠔灣, 深豐路",
        "name_sc": "小蚝湾, 深丰路",
        "lat": "22.31551900",
        "long": "113.99797500"
    },
    {
        "co": "NLB",
        "stop": "294",
        "name_en": "Government Maintenance Depot, Cheung Tung Road",
        "name_tc": "政府維修廠, 翔東路",
        "name_sc": "政府维修厂, 翔东路",
        "lat": "22.30928300",
        "long": "113.98925400"
    },
    {
        "co": "NLB",
        "stop": "295",
        "name_en": "Pak Mong, Cheung Tung Road",
        "name_tc": "白芒, 翔東路",
        "name_sc": "白芒, 翔东路",
        "lat": "22.29796400",
        "long": "113.96758000"
    },
    {
        "co": "NLB",
        "stop": "297",
        "name_en": "Ying Tung Estate, Ying Tung Estate",
        "name_tc": "迎東邨, 迎東邨",
        "name_sc": "迎东邨, 迎东邨",
        "lat": "22.29710400",
        "long": "113.95334200"
    },
    {
        "co": "NLB",
        "stop": "298",
        "name_en": "Caribbean Coast Phase 2, Man Tung Road",
        "name_tc": "映灣園二期, 文東路",
        "name_sc": "映湾园二期, 文东路",
        "lat": "22.29193200",
        "long": "113.95049000"
    },
    {
        "co": "NLB",
        "stop": "299",
        "name_en": "Seaview Crescent, Wai Tung Road",
        "name_tc": "海堤灣畔, 惠東路",
        "name_sc": "海堤湾畔, 惠东路",
        "lat": "22.29303900",
        "long": "113.94317900"
    },
    {
        "co": "NLB",
        "stop": "302",
        "name_en": "Uptown, Castle Peak Road",
        "name_tc": "尚城, 青山公路",
        "name_sc": "尚城, 青山公路",
        "lat": "22.43530000",
        "long": "114.00031400"
    },
    {
        "co": "NLB",
        "stop": "303",
        "name_en": "Century Link, Ying Hong Street No.6",
        "name_tc": "東環, 迎康街6號",
        "name_sc": "东环, 迎康街6号",
        "lat": "22.29439800",
        "long": "113.94907100"
    },
    {
        "co": "NLB",
        "stop": "305",
        "name_en": "Mui Wo Ferry Pier, Mui Wo Ferry Pier",
        "name_tc": "梅窩碼頭, 梅窩碼頭",
        "name_sc": "梅窝码头, 梅窝码头",
        "lat": "22.26466400",
        "long": "114.00155400"
    },
    {
        "co": "NLB",
        "stop": "306",
        "name_en": "Yung Yat House, Yat Tung Estate, Yu Tung Road",
        "name_tc": "逸東邨雍逸樓, 裕東路",
        "name_sc": "逸东邨雍逸楼, 裕东路",
        "lat": "22.27974400",
        "long": "113.93699500"
    },
    {
        "co": "NLB",
        "stop": "307",
        "name_en": "HZMB Hong Kong Port, HZMB Hong Kong Port (Arrival Level)",
        "name_tc": "大橋香港口岸, 大橋香港口岸 (抵港層)",
        "name_sc": "大桥香港口岸, 大桥香港口岸 (抵港层)",
        "lat": "22.31640000",
        "long": "113.95085600"
    },
    {
        "co": "NLB",
        "stop": "308",
        "name_en": "HZMB Hong Kong Port Passenger Clearance Building, HZMB Hong Kong Port",
        "name_tc": "大橋香港口岸旅檢大樓, 大橋香港口岸",
        "name_sc": "大桥香港口岸旅检大楼, 大桥香港口岸",
        "lat": "22.31721100",
        "long": "113.95053100"
    },
    {
        "co": "NLB",
        "stop": "309",
        "name_en": "Mun Tung Estate, Yu Tung Road",
        "name_tc": "滿東邨, 裕東路",
        "name_sc": "满东邨, 裕东路",
        "lat": "22.27865300",
        "long": "113.93320300"
    },
    {
        "co": "NLB",
        "stop": "310",
        "name_en": "Mun Tung Estate, Yu Tung Road",
        "name_tc": "滿東邨, 裕東路",
        "name_sc": "满东邨, 裕东路",
        "lat": "22.27892200",
        "long": "113.93455600"
    },
    {
        "co": "NLB",
        "stop": "313",
        "name_en": "HZMB Hong Kong Port, HZMB Hong Kong Port (Arrival Level)",
        "name_tc": "大橋香港口岸, 大橋香港口岸 (抵港層)",
        "name_sc": "大桥香港口岸, 大桥香港口岸 (抵港层)",
        "lat": "22.31640000",
        "long": "113.95085600"
    },
    {
        "co": "NLB",
        "stop": "315",
        "name_en": "Caribbean Coast, Caribbean Coast",
        "name_tc": "映灣園, 映灣園",
        "name_sc": "映湾园, 映湾园",
        "lat": "22.29322200",
        "long": "113.94941000"
    },
    {
        "co": "NLB",
        "stop": "317",
        "name_en": "Tung Chung Tat Tung Road Bus Terminus, Tat Tung Road",
        "name_tc": "東涌達東路巴士總站, 達東路",
        "name_sc": "东涌达东路巴士总站, 达东路",
        "lat": "22.29058000",
        "long": "113.93935200"
    },
    {
        "co": "NLB",
        "stop": "318",
        "name_en": "Tung Chung Tat Tung Road Bus Terminus, Tat Tung Road",
        "name_tc": "東涌達東路巴士總站, 達東路",
        "name_sc": "东涌达东路巴士总站, 达东路",
        "lat": "22.29058000",
        "long": "113.93935200"
    },
    {
        "co": "NLB",
        "stop": "319",
        "name_en": "Tung Chung Development Ferry Pier, Tung Chung Waterfront Road",
        "name_tc": "東涌發展碼頭, 東涌海濱路",
        "name_sc": "东涌发展码头, 东涌海滨路",
        "lat": "22.29384600",
        "long": "113.94044900"
    },
    {
        "co": "NLB",
        "stop": "320",
        "name_en": "North Lantau Hospital (North Bound), Mei Yat House Yat Tung Estate, Chung Yan Road",
        "name_tc": "北大嶼山醫院(北行), 逸東邨美逸樓, 松仁路",
        "name_sc": "北大屿山医院(北行), 逸东邨美逸楼, 松仁路",
        "lat": "22.28129500",
        "long": "113.93882200"
    },
    {
        "co": "NLB",
        "stop": "321",
        "name_en": "Tung Chung Cable Car Terminal, Tat Tung Road",
        "name_tc": "東涌纜車站, 達東路",
        "name_sc": "东涌缆车站, 达东路",
        "lat": "22.28930100",
        "long": "113.93873300"
    },
    {
        "co": "NLB",
        "stop": "322",
        "name_en": "North Lantau Hospital (South Bound), Chung Yan Road",
        "name_tc": "北大嶼山醫院(南行), 松仁路",
        "name_sc": "北大屿山医院(南行), 松仁路",
        "lat": "22.28186100",
        "long": "113.93880300"
    },
    {
        "co": "NLB",
        "stop": "324",
        "name_en": "Yu Nga Court, Ying Hei Road",
        "name_tc": "裕雅苑, 迎禧路",
        "name_sc": "裕雅苑, 迎禧路",
        "lat": "22.29419400",
        "long": "113.94725400"
    },
    {
        "co": "NLB",
        "stop": "327",
        "name_en": "Disneyland, Fantasy Road",
        "name_tc": "迪士尼樂園, 幻想道",
        "name_sc": "迪士尼乐园, 幻想道",
        "lat": "22.31635600",
        "long": "114.04573200"
    },
    {
        "co": "NLB",
        "stop": "328",
        "name_en": "Disneyland, Fantasy Road",
        "name_tc": "迪士尼樂園, 幻想道",
        "name_sc": "迪士尼乐园, 幻想道",
        "lat": "22.31635600",
        "long": "114.04573200"
    },
    {
        "co": "NLB",
        "stop": "329",
        "name_en": "Yu Nga Court, Yi Tung Road",
        "name_tc": "裕雅苑, 怡東路",
        "name_sc": "裕雅苑, 怡东路",
        "lat": "22.29655000",
        "long": "113.94846500"
    },
    {
        "co": "NLB",
        "stop": "330",
        "name_en": "Yu Nga Shopping Mall, Yi Tung Road",
        "name_tc": "裕雅商場, 怡東路",
        "name_sc": "裕雅商场, 怡东路",
        "lat": "22.29542600",
        "long": "113.94672800"
    },
    {
        "co": "NLB",
        "stop": "332",
        "name_en": "Tung Chung Station Bus Terminus, Tat Tung Road",
        "name_tc": "東涌站巴士總站, 達東路",
        "name_sc": "东涌站巴士总站, 达东路",
        "lat": "22.28986200",
        "long": "113.93961600"
    },
    {
        "co": "NLB",
        "stop": "333",
        "name_en": "Sheraton Hong Kong Tung Chung Hotel, Yi Tung Road",
        "name_tc": "東涌世茂喜來登酒店, 怡東路",
        "name_sc": "东涌世茂喜来登酒店, 怡东路",
        "lat": "22.29542800",
        "long": "113.94673200"
    },
    {
        "co": "NLB",
        "stop": "334",
        "name_en": "Sheraton Hong Kong Tung Chung Hotel, Yi Tung Road",
        "name_tc": "東涌世茂喜來登酒店, 怡東路",
        "name_sc": "东涌世茂喜来登酒店, 怡东路",
        "lat": "22.29547400",
        "long": "113.94672800"
    },
    {
        "co": "NLB",
        "stop": "335",
        "name_en": "Skycity Transport Terminal, 航天城",
        "name_tc": "航天城交通總匯, 航天城",
        "name_sc": "航天城交通总汇, 航天城",
        "lat": "22.31681100",
        "long": "113.94162700"
    }
]